{
"type": "FeatureCollection",
"name": "austin_energy_service_area",
"xy_coordinate_resolution": 1e-05,
"features": [
{"type":"Feature","properties":{"service_area":"Austin Energy Service Area"},"geometry":{"type":"Polygon","coordinates":[[[-97.87771,30.2244],[-97.87853,30.22322],[-97.88002,30.22397],[-97.88368,30.21839],[-97.88239,30.21805],[-97.88144,30.21838],[-97.87982,30.21822],[-97.87904,30.21785],[-97.88575,30.20724],[-97.88755,30.20777],[-97.88795,30.20726],[-97.88675,30.20566],[-97.88866,30.20269],[-97.88727,30.2027],[-97.88662,30.20164],[-97.88394,30.20046],[-97.88261,30.19944],[-97.88158,30.19683],[-97.88003,30.19626],[-97.87856,30.19641],[-97.87603,30.19768],[-97.87503,30.19789],[-97.87358,30.19763],[-97.86987,30.19584],[-97.86779,30.19562],[-97.86613,30.19518],[-97.86563,30.19435],[-97.86597,30.19137],[-97.86542,30.19036],[-97.86464,30.19035],[-97.86359,30.19064],[-97.86255,30.19035],[-97.86119,30.18829],[-97.86128,30.18711],[-97.86587,30.18132],[-97.8622,30.17594],[-97.86314,30.17394],[-97.86261,30.17252],[-97.86461,30.17082],[-97.86461,30.16996],[-97.86344,30.16953],[-97.85768,30.16897],[-97.8565,30.16813],[-97.85574,30.16702],[-97.85457,30.16614],[-97.85368,30.16621],[-97.85327,30.16775],[-97.85224,30.16931],[-97.85155,30.16975],[-97.84954,30.16899],[-97.8452,30.16329],[-97.84362,30.16194],[-97.84043,30.16043],[-97.83787,30.16033],[-97.83336,30.15943],[-97.83335,30.15332],[-97.82604,30.15339],[-97.82735,30.14877],[-97.82313,30.14819],[-97.81808,30.14962],[-97.81652,30.14952],[-97.81473,30.14881],[-97.81348,30.14734],[-97.81328,30.14026],[-97.81364,30.13959],[-97.81327,30.13471],[-97.81065,30.13308],[-97.8121,30.13087],[-97.81243,30.12726],[-97.81186,30.12572],[-97.8117,30.12204],[-97.8084,30.1205],[-97.80589,30.11652],[-97.80624,30.11563],[-97.80752,30.11355],[-97.80793,30.11266],[-97.78214,30.11279],[-97.74975,30.09734],[-97.73069,30.12646],[-97.73736,30.1297],[-97.72941,30.14209],[-97.7293,30.14248],[-97.73129,30.14969],[-97.73157,30.15029],[-97.73192,30.15209],[-97.73167,30.1537],[-97.72955,30.15752],[-97.73032,30.15729],[-97.73087,30.15737],[-97.73618,30.15987],[-97.73634,30.16072],[-97.73601,30.16222],[-97.73617,30.16264],[-97.73684,30.16312],[-97.74164,30.16556],[-97.73903,30.16961],[-97.73169,30.16679],[-97.72409,30.16636],[-97.72008,30.16307],[-97.71915,30.16446],[-97.71535,30.1614],[-97.71462,30.16171],[-97.70876,30.15855],[-97.7062,30.16329],[-97.70357,30.16178],[-97.69887,30.1688],[-97.6972,30.1664],[-97.6943,30.16491],[-97.69298,30.16657],[-97.69145,30.16757],[-97.68987,30.16702],[-97.6887,30.16611],[-97.68723,30.16548],[-97.686,30.16601],[-97.68506,30.16707],[-97.68337,30.17028],[-97.68269,30.17069],[-97.68159,30.17112],[-97.68068,30.17071],[-97.68034,30.17033],[-97.6797,30.17076],[-97.67914,30.17283],[-97.67858,30.1735],[-97.67796,30.17351],[-97.67754,30.17316],[-97.67698,30.17297],[-97.6756,30.17412],[-97.67486,30.17395],[-97.67314,30.17312],[-97.67211,30.17216],[-97.67135,30.17078],[-97.67056,30.16689],[-97.67201,30.16395],[-97.66482,30.16042],[-97.66314,30.16279],[-97.65587,30.15939],[-97.65633,30.15832],[-97.65059,30.15558],[-97.65068,30.15504],[-97.64642,30.15302],[-97.65128,30.14501],[-97.64973,30.1443],[-97.65224,30.14033],[-97.65379,30.14097],[-97.65472,30.14087],[-97.65558,30.14041],[-97.66367,30.12807],[-97.6622,30.1258],[-97.66096,30.1235],[-97.66038,30.12204],[-97.66006,30.12034],[-97.65999,30.1189],[-97.66046,30.11649],[-97.66094,30.11547],[-97.65128,30.11028],[-97.6502,30.11059],[-97.64424,30.10558],[-97.63691,30.11182],[-97.63343,30.10893],[-97.62718,30.11419],[-97.61594,30.12919],[-97.61266,30.13422],[-97.60592,30.13101],[-97.60544,30.13052],[-97.59272,30.14194],[-97.60623,30.14846],[-97.5912,30.17217],[-97.61331,30.18269],[-97.6114,30.1858],[-97.61352,30.18578],[-97.6146,30.18602],[-97.6156,30.1864],[-97.61773,30.18296],[-97.631,30.18914],[-97.63087,30.18922],[-97.63038,30.18904],[-97.62977,30.18955],[-97.62874,30.18955],[-97.6282,30.1885],[-97.62464,30.18853],[-97.62371,30.18812],[-97.6226,30.18787],[-97.62121,30.18834],[-97.62118,30.18869],[-97.62153,30.18877],[-97.62151,30.18891],[-97.62089,30.18956],[-97.62012,30.18923],[-97.61947,30.1891],[-97.61664,30.18989],[-97.61578,30.19052],[-97.61552,30.19095],[-97.61548,30.19168],[-97.61555,30.19192],[-97.61619,30.19241],[-97.61633,30.19319],[-97.61512,30.19394],[-97.61438,30.19416],[-97.61388,30.19454],[-97.61346,30.1955],[-97.61362,30.19583],[-97.61384,30.196],[-97.61412,30.19678],[-97.61466,30.19718],[-97.61504,30.19718],[-97.61554,30.19698],[-97.61575,30.19744],[-97.61568,30.19761],[-97.61529,30.19785],[-97.61481,30.19846],[-97.6153,30.19922],[-97.61628,30.19975],[-97.61677,30.20017],[-97.61785,30.20073],[-97.61895,30.20064],[-97.61966,30.20096],[-97.6197,30.20159],[-97.6193,30.20189],[-97.61898,30.20246],[-97.61961,30.20446],[-97.61969,30.20512],[-97.61922,30.20576],[-97.61866,30.20621],[-97.61782,30.20656],[-97.61657,30.20732],[-97.61608,30.20735],[-97.61498,30.20648],[-97.61502,30.20606],[-97.6154,30.2057],[-97.61517,30.2045],[-97.61437,30.20435],[-97.61384,30.20441],[-97.61345,30.20468],[-97.61288,30.20481],[-97.61248,30.20475],[-97.6112,30.20414],[-97.61106,30.20388],[-97.61115,30.20297],[-97.61084,30.20181],[-97.61024,30.20061],[-97.6094,30.19966],[-97.6088,30.19924],[-97.60721,30.19905],[-97.60679,30.19914],[-97.60596,30.19984],[-97.60322,30.20007],[-97.60063,30.20135],[-97.60012,30.20171],[-97.59991,30.2025],[-97.6001,30.20538],[-97.59996,30.20581],[-97.60104,30.20662],[-97.60033,30.20729],[-97.60426,30.21035],[-97.60997,30.21009],[-97.61409,30.21386],[-97.61531,30.21333],[-97.6176,30.21198],[-97.62017,30.21069],[-97.6264,30.21361],[-97.62683,30.21291],[-97.62945,30.21417],[-97.62769,30.21694],[-97.63013,30.21809],[-97.63114,30.21646],[-97.63592,30.21875],[-97.62496,30.23613],[-97.62019,30.2339],[-97.62251,30.23024],[-97.61769,30.22784],[-97.61734,30.22802],[-97.61546,30.23085],[-97.61031,30.22835],[-97.61069,30.22772],[-97.60412,30.22456],[-97.60386,30.22459],[-97.60357,30.226],[-97.60316,30.22659],[-97.60273,30.22678],[-97.59878,30.22756],[-97.59824,30.22773],[-97.59775,30.22799],[-97.59745,30.22831],[-97.59702,30.22847],[-97.59525,30.22846],[-97.59375,30.22777],[-97.59306,30.22726],[-97.59259,30.22667],[-97.59231,30.22607],[-97.59211,30.22472],[-97.59224,30.22365],[-97.59257,30.22291],[-97.59325,30.22206],[-97.59471,30.22133],[-97.59504,30.22095],[-97.59549,30.22011],[-97.59563,30.21911],[-97.59563,30.21799],[-97.59546,30.21683],[-97.59475,30.2148],[-97.59446,30.21301],[-97.59503,30.20952],[-97.59508,30.20846],[-97.59474,30.20788],[-97.59387,30.20727],[-97.59239,30.20668],[-97.58972,30.20597],[-97.58878,30.20605],[-97.58753,30.20638],[-97.5853,30.20737],[-97.58347,30.20851],[-97.58201,30.20976],[-97.5818,30.21022],[-97.58175,30.21098],[-97.58131,30.21183],[-97.57919,30.21351],[-97.57842,30.21387],[-97.57733,30.21415],[-97.57522,30.21431],[-97.56636,30.21239],[-97.56483,30.21185],[-97.56405,30.21145],[-97.56339,30.21096],[-97.56295,30.21034],[-97.5623,30.20867],[-97.56167,30.20822],[-97.56078,30.20776],[-97.55931,30.20746],[-97.55802,30.2074],[-97.55683,30.20758],[-97.55558,30.20815],[-97.55493,30.20871],[-97.55046,30.21426],[-97.54857,30.21618],[-97.54542,30.21853],[-97.54293,30.21968],[-97.55162,30.22367],[-97.54585,30.23264],[-97.54529,30.23228],[-97.54485,30.23161],[-97.54408,30.23006],[-97.54363,30.22843],[-97.54331,30.22781],[-97.54219,30.22666],[-97.52634,30.25108],[-97.5215,30.2476],[-97.52133,30.24733],[-97.52123,30.24659],[-97.52145,30.24598],[-97.51574,30.24072],[-97.51671,30.23981],[-97.51186,30.23542],[-97.51331,30.23403],[-97.50889,30.23047],[-97.50028,30.23875],[-97.49631,30.2423],[-97.49517,30.24152],[-97.49539,30.24125],[-97.49343,30.23985],[-97.49322,30.24038],[-97.49251,30.24143],[-97.48729,30.24782],[-97.48845,30.24854],[-97.48819,30.24987],[-97.48632,30.249],[-97.48534,30.25029],[-97.48027,30.25846],[-97.48048,30.25893],[-97.48073,30.25912],[-97.49033,30.26395],[-97.48713,30.26882],[-97.50304,30.27651],[-97.51118,30.2636],[-97.51666,30.26618],[-97.51681,30.26612],[-97.51736,30.26522],[-97.55264,30.28237],[-97.55813,30.2745],[-97.56329,30.27684],[-97.57708,30.28342],[-97.57975,30.28447],[-97.58107,30.28513],[-97.57268,30.29961],[-97.59183,30.30917],[-97.58551,30.31916],[-97.58145,30.3227],[-97.58007,30.32349],[-97.58828,30.33041],[-97.58412,30.33535],[-97.58878,30.33953],[-97.58774,30.34158],[-97.60433,30.33544],[-97.60728,30.3347],[-97.60806,30.33688],[-97.60873,30.33788],[-97.60945,30.33843],[-97.61094,30.3391],[-97.6117,30.33958],[-97.61233,30.34018],[-97.61409,30.34237],[-97.61564,30.34324],[-97.61387,30.34609],[-97.61368,30.34673],[-97.61366,30.34772],[-97.61397,30.34891],[-97.61653,30.35433],[-97.61676,30.3557],[-97.6164,30.35712],[-97.61419,30.36072],[-97.61381,30.36161],[-97.61318,30.36477],[-97.61327,30.36742],[-97.61216,30.37144],[-97.60907,30.37083],[-97.60944,30.36949],[-97.60681,30.36878],[-97.60536,30.36807],[-97.60407,30.36717],[-97.60318,30.36855],[-97.59783,30.36596],[-97.59234,30.37431],[-97.59353,30.37487],[-97.58851,30.38225],[-97.58911,30.38274],[-97.5898,30.38262],[-97.59042,30.38285],[-97.5908,30.38333],[-97.59047,30.38375],[-97.58993,30.38398],[-97.5885,30.38406],[-97.58778,30.38439],[-97.58714,30.38529],[-97.58723,30.38588],[-97.58825,30.38574],[-97.58964,30.38588],[-97.59051,30.38632],[-97.59086,30.38681],[-97.59089,30.38724],[-97.59053,30.38728],[-97.59006,30.38707],[-97.58993,30.38734],[-97.5901,30.38807],[-97.58993,30.38833],[-97.5894,30.38826],[-97.58926,30.38859],[-97.58971,30.38941],[-97.58921,30.39015],[-97.58968,30.39078],[-97.59051,30.39093],[-97.59162,30.39089],[-97.59201,30.39161],[-97.5898,30.39555],[-97.57604,30.41717],[-97.57593,30.41756],[-97.57614,30.41795],[-97.58409,30.42179],[-97.59057,30.42468],[-97.59242,30.42563],[-97.59535,30.4268],[-97.5995,30.42962],[-97.61327,30.43591],[-97.61369,30.43534],[-97.61509,30.43583],[-97.61622,30.43475],[-97.62008,30.43644],[-97.62171,30.43392],[-97.62572,30.4354],[-97.626,30.43664],[-97.62795,30.43727],[-97.62776,30.4384],[-97.63036,30.43974],[-97.62841,30.44296],[-97.63699,30.4472],[-97.64951,30.44587],[-97.6768,30.45888],[-97.67956,30.45392],[-97.68102,30.45366],[-97.68645,30.44547],[-97.69538,30.4496],[-97.69594,30.44883],[-97.69838,30.45012],[-97.69932,30.44868],[-97.70226,30.45005],[-97.70317,30.44858],[-97.70407,30.44905],[-97.70899,30.44133],[-97.72447,30.44855],[-97.72733,30.4475],[-97.72996,30.45126],[-97.72559,30.45341],[-97.73433,30.4652],[-97.72657,30.46987],[-97.73344,30.48473],[-97.73262,30.48527],[-97.73085,30.4872],[-97.73725,30.50358],[-97.74937,30.50001],[-97.74735,30.49515],[-97.74862,30.49325],[-97.74878,30.49282],[-97.75131,30.49052],[-97.75314,30.4902],[-97.75436,30.48979],[-97.75625,30.48947],[-97.76166,30.48817],[-97.7639,30.4878],[-97.76646,30.48782],[-97.76868,30.4883],[-97.77006,30.48833],[-97.79573,30.48028],[-97.79625,30.48166],[-97.80527,30.48168],[-97.80368,30.47964],[-97.81503,30.47613],[-97.81488,30.4754],[-97.81279,30.47534],[-97.8105,30.47579],[-97.81043,30.47298],[-97.81104,30.47085],[-97.80951,30.4707],[-97.80791,30.47286],[-97.80692,30.47369],[-97.80574,30.47396],[-97.8047,30.47374],[-97.80385,30.47299],[-97.80337,30.47167],[-97.80221,30.47193],[-97.80214,30.47098],[-97.80293,30.46969],[-97.80409,30.4687],[-97.80451,30.46763],[-97.80383,30.46604],[-97.80596,30.4653],[-97.80504,30.46301],[-97.80544,30.4614],[-97.8055,30.46028],[-97.8049,30.45956],[-97.80456,30.45889],[-97.80405,30.45709],[-97.804,30.45616],[-97.80347,30.45519],[-97.80292,30.45472],[-97.80046,30.44918],[-97.80039,30.44681],[-97.79889,30.44681],[-97.79814,30.44622],[-97.79591,30.44691],[-97.79328,30.44461],[-97.7894,30.44468],[-97.7837,30.44009],[-97.78254,30.44077],[-97.78088,30.44001],[-97.77699,30.43201],[-97.77817,30.432],[-97.77975,30.43133],[-97.78169,30.42985],[-97.78125,30.42845],[-97.77954,30.42616],[-97.78134,30.42343],[-97.77996,30.42268],[-97.78154,30.41671],[-97.7826,30.41687],[-97.78422,30.41883],[-97.78561,30.41955],[-97.78616,30.42045],[-97.7877,30.42155],[-97.78787,30.42262],[-97.79093,30.42328],[-97.79221,30.42294],[-97.79335,30.42318],[-97.79377,30.42231],[-97.79393,30.41896],[-97.79469,30.41785],[-97.79519,30.41627],[-97.7947,30.41535],[-97.79233,30.41238],[-97.79214,30.41111],[-97.79225,30.40889],[-97.7919,30.40829],[-97.78813,30.40483],[-97.78662,30.40445],[-97.78521,30.4034],[-97.78387,30.40069],[-97.82451,30.40092],[-97.82803,30.40045],[-97.83667,30.40422],[-97.83638,30.40483],[-97.837,30.40505],[-97.83737,30.40445],[-97.84296,30.40837],[-97.84992,30.41172],[-97.85391,30.40377],[-97.85531,30.40489],[-97.85798,30.40603],[-97.8585,30.40656],[-97.859,30.40668],[-97.85976,30.40713],[-97.86166,30.40796],[-97.86261,30.40865],[-97.86308,30.40906],[-97.86379,30.41078],[-97.86433,30.41164],[-97.86485,30.41117],[-97.86494,30.41071],[-97.86419,30.40931],[-97.86387,30.40892],[-97.86235,30.40795],[-97.86196,30.40745],[-97.85938,30.40655],[-97.85853,30.4065],[-97.8579,30.4059],[-97.85725,30.40556],[-97.85949,30.40188],[-97.85958,30.40192],[-97.85916,30.40258],[-97.85922,30.40272],[-97.85907,30.40299],[-97.85971,30.40381],[-97.86012,30.40387],[-97.86036,30.40356],[-97.86055,30.40362],[-97.86103,30.40434],[-97.8613,30.40437],[-97.86157,30.40424],[-97.86168,30.40395],[-97.86141,30.40354],[-97.86146,30.40313],[-97.86188,30.40237],[-97.8615,30.40155],[-97.86117,30.40149],[-97.8609,30.40125],[-97.86092,30.40087],[-97.86063,30.40057],[-97.85933,30.40035],[-97.86053,30.39842],[-97.87125,30.40358],[-97.8718,30.40219],[-97.87239,30.40129],[-97.87243,30.40091],[-97.87235,30.4007],[-97.87161,30.40007],[-97.87119,30.39923],[-97.87041,30.39815],[-97.87008,30.39711],[-97.87002,30.39615],[-97.86954,30.39466],[-97.90378,30.40684],[-97.90604,30.40911],[-97.90834,30.4136],[-97.91015,30.41917],[-97.91227,30.42357],[-97.91533,30.42896],[-97.91766,30.43165],[-97.92036,30.43383],[-97.92467,30.43656],[-97.92957,30.43849],[-97.9362,30.43844],[-97.9434,30.4374],[-97.9476,30.43529],[-97.94943,30.43382],[-97.95183,30.43128],[-97.95366,30.42871],[-97.9543,30.4275],[-97.95498,30.42498],[-97.95486,30.42366],[-97.95439,30.42242],[-97.952,30.4186],[-97.94771,30.41284],[-97.94435,30.40874],[-97.94085,30.40371],[-97.94073,30.40121],[-97.94118,30.39971],[-97.94223,30.39808],[-97.943,30.39729],[-97.94701,30.39549],[-97.95008,30.39439],[-97.95467,30.39255],[-97.95734,30.39049],[-97.96002,30.38779],[-97.96221,30.38495],[-97.9638,30.38203],[-97.96436,30.37983],[-97.96471,30.37687],[-97.96474,30.3754],[-97.96428,30.37301],[-97.9651,30.37211],[-97.96572,30.36942],[-97.96769,30.36766],[-97.97124,30.36838],[-97.97306,30.36695],[-97.97587,30.36589],[-97.97721,30.36582],[-97.97925,30.36231],[-97.98004,30.35981],[-97.98233,30.35792],[-97.9826,30.35609],[-97.98333,30.35456],[-97.98599,30.35287],[-97.98658,30.35277],[-97.98648,30.35157],[-97.98624,30.3511],[-97.9861,30.35039],[-97.9865,30.34948],[-97.98573,30.34886],[-97.98555,30.34836],[-97.98568,30.34756],[-97.98601,30.34673],[-97.9872,30.34568],[-97.98737,30.34449],[-97.98829,30.34354],[-97.98792,30.34268],[-97.98708,30.34173],[-97.98726,30.34107],[-97.9887,30.33942],[-97.99039,30.33804],[-97.99062,30.33757],[-97.99128,30.33725],[-97.99238,30.33706],[-97.9926,30.33691],[-97.99284,30.33654],[-97.9928,30.33579],[-97.99312,30.33545],[-97.99391,30.33502],[-97.99425,30.33431],[-97.99515,30.33404],[-97.99562,30.33321],[-97.99589,30.33237],[-97.99669,30.33187],[-97.99712,30.33138],[-97.99718,30.33103],[-97.99757,30.33057],[-97.99773,30.33047],[-97.99803,30.3306],[-97.99816,30.33048],[-97.99809,30.32985],[-97.99793,30.32974],[-97.99762,30.32976],[-97.99738,30.32935],[-97.99758,30.32904],[-97.99823,30.32864],[-97.99853,30.32826],[-97.99856,30.32787],[-98.00017,30.32726],[-98.00068,30.32684],[-98.00167,30.32636],[-98.00208,30.32516],[-98.00298,30.32419],[-98.00288,30.32349],[-98.00325,30.32269],[-98.00375,30.32231],[-98.00442,30.3221],[-98.00494,30.32073],[-98.00502,30.32004],[-98.00525,30.31974],[-98.00514,30.31916],[-98.00543,30.31882],[-98.00723,30.32011],[-98.00575,30.31353],[-97.99893,30.3116],[-98.00353,30.30113],[-98.00172,30.30008],[-97.9996,30.29908],[-98.00032,30.29798],[-97.97465,30.28583],[-97.97382,30.286],[-97.97282,30.28502],[-97.97167,30.28357],[-97.97101,30.28297],[-97.97035,30.28289],[-97.96995,30.28236],[-97.96945,30.2828],[-97.96807,30.28163],[-97.96716,30.28167],[-97.96626,30.28063],[-97.96531,30.28029],[-97.96504,30.27889],[-97.96333,30.27914],[-97.95978,30.27707],[-97.9586,30.27652],[-97.95707,30.27677],[-97.9552,30.27636],[-97.9545,30.27609],[-97.95216,30.27584],[-97.9519,30.27557],[-97.94937,30.27647],[-97.94736,30.2768],[-97.94585,30.27647],[-97.94459,30.27579],[-97.9439,30.27503],[-97.94221,30.27593],[-97.94175,30.27667],[-97.94213,30.27797],[-97.94317,30.27939],[-97.94305,30.28002],[-97.9423,30.28089],[-97.93997,30.28114],[-97.93596,30.27846],[-97.9333,30.2773],[-97.92825,30.27366],[-97.92938,30.27211],[-97.91474,30.26489],[-97.91506,30.26234],[-97.90734,30.25857],[-97.91375,30.24839],[-97.90268,30.24399],[-97.90602,30.23827],[-97.88969,30.23104],[-97.89083,30.22903],[-97.88412,30.22597],[-97.88327,30.22542],[-97.88239,30.22504],[-97.88214,30.22541],[-97.88078,30.22488],[-97.88009,30.22475],[-97.87994,30.22498],[-97.87896,30.22484],[-97.87771,30.2244]]]}}
]
}
