{
"type": "FeatureCollection",
"name": "SELECT",
"crs": { "type": "name", "properties": { "name": "urn:ogc:def:crs:OGC:1.3:CRS84" } },
"xy_coordinate_resolution": 1e-06,
"features": [
{"type":"Feature","properties":{"id":1,"name":"Switch Texas 1 (ex-Data Foundry, Data Ranch campus)","operator":"Switch Inc. (acquired Data Foundry 2020)","status":"operational","status_label":"Operational","address":"4100 Smith School Rd, Austin, TX 78744","city":"Austin","county":"Travis","lat":30.1965,"lon":-97.7335,"coord_precision":"address","size_mw":24.0,"size_sqft":130000,"acres":40.0,"year":"2011","power_water_notes":"Austin Energy utility power. No opposition or incentives reported.","notes":"Purpose-built colocation building on the 40-acre Data Ranch campus in SE Austin (campus expandable to ~1M sq ft / 100 MW). Data Foundry was bought by Switch for $420M (announced June 2020), so the operator is now Switch; Switch has publicly discussed expanding the Austin campus.","sources":"https://baxtel.com/data-center/switch-texas-1 | https://www.datacenterfrontier.com/cloud/article/11428213/switch-acquires-data-foundry-for-420-million-enters-texas-market | https://www.datacentermap.com/usa/texas/austin/data-foundry-texas1/","n_sources":3},"geometry":{"type":"Point","coordinates":[-97.7335,30.1965]}},
{"type":"Feature","properties":{"id":2,"name":"Switch Texas 2 (ex-Data Foundry, Data Ranch campus)","operator":"Switch Inc. (acquired Data Foundry 2020)","status":"operational","status_label":"Operational","address":"4100 Smith School Rd, Austin, TX 78744","city":"Austin","county":"Travis","lat":30.1958,"lon":-97.7345,"coord_precision":"address","size_mw":36.0,"size_sqft":325000,"acres":40.0,"year":"2018","power_water_notes":"Austin Energy utility power.","notes":"Second building on the Data Ranch campus; Baxtel lists it fully operational, opened 2018 (directory listings say 2018/2019). Now a Switch facility after the 2020 Data Foundry acquisition.","sources":"https://baxtel.com/data-center/switch-texas-2 | https://www.datacenterfrontier.com/cloud/article/11428213/switch-acquires-data-foundry-for-420-million-enters-texas-market | https://www.datacentermap.com/usa/texas/austin/data-foundry-texas-2/","n_sources":3},"geometry":{"type":"Point","coordinates":[-97.7345,30.1958]}},
{"type":"Feature","properties":{"id":3,"name":"Switch Austin 1 (ex-Data Foundry Austin 1, MetCenter)","operator":"Switch Inc. (acquired Data Foundry 2020)","status":"operational","status_label":"Operational","address":"7401 E Ben White Blvd, Bldg 1 Ste 1000, Austin, TX 78741","city":"Austin","county":"Travis","lat":30.213,"lon":-97.708,"coord_precision":"address","size_mw":0.0,"size_sqft":40000,"acres":0.0,"year":"2003","power_water_notes":"Austin Energy.","notes":"Legacy colocation site in the MetCenter business park (40,000 sq ft building, ~21,000 sq ft raised floor), operated by Data Foundry since 2003 and now Switch. Interconnection.fyi also lists a Transwestern-owned 'METCENTER 8' data center building at 7401-1 E Ben White (operational 2010) at the same address.","sources":"https://www.datacentermap.com/usa/texas/austin/data-foundry/ | https://baxtel.com/data-center/data-foundry-austin-1-adc | https://www.interconnection.fyi/data-center/project/metcenter-8-dd4f8196","n_sources":3},"geometry":{"type":"Point","coordinates":[-97.708,30.213]}},
{"type":"Feature","properties":{"id":4,"name":"CyrusOne Austin AUS2 (MetCenter)","operator":"CyrusOne","status":"operational","status_label":"Operational","address":"7301 Metropolis Dr, Bldg 6, Austin, TX 78744","city":"Austin","county":"Travis","lat":30.211,"lon":-97.703,"coord_precision":"address","size_mw":9.0,"size_sqft":70000,"acres":22.0,"year":"2014","power_water_notes":"Austin Energy; City of Austin Water. Evaporative cooling towers; tracker estimates 0.9-1.3M gal/day at full campus buildout. Austin City Council Resolution (Apr 24, 2025) directed an environmental/water study of data centers.","notes":"CyrusOne acquired 22 acres at MetCenter in January 2014. Tracker lists the whole campus at ~100 MW / 100 acres / 460,000 sq ft with three additional buildings (17, 17B, 17C) targeting initial fit-outs Oct 2026 and Aug 2027.","sources":"https://centexdatacenters.org/projects/cyrusone-austin | https://www.datacentermap.com/usa/texas/austin/cyrusone-austin-ii/ | https://www.cyrusone.com/data-centers/north-america/austin-texas","n_sources":3},"geometry":{"type":"Point","coordinates":[-97.703,30.211]}},
{"type":"Feature","properties":{"id":5,"name":"CyrusOne Austin AUS3 (MetCenter) + expansion buildings 17/17B/17C","operator":"CyrusOne","status":"under_construction","status_label":"Under construction","address":"7100 Metropolis Dr, Austin, TX 78744","city":"Austin","county":"Travis","lat":30.214,"lon":-97.701,"coord_precision":"address","size_mw":24.0,"size_sqft":120000,"acres":0.0,"year":"2015 (AUS3); Oct 2026 / Aug 2027 (expansion fit-outs)","power_water_notes":"Austin Energy; City of Austin Water; evaporative cooling. Tracker flags that the expansion adds water demand without public review beyond normal permitting.","notes":"AUS3 is an operational 120,000 sq ft colocation building (tracker: 24 MW planned; directory: 18 MW) bought as a powered shell in April 2015. Campus expansion buildings 17, 17B, 17C are 'planned expansion' per the tracker with initial fit-outs targeted Oct 2026 and Aug 2027, taking the campus toward ~100 MW. Status reflects the expansion; AUS3 itself is operational.","sources":"https://www.datacentermap.com/usa/texas/austin/cyrusone-aus3/ | https://centexdatacenters.org/projects/cyrusone-austin","n_sources":2},"geometry":{"type":"Point","coordinates":[-97.701,30.214]}},
{"type":"Feature","properties":{"id":6,"name":"Digital Realty AUS11","operator":"Digital Realty","status":"operational","status_label":"Operational","address":"7500 Metro Center Dr, Austin, TX 78744","city":"Austin","county":"Travis","lat":30.2165,"lon":-97.6995,"coord_precision":"address","size_mw":16.5,"size_sqft":85500,"acres":0.0,"year":"","power_water_notes":"Austin Energy; tracker estimates 150K-215K gal/day water; Digital Realty claims 100% renewable energy.","notes":"Digital Realty's only Austin-area facility: 2-story, 85,500 sq ft building. No Digital Realty Round Rock site exists (the brief's lead did not check out). MW from the tracker (16.5); Digital Realty's page does not disclose MW.","sources":"https://www.digitalrealty.com/data-centers/americas/austin/aus11 | https://centexdatacenters.org/","n_sources":2},"geometry":{"type":"Point","coordinates":[-97.6995,30.2165]}},
{"type":"Feature","properties":{"id":7,"name":"Core Scientific Austin / CoreWeave tenant (former HP data center)","operator":"Core Scientific (owner/operator); CoreWeave (tenant)","status":"operational","status_label":"Operational","address":"3301 Hibbetts Rd, Austin, TX 78725","city":"Austin","county":"Travis","lat":30.2905,"lon":-97.6125,"coord_precision":"parcel_or_site","size_mw":16.0,"size_sqft":118000,"acres":38.0,"year":"2024","power_water_notes":"Austin Energy; City of Austin Water. Tracker estimates 144k-208k gal/day (evaporative). No opposition documented.","notes":"Former Hewlett Packard hosting facility converted to AI/HPC hosting; 118,000 sq ft leased to CoreWeave. 16 MW delivered April 2024; 200 MW / 12-year expansion contract June 2024 (fleet-wide, not all at this site). CORRECTION: CoreWeave's $9B acquisition of Core Scientific (announced July 7, 2025) was TERMINATED Oct 30, 2025 after Core Scientific shareholders voted it down; Core Scientific remains independent (Nasdaq: CORZ).","sources":"https://centexdatacenters.org/projects/coreweave-austin | https://www.cnbc.com/2025/10/30/core-scientific-shareholders-reject-9-billion-coreweave-offer-deal-terminated.html | https://www.datacentermap.com/usa/texas/austin/core-scientific-austin/","n_sources":3},"geometry":{"type":"Point","coordinates":[-97.6125,30.2905]}},
{"type":"Feature","properties":{"id":8,"name":"Apple 'Austin Campus 1' / Capstone data hall (Parmer Lane campus)","operator":"Apple Inc. (enterprise-owned)","status":"rumored_unconfirmed","status_label":"Rumored / unconfirmed","address":"6900 W Parmer Ln, Austin, TX 78729","city":"Austin","county":"Williamson","lat":30.4405,"lon":-97.7525,"coord_precision":"address","size_mw":0.0,"size_sqft":0,"acres":0.0,"year":"2025-2026","power_water_notes":"Austin Energy grid; mechanical cooling (per permit aggregator).","notes":"Sole source is a permit-aggregator record ('APPLE CAPSTONE ROOM 3204 NxNW', application/approval 2025, operational 2025, further work 2026) that auto-classifies the project as a 'hyperscaler data center'. No press or company confirmation; it may be an on-campus server room rather than a data center. Downgraded from operational to rumored/unconfirmed. MW/sq ft not disclosed.","sources":"https://www.interconnection.fyi/data-center/project/austin-campus-1-4dad144d","n_sources":1},"geometry":{"type":"Point","coordinates":[-97.7525,30.4405]}},
{"type":"Feature","properties":{"id":9,"name":"Tesla Cortex AI supercluster (Gigafactory Texas)","operator":"Tesla (enterprise-owned)","status":"operational","status_label":"Operational","address":"1 Tesla Rd, Austin, TX 78725 (south side of Giga Texas)","city":"Austin","county":"Travis","lat":30.2195,"lon":-97.617,"coord_precision":"parcel_or_site","size_mw":130.0,"size_sqft":0,"acres":0.0,"year":"2024","power_water_notes":"Supermicro liquid cooling with large roof fan stacks and four on-site water tanks; Giga Texas is in Austin Energy territory. Not a colocation facility.","notes":"Cortex AI training supercluster (~50,000 H100s shown Aug 2024; Musk said ~100,000 H100/H200 planned) built into Giga Texas for FSD/Optimus training. Musk stated 130 MW of cooling and power at launch, scaling to 500 MW by 2026; the MW figure here is that launch estimate, not a disclosed IT load.","sources":"https://www.teslarati.com/musk-tesla-supercomputing-130mw-power/ | https://www.tomshardware.com/desktops/servers/elon-musk-shows-off-cortex-ai-supercluster-first-look-at-teslas-50000-nvidia-h100s | https://www.tweaktown.com/news/99714/teslas-supercomputing-cluster-at-giga-texas-100k-h100-h200-for-video-training-fsd-optimus/index.html","n_sources":3},"geometry":{"type":"Point","coordinates":[-97.617,30.2195]}},
{"type":"Feature","properties":{"id":10,"name":"Skybox Austin I (AUS01/AUS02, Pflugerville)","operator":"Skybox Datacenters / Prologis","status":"operational","status_label":"Operational","address":"600 New Meister Ln, Pflugerville, TX 78660","city":"Pflugerville","county":"Travis","lat":30.4813,"lon":-97.629,"coord_precision":"address","size_mw":30.0,"size_sqft":141000,"acres":0.0,"year":"2024","power_water_notes":"Oncor/ERCOT; closed-loop air-cooled chillers (no evaporative cooling).","notes":"Broke ground June 2022 on greenfield land at Meister Ln & New Meister Ln (near SH 130 / SH 45, north Pflugerville); $548M total campus investment; Pflugerville CDC grant up to $1.58M over 10 years. Fully operational per the Central Texas tracker. COORDINATE FIX: previous point (30.41, -97.651) was ~8 km south; corrected to the geocoded street.","sources":"https://www.datacentermap.com/usa/texas/austin/skybox-austin/ | https://communityimpact.com/austin/pflugerville-hutto/development/2022/03/09/skybox-datacenters-to-build-new-data-center-in-pflugerville-invest-up-to-548m-in-city/ | https://centexdatacenters.org/ | https://nominatim.openstreetmap.org/search?q=600+New+Meister+Lane,+Pflugerville,+TX&format=json","n_sources":4},"geometry":{"type":"Point","coordinates":[-97.629,30.4813]}},
{"type":"Feature","properties":{"id":11,"name":"Skybox Austin II (Pflugerville)","operator":"Skybox Datacenters / Prologis","status":"under_construction","status_label":"Under construction","address":"2515 S Kenney Fort Blvd, Pflugerville, TX 78660 (adjacent to Austin I)","city":"Pflugerville","county":"Travis","lat":30.483,"lon":-97.632,"coord_precision":"parcel_or_site","size_mw":30.0,"size_sqft":148500,"acres":0.0,"year":"2025-2026","power_water_notes":"Oncor/ERCOT; closed-loop air-cooled chillers; Pflugerville/Austin water.","notes":"$63M shell-and-core second building; TDLR filing Oct 19, 2023; core/shell from Dec 1, 2023; interior fit-out filed Apr 16, 2024 and underway from Oct 9, 2024 with June 2025 target completion. Tracker still lists it 'under government review / fit-out underway' as of 2026; no source confirms it has opened. COORDINATE FIX: moved next to the corrected Austin I point (address did not geocode; placed at adjacent parcel).","sources":"https://centexdatacenters.org/projects/skybox-austin-2 | https://www.datacenterdynamics.com/en/news/prologis-skybox-file-for-data-centers-in-austin-texas/ | https://baxtel.com/data-center/skybox-austin-2","n_sources":3},"geometry":{"type":"Point","coordinates":[-97.632,30.483]}},
{"type":"Feature","properties":{"id":12,"name":"Thin-nology Pflugerville colocation","operator":"Thin-nology","status":"operational","status_label":"Operational","address":"3804 Helios Way, Pflugerville, TX 78660","city":"Pflugerville","county":"Travis","lat":30.4211,"lon":-97.5916,"coord_precision":"address","size_mw":2.0,"size_sqft":8000,"acres":0.0,"year":"","power_water_notes":"Oncor territory (inferred).","notes":"Small managed-services colocation facility (8,000 sq ft raised floor, 2 MW), founded 2004. Austin Free Press counts Thin-nology's three small sites (it says Round Rock) among operational Williamson/Travis facilities; the headquarters/colo is in Pflugerville per BBB/Yelp. COORDINATE FIX: geocoded to street address (was city centroid).","sources":"https://www.datacentermap.com/usa/texas/austin/thin-nology/ | https://www.datacenters.com/thin-nology-3804-helios-way | https://nominatim.openstreetmap.org/search?q=3804+Helios+Way,+Pflugerville,+TX&format=json","n_sources":3},"geometry":{"type":"Point","coordinates":[-97.5916,30.4211]}},
{"type":"Feature","properties":{"id":13,"name":"Sabey SDC Austin campus (Round Rock) — Building A and Building B","operator":"Sabey Data Centers","status":"under_construction","status_label":"Under construction","address":"1300 Louis Henna Blvd, Round Rock, TX 78664","city":"Round Rock","county":"Williamson","lat":30.4845,"lon":-97.657,"coord_precision":"address","size_mw":84.0,"size_sqft":430000,"acres":40.0,"year":"2024 (Bldg A); Q3 2027 (Bldg B first 18 MW)","power_water_notes":"Oncor/ERCOT. Sabey says water use ~15 single-family homes annually; 86% of Building A deployments liquid-cooled.","notes":"Redevelopment of the former Sears call center. Building A (213,000 sq ft, ~30 MW) completed fall 2024 and hosts TACC's Horizon supercomputer. Building B (three-story, 54 MW, first 18 MW ready for service Q3 2027) under construction since mid-2025. Campus total 84 MW / 430,000 sq ft; ~$185M property improvements; ~$800k/yr city tax revenue. Tracker: 'partially operational'.","sources":"https://sabeydatacenters.com/news/sdc-announces-launch-of-austin-building-b-expanding-presence-in-key-technology-hub | https://www.hellogeorgetown.com/williamson-county-news/the-data-center-boom-reshaping-williamson-county-texas/ | https://centexdatacenters.org/","n_sources":3},"geometry":{"type":"Point","coordinates":[-97.657,30.4845]}},
{"type":"Feature","properties":{"id":14,"name":"Switch 'The Rock' campus — Building 1 (Dell HQ)","operator":"Switch Inc.","status":"operational","status_label":"Operational","address":"300 Dell Way, Round Rock, TX 78682 (north of Louis Henna Blvd, east of Greenlawn Blvd)","city":"Round Rock","county":"Williamson","lat":30.4862,"lon":-97.6606,"coord_precision":"parcel_or_site","size_mw":185.0,"size_sqft":1500000,"acres":69.0,"year":"2024-2025","power_water_notes":"Oncor/ERCOT. City incentive = roughly half of sales/use tax generated. Tracker water estimate 500-5K gal/day.","notes":"Tier-5 campus adjacent to Dell Technologies HQ; 36.76 ac rezoned 2021 and 32.48 ac rezoned Oct 26, 2023 (the Round Rock 'approves zoning for new data center' release is about Switch, not Amazon). Chapter 380 agreement (Dec 2022) requires $80M investment by end of 2026. Tracker lists the campus at 185 MW total (partially operational); Austin Free Press counts two Switch buildings online.","sources":"https://www.roundrocktexas.gov/news/round-rock-approves-zoning-for-new-data-center/ | https://www.hellogeorgetown.com/williamson-county-news/the-data-center-boom-reshaping-williamson-county-texas/ | https://centexdatacenters.org/ | https://austinfreepress.org/data-boom/","n_sources":4},"geometry":{"type":"Point","coordinates":[-97.6606,30.4862]}},
{"type":"Feature","properties":{"id":15,"name":"Switch 'The Rock' — Building 2 (second data center)","operator":"Switch Inc.","status":"approved_planned","status_label":"Approved / planned","address":"East of existing Switch building near Mays St / Dell campus, Round Rock, TX","city":"Round Rock","county":"Williamson","lat":30.4865,"lon":-97.659,"coord_precision":"parcel_or_site","size_mw":0.0,"size_sqft":72600,"acres":0.0,"year":"mid-2028","power_water_notes":"Oncor/ERCOT.","notes":"~72,600 sq ft, up to $20M filing; Community Impact (May 6, 2026) said construction 'could start in June 2026' and finish mid-2028. No source confirms a groundbreaking as of Sept 2026, so status set to approved/planned rather than under construction.","sources":"https://communityimpact.com/austin/round-rock/development/2026/05/06/switch-to-begin-construction-on-2nd-data-center-this-summer/","n_sources":1},"geometry":{"type":"Point","coordinates":[-97.659,30.4865]}},
{"type":"Feature","properties":{"id":16,"name":"Switch third data center (600 Louis Henna Blvd)","operator":"Switch Inc.","status":"announced_proposed","status_label":"Announced / proposed","address":"600 Louis Henna Blvd, Round Rock, TX 78664","city":"Round Rock","county":"Williamson","lat":30.485,"lon":-97.6635,"coord_precision":"address","size_mw":0.0,"size_sqft":0,"acres":0.0,"year":"","power_water_notes":"Oncor/ERCOT.","notes":"Third facility proposed on the Dell-adjacent land; Hello Georgetown (Apr 2026) says no permits submitted as of late 2025. Downgraded to announced/proposed since no entitlement beyond the existing PUD is documented.","sources":"https://www.hellogeorgetown.com/williamson-county-news/the-data-center-boom-reshaping-williamson-county-texas/","n_sources":1},"geometry":{"type":"Point","coordinates":[-97.6635,30.485]}},
{"type":"Feature","properties":{"id":17,"name":"Skybox Round Rock (Old Settlers / A.W. Grimes)","operator":"Skybox Datacenters","status":"approved_planned","status_label":"Approved / planned","address":"E Old Settlers Blvd & A.W. Grimes Blvd, Round Rock, TX (29.69-acre PUD, adjacent to Chandler Creek neighborhood)","city":"Round Rock","county":"Williamson","lat":30.523,"lon":-97.647,"coord_precision":"parcel_or_site","size_mw":75.0,"size_sqft":250000,"acres":29.69,"year":"","power_water_notes":"Oncor/ERCOT; required closed-loop cooling; developer says 300,000-400,000 gal/yr (landscaping/admin). Resident concerns: noise, water, energy.","notes":"PUD with data center, electric substation and open space; first reading late 2025, approved by Round Rock City Council Feb 12, 2026 after hours of pushback. Only Williamson County campus proceeding without municipal tax incentives; Protect Round Rock petition (~3,500 signatures). Tracker labels it 'under construction' but no groundbreaking is reported; kept as approved/planned.","sources":"https://www.austinchronicle.com/news/central-texas-cities-balance-data-center-proposals/ | https://www.hellogeorgetown.com/williamson-county-news/the-data-center-boom-reshaping-williamson-county-texas/ | https://austinfreepress.org/data-boom/","n_sources":3},"geometry":{"type":"Point","coordinates":[-97.647,30.523]}},
{"type":"Feature","properties":{"id":18,"name":"Amazon Round Rock PUD (CR 172) — data-center-permitted Area B","operator":"Amazon Web Services / Amazon Data Services","status":"approved_planned","status_label":"Approved / planned","address":"CR 172 & McNeil Rd, north of SH 45, Round Rock, TX 78681 (149-acre PUD)","city":"Round Rock","county":"Williamson","lat":30.479,"lon":-97.715,"coord_precision":"neighborhood","size_mw":0.0,"size_sqft":0,"acres":149.0,"year":"","power_water_notes":"Oncor/ERCOT territory (inferred); PUD allows an electric substation.","notes":"Round Rock City Council approved annexation and a PUD in January 2024 dividing the 149 acres into Area A (warehouse/distribution) and Area B (warehouse, data centers and an electric substation). The $250M Amazon warehouse/distribution center opened in 2026; Amazon has stated it has no current plans for a data center on the land and none has been filed (Hello Georgetown, Apr 2026: 'pipeline placeholder'). Baxtel's 'operational 2026' listing is wrong — it reflects the distribution center.","sources":"https://communityimpact.com/austin/round-rock/government/2024/01/11/amazons-plans-in-round-rock-move-forward-with-council-approval/ | https://www.roundrocktexas.gov/news/round-rock-city-council-approves-zoning-for-amazon-project/ | https://communityimpact.com/austin/round-rock/development/2026/05/18/250m-amazon-warehouse-distribution-center-near-cr-172-in-round-rock-now-operational/ | https://www.hellogeorgetown.com/williamson-county-news/the-data-center-boom-reshaping-williamson-county-texas/","n_sources":4},"geometry":{"type":"Point","coordinates":[-97.715,30.479]}},
{"type":"Feature","properties":{"id":19,"name":"Skybox PowerCampus Austin (Hutto hyperscale campus)","operator":"Skybox Datacenters / Prologis","status":"under_construction","status_label":"Under construction","address":"US 79 & CR 132 (Hutto Megasite), east of Hutto, TX 78634","city":"Hutto","county":"Williamson","lat":30.5525,"lon":-97.51,"coord_precision":"parcel_or_site","size_mw":600.0,"size_sqft":3900000,"acres":220.0,"year":"2025-2026 (first buildings); full buildout over the next decade","power_water_notes":"Oncor/ERCOT; City of Hutto water (groundwater + surface blend). Evaporative cooling towers; tracker estimates 5.4-7.8M gal/day at full build.","notes":"$10B+ six-building campus (tracker: 220 ac / 3.9M sq ft; Hello Georgetown: 159 ac / ~4M sq ft; Chronicle: 1.28M sq ft). Two dedicated 300 MW on-site substations. Hutto Chapter 312 abatement July 20, 2023 (10-year, 50% valuation cap); development agreement May 2024. Tracker: partially operational; Austin Free Press (June 2026): two buildings operational, two planned; Building 2 TDLR filing Aug 1, 2025 ($125M). Community concerns April 9, 2026.","sources":"https://centexdatacenters.org/projects/skybox-prologis-hutto | https://austinfreepress.org/data-boom/ | https://www.hellogeorgetown.com/williamson-county-news/the-data-center-boom-reshaping-williamson-county-texas/","n_sources":3},"geometry":{"type":"Point","coordinates":[-97.51,30.5525]}},
{"type":"Feature","properties":{"id":20,"name":"Skybox/Prologis second Hutto campus ('Project Sequel')","operator":"Skybox Datacenters / Prologis","status":"announced_proposed","status_label":"Announced / proposed","address":"~140 acres adjacent to PowerCampus Austin on the Hutto Megasite, US 79 corridor, Hutto, TX","city":"Hutto","county":"Williamson","lat":30.552,"lon":-97.52,"coord_precision":"neighborhood","size_mw":0.0,"size_sqft":0,"acres":140.0,"year":"","power_water_notes":"Oncor/ERCOT; Hutto water.","notes":"Hello Georgetown (Apr 2026) confirms a second ~140-acre Skybox/Prologis campus 'in planning stages' at the Hutto Megasite; scale not disclosed. The 'Project Sequel' name and multi-hundred-MW speculation come only from AustinIO (low-quality source).","sources":"https://www.hellogeorgetown.com/williamson-county-news/the-data-center-boom-reshaping-williamson-county-texas/ | https://austinio.com/skybox-prologis-hutto-megasite.html","n_sources":2},"geometry":{"type":"Point","coordinates":[-97.52,30.552]}},
{"type":"Feature","properties":{"id":21,"name":"Colovore Hutto ('Project Raptor')","operator":"Colovore","status":"approved_planned","status_label":"Approved / planned","address":"2401 Innovation Blvd (Ironwood tract), Hutto, TX 78634","city":"Hutto","county":"Williamson","lat":30.548,"lon":-97.572,"coord_precision":"neighborhood","size_mw":40.0,"size_sqft":192694,"acres":30.0,"year":"Dec 2028","power_water_notes":"Oncor/ERCOT; City of Hutto water; liquid cooling.","notes":"One-story liquid-cooled AI data center (192,694 sq ft, 40 MW, $280M per the Sept 11, 2026 TDLR-based Community Impact report; earlier figures $500M/$250M and 2351 Innovation Blvd). Hutto council approved Dec 5, 2024; 30-acre tract acquired 2025. Latest filing: construction Dec 1, 2026 to Dec 1, 2028 — so NOT under construction yet and NOT operational (Austin Free Press 'operational' is wrong). Status changed to approved/planned. Coordinates moved to the geocoded Innovation Blvd.","sources":"https://communityimpact.com/pflugerville-hutto/development/280m-data-center-coming-to-hutto/ | https://centexdatacenters.org/projects/colovore-hutto | https://www.hellogeorgetown.com/williamson-county-news/the-data-center-boom-reshaping-williamson-county-texas/","n_sources":3},"geometry":{"type":"Point","coordinates":[-97.572,30.548]}},
{"type":"Feature","properties":{"id":22,"name":"Zydeco Hutto data center (withdrawn)","operator":"Zydeco Development Corporation","status":"cancelled_stalled","status_label":"Cancelled / stalled","address":"450 Ed Schmidt Blvd (SE corner CR 119 & Limmer Loop), Hutto, TX 78634","city":"Hutto","county":"Williamson","lat":30.523,"lon":-97.548,"coord_precision":"neighborhood","size_mw":70.0,"size_sqft":950000,"acres":40.0,"year":"","power_water_notes":"Oncor/ERCOT; Hutto water; tracker estimated 630K-910K gal/day. Opposition cited power, water, noise, home values.","notes":"Rezoning filed March 1, 2026 (pivot from a 173-unit apartment project); P&Z hearing April 7, 2026 drew 55 opposition letters vs 2 in support; staff recommended denial; 'Stop the Hutto Data Center' petition reached ~60% of the supermajority threshold. Developer withdrew April 17, 2026; council vote cancelled May 7, 2026.","sources":"https://centexdatacenters.org/projects/zydeco-hutto | https://communityimpact.com/pflugerville-hutto/development/hutto-residents-air-concerns-over-proposed-data-center/","n_sources":2},"geometry":{"type":"Point","coordinates":[-97.548,30.523]}},
{"type":"Feature","properties":{"id":23,"name":"Iron Mountain Taylor Meadows hyperscale campus (Taylor ETJ / Hutto services)","operator":"Iron Mountain Data Centers","status":"announced_proposed","status_label":"Announced / proposed","address":"~500 acres off FM 3349 / CR 404, north of Norman's Crossing and south of Samsung Austin Semiconductor, Taylor ETJ, TX","city":"Taylor (ETJ) / Hutto","county":"Williamson","lat":30.556,"lon":-97.456,"coord_precision":"neighborhood","size_mw":0.0,"size_sqft":0,"acres":500.0,"year":"~2030 (first grid-connected buildings)","power_water_notes":"Oncor/ERCOT; behind-the-meter natural gas under consideration to open sooner; closed-loop cooling; 30,200 gal/day sanitary sewer requested from Hutto.","notes":"Seven-building campus with on-site substation replacing the planned ~1,900-home Taylor Meadows subdivision. Reported Dec 2025 (DCD); presented to Hutto City Council March 12, 2026 seeking a wastewater agreement and offering community incentives. MW not disclosed. Iron Mountain's first major Texas expansion. Tracker: 'application filed'.","sources":"https://communityimpact.com/austin/pflugerville-hutto/government/2026/03/19/proposed-data-center-seeks-wastewater-services-from-hutto/ | https://www.datacenterdynamics.com/en/news/iron-mountain-eyes-seven-building-data-center-campus-outside-austin-texas/ | https://centexdatacenters.org/projects/iron-mountain-hutto","n_sources":3},"geometry":{"type":"Point","coordinates":[-97.456,30.556]}},
{"type":"Feature","properties":{"id":24,"name":"KDC 'Project Comal' (Taylor, next to Samsung)","operator":"KDC Real Estate Investments","status":"approved_planned","status_label":"Approved / planned","address":"1051 County Road 401, Taylor, TX 76574 (northeast of Samsung Austin Semiconductor Taylor fab)","city":"Taylor","county":"Williamson","lat":30.58,"lon":-97.44,"coord_precision":"parcel_or_site","size_mw":360.0,"size_sqft":0,"acres":210.0,"year":"~2029-2030 (3.5-year construction)","power_water_notes":"Power from Oncor.","notes":"$2.5B campus of six data center buildings and two substations on ~210 acres (163 ac annexed early 2025, 48 ac pending). Taylor City Council approved Employment Center zoning March 26, 2026 after P&Z (no quorum Nov 2025) and Jan 2026 hearings. City projects $145M city / $70M Taylor ISD revenue over 10 years; up to 3,000 construction jobs, ~372 permanent. Still needs water agreements, site plan and permits.","sources":"https://taylortx.gov/1383/KDC-Project-Comal | https://www.datacenterdynamics.com/en/news/360mw-data-center-to-be-built-outside-austin-texas/ | https://cbsaustin.com/news/local/taylor-city-council-approves-210-acre-data-center-near-samsung-chip-plant","n_sources":3},"geometry":{"type":"Point","coordinates":[-97.44,30.58]}},
{"type":"Feature","properties":{"id":25,"name":"Blueprint Data Centers Taylor DC (BPP Projects)","operator":"Blueprint Data Centers (BPP Projects LLC)","status":"approved_planned","status_label":"Approved / planned","address":"1601 Martin Luther King Jr. Blvd, Taylor, TX 76574 (Taylor EDC-owned 52 acres, east Taylor)","city":"Taylor","county":"Williamson","lat":30.5745,"lon":-97.398,"coord_precision":"parcel_or_site","size_mw":60.0,"size_sqft":135000,"acres":52.0,"year":"late 2026 (phase 1) / early 2027","power_water_notes":"Oncor (initial 30 MW power agreement); liquid cooling planned; tracker estimates 540K-780K gal/day.","notes":"$225M initial build ($1B over 10 years) in three phases; City Council approved Aug 8, 2024; 10-year 50% property-tax rebate per phase plus 50% local use-tax rebate; capacity reported fully pre-leased. Tracker lists 'under construction' but Austin Free Press (June/Aug 2026) reports construction had not begun; kept as approved/planned. Parkland deed-restriction lawsuit dismissed Oct 2024; Halt Taylor Data Centers opposes the site.","sources":"https://www.hellogeorgetown.com/williamson-county-news/the-data-center-boom-reshaping-williamson-county-texas/ | https://communityimpact.com/austin/cedar-park-far-northwest-austin/development/2024/08/09/city-of-taylor-strikes-deal-for-225m-data-center/ | https://austinfreepress.org/data-boom/ | https://austinfreepress.org/corralling-mustang/","n_sources":4},"geometry":{"type":"Point","coordinates":[-97.398,30.5745]}},
{"type":"Feature","properties":{"id":26,"name":"'Project Mustang' (Big Watt Digital / PowerHouse) — Taylor ETJ","operator":"Big Watt Digital LLC & PH Digital Data Center Development LLC (PowerHouse Data Centers)","status":"announced_proposed","status_label":"Announced / proposed","address":"665 acres between US 79 and FM 112 east of Taylor city limits (3301 FM 112 area), Taylor ETJ, TX","city":"Taylor (ETJ / unincorporated)","county":"Williamson","lat":30.569,"lon":-97.352,"coord_precision":"neighborhood","size_mw":477.0,"size_sqft":0,"acres":665.0,"year":"2028","power_water_notes":"Behind-the-meter natural gas generation (477 MW, not grid dependent); community-benefit offers (grants, scholarships, Taylor ISD).","notes":"Data center campus paired with a 477 MW on-site gas-fired power plant. P&Z placed a 90-day hold in Aug 2026 (city drafting digital-infrastructure rules); developers withdrew the annexation/zoning application Sept 3, 2026 and announced Sept 4 they will build in the county outside city jurisdiction while continuing to negotiate with Taylor; Sept 10 public hearing cancelled. Opposed by Halt Taylor Data Centers.","sources":"https://www.taylorpress.net/article/12280,project-mustang-gallops-ahead-won-t-seek-annexation | https://austinfreepress.org/corralling-mustang/ | https://www.taylorpress.net/article/12187,city-commission-puts-a-90-day-hold-on-data-center-decision","n_sources":3},"geometry":{"type":"Point","coordinates":[-97.352,30.569]}},
{"type":"Feature","properties":{"id":27,"name":"Blueprint Data Centers Georgetown DC","operator":"Blueprint Data Centers","status":"under_construction","status_label":"Under construction","address":"1201 Westinghouse Rd, Georgetown, TX 78626","city":"Georgetown","county":"Williamson","lat":30.5835,"lon":-97.6726,"coord_precision":"address","size_mw":25.0,"size_sqft":45000,"acres":10.0,"year":"late 2026 (phase 1) / early 2027","power_water_notes":"Oncor territory; liquid cooling for AI/semiconductor workloads; tracker estimates 225K-325K gal/day.","notes":"$160M sister facility to Taylor; Georgetown City Council approved zoning and incentives Sept 2024; tracker, Baxtel and Austin Free Press (June 2026) all list it under construction. Blueprint's May 2026 release says 85 MW across Georgetown+Taylor committed by early 2027. Coordinates geocoded to the street address.","sources":"https://baxtel.com/data-center/blueprint-georgetown-dc | https://www.hellogeorgetown.com/williamson-county-news/the-data-center-boom-reshaping-williamson-county-texas/ | https://www.datacenterdynamics.com/en/product-news/blueprint-data-centers-accelerates-85mw-texas-capacity-across-greater-austin-area/ | https://nominatim.openstreetmap.org/search?q=1201+Westinghouse+Rd,+Georgetown,+TX&format=json","n_sources":4},"geometry":{"type":"Point","coordinates":[-97.6726,30.5835]}},
{"type":"Feature","properties":{"id":28,"name":"Mesones Prime data center (Jarrell)","operator":"Prominent Property Group / Savannah Developers / Power Infrastructure Partners (end user undisclosed)","status":"approved_planned","status_label":"Approved / planned","address":"3911 County Road 305, Jarrell, TX 76537 (~151 acres, I-35 corridor)","city":"Jarrell","county":"Williamson","lat":30.823,"lon":-97.585,"coord_precision":"neighborhood","size_mw":200.0,"size_sqft":0,"acres":150.92,"year":"2027","power_water_notes":"Combination of on-site natural gas generation and Oncor grid power; Oncor Large Load Interconnect studies submitted; gas supply contract in process.","notes":"$850M campus; 200 MW scalable to ~264 MW on 150.92 gross / 115.82 net acres. Jarrell City Council adopted annexation, land-use and Light Industrial zoning ordinances Oct 14, 2025; utility, development and tax-incentive agreements still being negotiated as of mid-2026 (Austin Free Press, June 2026). Local opposition (Texas Scorecard).","sources":"https://savannahdevelopers.com/portfolio/mesones-prime/ | https://www.datacenterdynamics.com/en/news/jarell-texas-greenlights-plans-for-data-center/ | https://texasscorecard.com/local/locals-oppose-proposed-jarrell-data-center/ | https://austinfreepress.org/data-boom/","n_sources":4},"geometry":{"type":"Point","coordinates":[-97.585,30.823]}},
{"type":"Feature","properties":{"id":29,"name":"CloudBurst / Evolve 1.2 GW AI campus (San Marcos)","operator":"CloudBurst Data Centers / Evolve Holdings","status":"under_construction","status_label":"Under construction","address":"2955 Francis Harris Ln, San Marcos, TX 78666 (~220 acres across 16 properties; straddles Hays/Guadalupe line next to Hays Energy Power Station)","city":"San Marcos (unincorporated Hays/Guadalupe)","county":"Hays","lat":29.771,"lon":-97.906,"coord_precision":"neighborhood","size_mw":1200.0,"size_sqft":3000000,"acres":220.0,"year":"Q4 2026 (first 50 MW)","power_water_notes":"Behind-the-meter 1.2 GW natural gas plant; Energy Transfer Oasis Pipeline supply deal. Crystal Clear SUD water; developer claims 24,000 gal/day direct use (tracker estimates 1.3-3.6M gal/day indirect for power generation); Edwards Aquifer recharge zone; water study confidential. Strong Hays County opposition; Hays County 180-day high-water-use review pause (June 23, 2026).","notes":"$10B master-planned campus; groundbreaking ceremony Nov 5, 2025; first 50 MW phase targeted Q4 2026 though opponents said no visible construction by Feb 2026. Guadalupe County denied (Feb 24, 2026, 3-2) then approved (Apr 22, 2026, 3-2) a 10-year tiered abatement (90% yrs 1-3 declining to 40%). Reversed an earlier 100% renewable pledge.","sources":"https://centexdatacenters.org/projects/cloudburst-data-center | https://www.datacenterdynamics.com/en/news/cloudburst-breaks-ground-on-gigawatt-scale-data-center-campus-in-texas/ | https://www.kut.org/energy-environment/2026-02-26/hays-county-tx-data-centers-water-resources | https://communityimpact.com/austin/san-marcos-buda-kyle/government/2026/06/23/hays-county-passes-resolution-pausing-consideration-of-high-water-use-developments-data-centers/","n_sources":4},"geometry":{"type":"Point","coordinates":[-97.906,29.771]}},
{"type":"Feature","properties":{"id":30,"name":"Highlander SM One data center (San Marcos) — DENIED","operator":"Highlander SM One LLC (Highlander Real Estate Partners, John Maberry)","status":"cancelled_stalled","status_label":"Cancelled / stalled","address":"904 Francis Harris Ln, San Marcos, TX 78666","city":"San Marcos","county":"Hays","lat":29.783,"lon":-97.931,"coord_precision":"parcel_or_site","size_mw":380.0,"size_sqft":2200000,"acres":137.0,"year":"","power_water_notes":"Crystal Clear SUD; developer-stated 20,000-75,000 gal/day; Edwards Aquifer recharge zone; San Marcos River Foundation opposition.","notes":"$1.5B, five 76-MW buildings on ~137-200 acres. P&Z denied Mar 2025; refiled Oct 2025 with covenants; City Council denied the Preferred Scenario Map amendment 5-2 on Feb 17, 2026 after ~9 hours of testimony (earliest resubmission Aug 17, 2026). San Marcos then prohibited data centers in all zoning districts (June 16, 2026, 4-3 vote), effectively blocking resubmission.","sources":"https://www.kut.org/energy-environment/2026-02-18/san-marcos-city-council-blocks-proposed-data-center | https://centexdatacenters.org/projects/highlander-sm-one | https://www.statesman.com/business/technology/article/san-marcos-blocks-data-centers-22311203.php | https://www.austinchronicle.com/news/central-texas-cities-balance-data-center-proposals/","n_sources":4},"geometry":{"type":"Point","coordinates":[-97.931,29.783]}},
{"type":"Feature","properties":{"id":31,"name":"Sabey Data Centers San Marcos (Carson Select tract) — stalled","operator":"Sabey Data Centers / Carson Select Investments LP","status":"cancelled_stalled","status_label":"Cancelled / stalled","address":"~786-acre tract southwest of S Old Bastrop Hwy & Centerpoint Rd, abutting Hays Energy Power Plant, San Marcos, TX","city":"San Marcos","county":"Hays","lat":29.828,"lon":-97.942,"coord_precision":"neighborhood","size_mw":0.0,"size_sqft":0,"acres":786.0,"year":"","power_water_notes":"Pedernales Electric Cooperative substation planned; water opposition.","notes":"Development-agreement talks began June 3, 2025 (184 acres light-industrial for a data center + PEC substation, 392+ acres open space). One of three San Marcos-area projects within ~3 miles of each other. The landowner (John David Carson) stated the Sabey contract was terminated (local report via Facebook); the June 2026 city-wide data center ban makes it moot. Tracker still lists 'application filed'.","sources":"https://communityimpact.com/austin/san-marcos-buda-kyle/government/2025/06/05/3-data-centers-newly-proposed-in-and-around-san-marcos/ | https://www.datacenterdynamics.com/en/news/sabey-looks-to-develop-data-center-campus-outside-austin-texas/ | https://www.facebook.com/chexaminer/posts/update-john-david-carson-has-commented-that-the-contract-with-sabey-was-terminat/995340293048063/ | https://www.statesman.com/business/technology/article/san-marcos-blocks-data-centers-22311203.php","n_sources":4},"geometry":{"type":"Point","coordinates":[-97.942,29.828]}},
{"type":"Feature","properties":{"id":32,"name":"Doster property (York Creek Rd) — unnamed possible data center","operator":"Unknown","status":"rumored_unconfirmed","status_label":"Rumored / unconfirmed","address":"1791 York Creek Rd, San Marcos, TX (196 acres between Highlander and CloudBurst sites; Hays CAD R10802)","city":"San Marcos","county":"Hays","lat":29.779,"lon":-97.921,"coord_precision":"parcel_or_site","size_mw":0.0,"size_sqft":0,"acres":196.0,"year":"","power_water_notes":"Edwards Underground Water District jurisdiction.","notes":"Flagged by the Central Texas tracker only ('in planning'): land value tripled 2025-2026, sits in the Edwards recharge zone and 100-year floodplain; no public announcement as of April 2026. Rumor-level; the San Marcos ban and Hays County pause would apply.","sources":"https://centexdatacenters.org/projects/doster-york-creek","n_sources":1},"geometry":{"type":"Point","coordinates":[-97.921,29.779]}},
{"type":"Feature","properties":{"id":33,"name":"Prime Data Centers AUS01/AUS02 'Project Snow' (Caldwell County)","operator":"Prime Data Centers LLC","status":"under_construction","status_label":"Under construction","address":"3300 FM 2720 (SE corner FM 2720 & Bob White Rd), Maxwell, TX 78656","city":"Maxwell / Lockhart area (unincorporated)","county":"Caldwell","lat":29.928,"lon":-97.766,"coord_precision":"neighborhood","size_mw":384.0,"size_sqft":2000000,"acres":206.0,"year":"2026-2027 (phase 1); 2028 (full campus)","power_water_notes":"Bluebonnet Electric Cooperative grid power (DCAT notes conflicting reports of on-site generation); City of Lockhart water; closed-loop non-potable cooling (<1% of evaporative use). Caldwell DCAT tracks it; no organized opposition as of April 2026.","notes":"~$4.2B campus (tracker: 8 buildings / 2M sq ft; Caldwell DCAT: 9 buildings). Phase 1 = 3 buildings, 144 MW, ~$1.3B; groundbreaking June 2026 with Sept 2027 completion per Caldwell DCAT; TDLR filings for AUS01/AUS02. Caldwell County 10-year 100% abatement with ~40% PILOT (Mar 2024). County judge says at least nine data centers are planned in Caldwell County (this campus accounts for nine buildings).","sources":"https://centexdatacenters.org/projects/prime-data-center | https://caldwelldcat.org/ | https://hayscaldwelledp.com/about/news-and-publications/data-center-campus-to-be-constructed-in-caldwell-county | https://www.datacenterdynamics.com/en/news/prime-files-to-build-two-data-centers-outside-austin-texas/","n_sources":4},"geometry":{"type":"Point","coordinates":[-97.766,29.928]}},
{"type":"Feature","properties":{"id":34,"name":"Tract Data Center Technology Park (Caldwell County)","operator":"Tract / Fleet DC (Tract Capital)","status":"under_construction","status_label":"Under construction","address":"FM 2720 & Bob White Rd (across from Prime), ~6 mi from Lockhart, Uhland, TX","city":"Uhland area (unincorporated)","county":"Caldwell","lat":29.935,"lon":-97.76,"coord_precision":"neighborhood","size_mw":4000.0,"size_sqft":0,"acres":2973.0,"year":"Q1 2028 (phase 1 energization)","power_water_notes":"Bluebonnet Electric Co-op / LCRA plus on-site natural gas via Kinder Morgan Permian Highway Pipeline; water source and cooling undisclosed (tracker estimate 1.5-16.6M gal/day); Carrizo-Wilcox aquifer, outside Edwards recharge zone. Water advocates name it one of five projects threatening the Edwards region.","notes":"Initial 1,515-acre buy closed May 7, 2025; expanded to ~2,973-3,000 acres Jan 2026. Phase 1 360 MW (Q1 2028); on-site substation scaling to 1.6 GW; full ~4 GW phased through ~2032. Site prep underway (Jan 2026); no county abatement requested; developer funding FM 2720 improvements.","sources":"https://centexdatacenters.org/projects/tract-caldwell-county | https://caldwelldcat.org/ | https://www.globenewswire.com/de/news-release/2025/05/07/3076274/0/en/TRACT-CLOSES-ACQUISITION-OF-1-515-ACRES-IN-CALDWELL-COUNTY-TEXAS-FOR-MULTI-GIGAWATT-DATA-CENTER-TECHNOLOGY-PARK.html | https://www.kxan.com/news/local/caldwell-county/caldwell-county-residents-pushback-on-data-center-sites/","n_sources":4},"geometry":{"type":"Point","coordinates":[-97.76,29.935]}},
{"type":"Feature","properties":{"id":35,"name":"Powerhouse Data Centers Uhland campus","operator":"Powerhouse Data Centers (American Real Estate Partners)","status":"announced_proposed","status_label":"Announced / proposed","address":"SW of FM 2720 & Old Spanish Trail, Uhland, TX (499 acres of 817-acre Waterstone tract; Caldwell CAD 28954)","city":"Uhland ETJ (de-annexed to unincorporated Caldwell County)","county":"Caldwell","lat":29.943,"lon":-97.78,"coord_precision":"neighborhood","size_mw":700.0,"size_sqft":0,"acres":499.0,"year":"","power_water_notes":"On-site natural gas generation + diesel backup, no grid connection disclosed; County Line SUD (unverified); claims reclaimed-water cooling. Air-quality concerns.","notes":"10-building, 700 MW campus for an undisclosed single 'big name' tenant; remaining ~318 acres for housing/retail. Developer identified April 15, 2026; Uhland council pushback April 7, 2026; land de-annexed into the county late April 2026. No abatement or development agreement; no public development plan presented. Tracker: 'application filed'.","sources":"https://centexdatacenters.org/projects/powerhouse-data-center | https://caldwelldcat.org/ | https://www.datacenterdynamics.com/en/news/powerhouse-looking-to-build-500-acre-data-center-near-austin-texas/","n_sources":3},"geometry":{"type":"Point","coordinates":[-97.78,29.943]}},
{"type":"Feature","properties":{"id":36,"name":"Edged Energy campus (Caldwell County TIRZ, SH 142)","operator":"Edged Energy / EDC Austin LLC (Endeavour)","status":"under_construction","status_label":"Under construction","address":"11255 State Hwy 142, Caldwell County, TX (320 acres of a 2,718-acre parcel)","city":"Martindale area (unincorporated)","county":"Caldwell","lat":29.856,"lon":-97.775,"coord_precision":"neighborhood","size_mw":462.0,"size_sqft":2000000,"acres":320.0,"year":"Aug 2028","power_water_notes":"Initial power from on-site TurboCell natural gas / fuel cells for ~7 years until LCRA/Bluebonnet grid connection; claims waterless ThermalWorks cooling (sister company, unverified); Maxwell SUD (unverified); private sewer system. No organized opposition as of April 2026.","notes":"Two ~1M sq ft buildings; tracker gives construction start April 15, 2026 (DCAT: June 2026) and substantial completion Aug 15, 2028. Chapter 312 abatement (TIRZ Order 03-2026): 10-year exemption on ~$7.3B improvements with 50% PILOT (~$16M/yr foregone). 462 MW is the tracker figure; DCAT says capacity undisclosed.","sources":"https://centexdatacenters.org/projects/edged-energy-caldwell | https://caldwelldcat.org/","n_sources":2},"geometry":{"type":"Point","coordinates":[-97.775,29.856]}},
{"type":"Feature","properties":{"id":37,"name":"Cielo Digital Infrastructure 'Project Mockingbird' (Mustang Ridge)","operator":"Cielo Digital Infrastructure","status":"rumored_unconfirmed","status_label":"Rumored / unconfirmed","address":"Possibly 10007 Evelyn Rd (Buda mailing address), Mustang Ridge, TX — 472 acres / 400 buildable (land possibly Bock Family Ltd., unverified)","city":"Mustang Ridge","county":"Travis (Mustang Ridge spans Travis/Caldwell/Bastrop; Cleanview says Travis, Caldwell DCAT says Caldwell)","lat":30.052,"lon":-97.677,"coord_precision":"neighborhood","size_mw":500.0,"size_sqft":0,"acres":472.0,"year":"2029 (Cleanview placeholder)","power_water_notes":"Unknown; early incentive negotiations.","notes":"Cielo markets a ~500 MW / 472-acre Mustang Ridge site; Mustang Ridge City Council held a closed preliminary discussion Sept 15, 2025 and Caldwell County commissioners a closed session Apr 9, 2026. Not yet reported in the news; details under NDA; location unverified. Coordinates updated to Cleanview's point (30.052, -97.677) as cited by Caldwell DCAT.","sources":"https://caldwelldcat.org/ | https://cleanview.co/data-centers/texas/2029/cielo-mustang-ridge-data-center","n_sources":2},"geometry":{"type":"Point","coordinates":[-97.677,30.052]}},
{"type":"Feature","properties":{"id":38,"name":"EdgeConneX Cedar Creek Campus 1 (AUS01)","operator":"EdgeConneX (with Rackspace Technology reported as partner)","status":"under_construction","status_label":"Under construction","address":"6682 FM 535 (Wolf Lane & FM 535), Cedar Creek, TX 78612","city":"Cedar Creek","county":"Bastrop","lat":30.06,"lon":-97.487,"coord_precision":"parcel_or_site","size_mw":96.0,"size_sqft":578000,"acres":112.0,"year":"mid-2026 (building 1)","power_water_notes":"Bluebonnet Electric Cooperative territory (inferred). Residents demanded air, groundwater and noise studies (July 2026 town hall).","notes":"Two-story 578,000 sq ft first building ($440M) of a four-building, ~2.8M sq ft, $1.44B campus on ~100-140 acres; construction from Aug 2025; Bastrop County 10-year 75% abatement approved Dec 2024. 'Nearly complete' per July 2026 reporting; no source confirms it opened, so kept under construction. Also reported: a ~180-acre adjacent parcel purchase (CI, March 2026).","sources":"https://www.elgincourier.com/article/4119,4b-data-center-underway | https://www.connectcre.com/stories/data-center-developer-to-unveil-plans-to-bastrop-county-residents/ | https://communityimpact.com/bastrop-cedar-creek/government/bastrop-county-residents-organize-for-data-center-transparency-local-guardrails/ | https://www.govtech.com/products/bastrop-county-texas-welcomes-440m-data-center","n_sources":4},"geometry":{"type":"Point","coordinates":[-97.487,30.06]}},
{"type":"Feature","properties":{"id":39,"name":"EdgeConneX Cedar Creek Campus 2","operator":"EdgeConneX","status":"approved_planned","status_label":"Approved / planned","address":"6682 & 6402 FM 535, Cedar Creek, TX 78612 (951 acres)","city":"Cedar Creek","county":"Bastrop","lat":30.064,"lon":-97.49,"coord_precision":"neighborhood","size_mw":0.0,"size_sqft":1040000,"acres":951.0,"year":"late 2028 (initial phases)","power_water_notes":"Bluebonnet territory (inferred); county abatement sought.","notes":"~$1.4B second campus announced March 26, 2026: two buildings initially (~520,000 sq ft each; DCD reports filings for two 730,000 sq ft buildings) with up to seven more in later phases. In planning/review; county abatement not yet detailed. Status kept as approved/planned pending abatement and permits.","sources":"https://communityimpact.com/austin/bastrop-cedar-creek/government/2026/03/31/edgeconnex-plans-second-data-center-campus-in-bastrop-county/ | https://www.connectcre.com/stories/data-center-developer-to-unveil-plans-to-bastrop-county-residents/ | https://www.datacenterdynamics.com/en/news/edgeconnex-files-to-build-two-730000-sq-ft-data-centers-in-bastrop-county-texas/","n_sources":3},"geometry":{"type":"Point","coordinates":[-97.49,30.064]}},
{"type":"Feature","properties":{"id":40,"name":"EdgeConneX Cedar Creek Campus 3","operator":"EdgeConneX","status":"announced_proposed","status_label":"Announced / proposed","address":"6543 FM 535, Cedar Creek, TX 78612 (400+ acres)","city":"Cedar Creek","county":"Bastrop","lat":30.062,"lon":-97.489,"coord_precision":"neighborhood","size_mw":0.0,"size_sqft":5175000,"acres":400.0,"year":"","power_water_notes":"Not disclosed.","notes":"Preliminary-stage third campus, up to nine buildings; only early site work, no permits or abatement filed as of mid-2026. Three campuses together: ~1,500 acres, 19 buildings, 200+ permanent jobs.","sources":"https://www.connectcre.com/stories/data-center-developer-to-unveil-plans-to-bastrop-county-residents/ | https://communityimpact.com/bastrop-cedar-creek/government/bastrop-county-residents-organize-for-data-center-transparency-local-guardrails/","n_sources":2},"geometry":{"type":"Point","coordinates":[-97.489,30.062]}},
{"type":"Feature","properties":{"id":41,"name":"Amazon Data Services 'Creekside' land (Cedar Creek)","operator":"Amazon Data Services / AWS","status":"announced_proposed","status_label":"Announced / proposed","address":"1,229-1,300 acres ~3 mi SW of the EdgeConneX FM 535 campus (former Creekside master-planned community site), Cedar Creek, TX 78612","city":"Cedar Creek","county":"Bastrop","lat":30.033,"lon":-97.525,"coord_precision":"neighborhood","size_mw":0.0,"size_sqft":0,"acres":1229.0,"year":"","power_water_notes":"Bluebonnet territory (inferred).","notes":"Purchased May 1, 2026 from CTX Capital Partners; Amazon says no final development decision. Land-banking for a probable hyperscale campus (Baxtel: 'land secured for future development').","sources":"https://www.datacenterdynamics.com/en/news/amazon-data-services-buys-1300-acres-of-land-outside-austin-texas/ | https://baxtel.com/data-center/amazon-creekside-campus | https://communityimpact.com/bastrop-cedar-creek/government/bastrop-county-residents-organize-for-data-center-transparency-local-guardrails/","n_sources":3},"geometry":{"type":"Point","coordinates":[-97.525,30.033]}},
{"type":"Feature","properties":{"id":42,"name":"Pacifico Energy hyperscale + 710 MW gas campus (Earl Callahan Rd)","operator":"Pacifico Energy","status":"announced_proposed","status_label":"Announced / proposed","address":"Earl Callahan Rd, ~7 mi SE of the EdgeConneX campus, Bastrop County, TX (2,842 acres; 1,451-acre abatement site)","city":"Cedar Creek / Rockne area (unincorporated)","county":"Bastrop","lat":29.995,"lon":-97.415,"coord_precision":"neighborhood","size_mw":710.0,"size_sqft":0,"acres":2842.0,"year":"","power_water_notes":"On-site 710 MW gas-fired generation; environmental concerns raised at Bastrop town hall.","notes":"$2.2B state-incentive application pairing a hyperscale data center with 710 MW of natural-gas generation; two 100% county tax-abatement applications and two mass-grading permits under review (July 2026); 25 permanent jobs / $6.2M payroll. MW shown is generation capacity, not IT load.","sources":"https://communityimpact.com/bastrop-cedar-creek/government/bastrop-county-residents-organize-for-data-center-transparency-local-guardrails/","n_sources":1},"geometry":{"type":"Point","coordinates":[-97.415,29.995]}},
{"type":"Feature","properties":{"id":43,"name":"'Bastrop Project' bitcoin mine (AcroHash / Ocean Blockchain)","operator":"Ocean Blockchain LLC / AcroHash (Kevin Hsu); land owned by Central Texas Airport","status":"rumored_unconfirmed","status_label":"Rumored / unconfirmed","address":"2048 FM 969 (operations at 2017 FM 969), Elgin, TX 78621","city":"Elgin (unincorporated Bastrop County)","county":"Bastrop","lat":30.26,"lon":-97.38,"coord_precision":"neighborhood","size_mw":160.0,"size_sqft":1400000,"acres":0.0,"year":"2024-2025","power_water_notes":"Bluebonnet territory (inferred); crypto/air-cooled containers.","notes":"TDLR-registered 1.4M sq ft 'data center' (registered Jan 2023, construction from Oct 2022, est. completion Nov 2024, $10M) that import records (66 Bitmain cooling containers/dry-cool towers, Nov-Dec 2024) indicate is a bitcoin mining site; AcroHash pitched two phases totaling 160 MW (phase 2 = 44 MW). Operating status unconfirmed; address did not geocode.","sources":"https://theenergymag.com/news/2025-01-20/austin-data-center-bitcoin-mining | https://www.datacenter.fyi/public-record/bastrop-project-6a84e4b9","n_sources":2},"geometry":{"type":"Point","coordinates":[-97.38,30.26]}},
{"type":"Feature","properties":{"id":44,"name":"Meta Temple Data Center (edge of scope, Bell County)","operator":"Meta","status":"operational","status_label":"Operational","address":"Industrial Blvd at NW H K Dodgen Loop, Temple, TX 76502","city":"Temple","county":"Bell","lat":31.108,"lon":-97.39,"coord_precision":"parcel_or_site","size_mw":152.0,"size_sqft":760000,"acres":393.0,"year":"2026-07-22","power_water_notes":"Oncor territory; Meta $1.7M community grants to Bell County schools/nonprofits.","notes":"$1.2B AI-optimized campus (two buildings, 760,000+ sq ft); broke ground 2022, went live July 22, 2026; ~100 operations staff. ~65 mi from downtown Austin — edge-of-ring reference; MW is a directory estimate.","sources":"https://www.kwtx.com/2026/07/22/meta-goes-live-temple-with-12-billion-ai-data-center/ | https://www.datacenterdynamics.com/en/news/meta-starts-operations-at-data-center-in-temple-texas/ | https://www.datacentermap.com/usa/texas/waco/meta-temple-data-center/","n_sources":3},"geometry":{"type":"Point","coordinates":[-97.39,31.108]}},
{"type":"Feature","properties":{"id":45,"name":"Rowan 'Project Temple' 300 MW campus (edge of scope, Bell County)","operator":"Rowan Digital Infrastructure (Quinbrook)","status":"under_construction","status_label":"Under construction","address":"~700 acres along Bob White Rd, Temple, TX","city":"Temple","county":"Bell","lat":31.0982,"lon":-97.3428,"coord_precision":"city_centroid","size_mw":300.0,"size_sqft":0,"acres":700.0,"year":"2027","power_water_notes":"Power via Oncor partnership.","notes":"$700M+ hyperscale campus for 'a top global technology company'; construction announced underway Jan 5, 2026; operations expected 2027. Edge-of-ring reference (~65 mi). An Atlas Development 12-building Temple campus is also reported (not researched).","sources":"https://rowan.com/news/rowan-powers-texas-growth-as-construction-begins-on-300-mw-temple-data-center/ | https://www.datacenterdynamics.com/en/news/rowan-starts-work-on-300mw-data-center-in-temple-texas/","n_sources":2},"geometry":{"type":"Point","coordinates":[-97.3428,31.0982]}},
{"type":"Feature","properties":{"id":46,"name":"Riot Platforms Rockdale campus (bitcoin → AI/HPC; AMD + Anthropic leases) (edge of scope, Milam County)","operator":"Riot Platforms (tenants AMD 50 MW, Anthropic 191 MW)","status":"under_construction","status_label":"Under construction","address":"Former Alcoa Sandow smelter site, Rockdale, TX 76567","city":"Rockdale","county":"Milam","lat":30.556,"lon":-97.056,"coord_precision":"neighborhood","size_mw":700.0,"size_sqft":0,"acres":200.0,"year":"2020 (mining); Dec 2027-Jun 2028 (Anthropic lease)","power_water_notes":"700 MW ERCOT-connected via Sandow substation; dedicated water supply; nuclear MOU with Terrestrial Energy.","notes":"North America's largest bitcoin mining site (700 MW grid-connected), pivoting to AI/HPC: AMD initial 25 MW completed Q2 2026 with 25 MW expansion (Nov 2026 / May 2027); $9.1B 20-year 191 MW lease with Anthropic (96 MW Dec 2027, full June 2028; up to $16.1B with extensions); executed leases total 241 MW. ~60 mi NE of Austin — edge-of-ring reference.","sources":"https://constructionreviewonline.com/9-1-billion-lease-advances-191-mw-ai-data-center-construction-at-riots-rockdale-campus/ | https://www.statesman.com/business/technology/article/anthropic-riot-platforms-rockdale-texas-22383624.php | https://www.datacenterdynamics.com/en/news/riot-to-convert-cryptomine-site-in-texas-to-hpc-signs-25mw-lease-with-amd/","n_sources":3},"geometry":{"type":"Point","coordinates":[-97.056,30.556]}},
{"type":"Feature","properties":{"id":47,"name":"Bitdeer Rockdale campus (bitcoin → AI/HPC) (edge of scope, Milam County)","operator":"Bitdeer Technologies","status":"operational","status_label":"Operational","address":"Former Alcoa Sandow site, Rockdale, TX 76567 (plus 200 greenfield acres bought Sept 2026)","city":"Rockdale","county":"Milam","lat":30.565,"lon":-97.07,"coord_precision":"neighborhood","size_mw":563.0,"size_sqft":0,"acres":200.0,"year":"2019 (mining); 2026 (179 MW pipeline energization)","power_water_notes":"Grid-connected via the Sandow complex (Interconnection.fyi lists Heart of Texas Electric Co-op); dedicated water supply.","notes":"ADDED. Bitdeer's Rockdale bitcoin mining site has ~563 MW of interconnected grid capacity online with plans to scale to 742 MW (179 MW pipeline, 2026) and a dedicated water supply. Sept 1, 2026: bought ~200 acres nearby for ~$100M cash to develop AI/HPC infrastructure. Sits beside Riot's Rockdale campus; ~60 mi NE of Austin — edge-of-ring reference like Riot.","sources":"https://www.globenewswire.com/news-release/2026/09/01/3354593/0/en/bitdeer-announces-acquisition-of-200-acres-near-rockdale-facility-in-milam-county-texas-to-support-ai-hpc-infrastructure-development.html | https://www.datacenterdynamics.com/en/news/bitdeer-buys-200-acres-in-milam-county-texas-to-expand-ai-and-hpc-data-center/ | https://www.interconnection.fyi/data-center/project/bitdeer-rockdale-58d64d08","n_sources":3},"geometry":{"type":"Point","coordinates":[-97.07,30.565]}}
]
}
