{
"type": "FeatureCollection",
"name": "SELECT",
"xy_coordinate_resolution": 0.0001,
"features": [
{"type":"Feature","properties":{"name":"Limestone","entity":"NRG Texas Power LLC","county":"Limestone","phase":"operating","technology":"Conventional Steam Coal","mw":1849.8,"generators":2,"year":1985},"geometry":{"type":"Point","coordinates":[-96.2525,31.4219]}},
{"type":"Feature","properties":{"name":"Canyon","entity":"Guadalupe Blanco River Authority","county":"Comal","phase":"operating","technology":"Conventional Hydroelectric","mw":6.0,"generators":2,"year":1989},"geometry":{"type":"Point","coordinates":[-98.1947,29.8706]}},
{"type":"Feature","properties":{"name":"Decker Creek","entity":"Austin Energy","county":"Travis","phase":"operating","technology":"Natural Gas Fired Combustion Turbine","mw":206.0,"generators":4,"year":1988},"geometry":{"type":"Point","coordinates":[-97.6128,30.3033]}},
{"type":"Feature","properties":{"name":"Bryan (TX)","entity":"City of Bryan - (TX)","county":"Brazos","phase":"operating","technology":"Natural Gas Fired Combustion Turbine","mw":22.0,"generators":1,"year":1975},"geometry":{"type":"Point","coordinates":[-96.3723,30.6474]}},
{"type":"Feature","properties":{"name":"Abbott TP 3","entity":"Guadalupe Blanco River Authority","county":"Guadalupe","phase":"operating","technology":"Conventional Hydroelectric","mw":2.8,"generators":2,"year":1927},"geometry":{"type":"Point","coordinates":[-98.0407,29.5939]}},
{"type":"Feature","properties":{"name":"Dunlap TP 1","entity":"Guadalupe Blanco River Authority","county":"Guadalupe","phase":"operating","technology":"Conventional Hydroelectric","mw":3.6,"generators":2,"year":1927},"geometry":{"type":"Point","coordinates":[-98.0459,29.6402]}},
{"type":"Feature","properties":{"name":"H 4","entity":"Guadalupe Blanco River Authority","county":"Gonzales","phase":"operating","technology":"Conventional Hydroelectric","mw":2.4,"generators":1,"year":1931},"geometry":{"type":"Point","coordinates":[-97.625,29.4952]}},
{"type":"Feature","properties":{"name":"H 5","entity":"Guadalupe Blanco River Authority","county":"Gonzales","phase":"operating","technology":"Conventional Hydroelectric","mw":2.4,"generators":1,"year":1931},"geometry":{"type":"Point","coordinates":[-97.4919,29.4681]}},
{"type":"Feature","properties":{"name":"Nolte","entity":"Guadalupe Blanco River Authority","county":"Guadalupe","phase":"operating","technology":"Conventional Hydroelectric","mw":2.4,"generators":2,"year":1927},"geometry":{"type":"Point","coordinates":[-97.9321,29.5376]}},
{"type":"Feature","properties":{"name":"TP 4","entity":"Guadalupe Blanco River Authority","county":"Guadalupe","phase":"operating","technology":"Conventional Hydroelectric","mw":2.4,"generators":1,"year":1932},"geometry":{"type":"Point","coordinates":[-97.9996,29.5481]}},
{"type":"Feature","properties":{"name":"Austin","entity":"Lower Colorado River Authority","county":"Travis","phase":"operating","technology":"Conventional Hydroelectric","mw":18.0,"generators":2,"year":1940},"geometry":{"type":"Point","coordinates":[-97.7844,30.2934]}},
{"type":"Feature","properties":{"name":"Buchanan Dam (TX)","entity":"Lower Colorado River Authority","county":"Llano","phase":"operating","technology":"Conventional Hydroelectric","mw":54.9,"generators":3,"year":1938},"geometry":{"type":"Point","coordinates":[-98.4176,30.7507]}},
{"type":"Feature","properties":{"name":"Granite Shoals","entity":"Lower Colorado River Authority","county":"Burnet","phase":"operating","technology":"Conventional Hydroelectric","mw":54.0,"generators":2,"year":1951},"geometry":{"type":"Point","coordinates":[-98.3384,30.556]}},
{"type":"Feature","properties":{"name":"Inks","entity":"Lower Colorado River Authority","county":"Burnet","phase":"operating","technology":"Conventional Hydroelectric","mw":15.0,"generators":1,"year":1938},"geometry":{"type":"Point","coordinates":[-98.3854,30.7316]}},
{"type":"Feature","properties":{"name":"Marble Falls","entity":"Lower Colorado River Authority","county":"Burnet","phase":"operating","technology":"Conventional Hydroelectric","mw":39.6,"generators":2,"year":1951},"geometry":{"type":"Point","coordinates":[-98.2576,30.5553]}},
{"type":"Feature","properties":{"name":"Marshall Ford","entity":"Lower Colorado River Authority","county":"Travis","phase":"operating","technology":"Conventional Hydroelectric","mw":108.0,"generators":3,"year":1941},"geometry":{"type":"Point","coordinates":[-97.9073,30.3899]}},
{"type":"Feature","properties":{"name":"Sim Gideon","entity":"Lower Colorado River Authority","county":"Bastrop","phase":"operating","technology":"Natural Gas Steam Turbine","mw":623.0,"generators":3,"year":1965},"geometry":{"type":"Point","coordinates":[-97.2708,30.1456]}},
{"type":"Feature","properties":{"name":"Leon Creek","entity":"City of San Antonio - (TX)","county":"Bexar","phase":"operating","technology":"Natural Gas Fired Combustion Turbine","mw":229.6,"generators":4,"year":2004},"geometry":{"type":"Point","coordinates":[-98.5761,29.3525]}},
{"type":"Feature","properties":{"name":"O W Sommers","entity":"City of San Antonio - (TX)","county":"Bexar","phase":"operating","technology":"Natural Gas Steam Turbine","mw":892.0,"generators":2,"year":1972},"geometry":{"type":"Point","coordinates":[-98.3242,29.3081]}},
{"type":"Feature","properties":{"name":"V H Braunig","entity":"City of San Antonio - (TX)","county":"Bexar","phase":"operating","technology":"Natural Gas Steam Turbine","mw":1138.0,"generators":7,"year":1966},"geometry":{"type":"Point","coordinates":[-98.3825,29.2567]}},
{"type":"Feature","properties":{"name":"Thomas C Ferguson","entity":"Lower Colorado River Authority","county":"Llano","phase":"operating","technology":"Natural Gas Fired Combined Cycle","mw":574.6,"generators":3,"year":2014},"geometry":{"type":"Point","coordinates":[-98.3721,30.558]}},
{"type":"Feature","properties":{"name":"Fayette Power Project","entity":"Lower Colorado River Authority","county":"Fayette","phase":"operating","technology":"Conventional Steam Coal","mw":1690.0,"generators":3,"year":1979},"geometry":{"type":"Point","coordinates":[-96.7506,29.9172]}},
{"type":"Feature","properties":{"name":"Oak Grove (TX)","entity":"Luminant Generation Company LLC","county":"Robertson","phase":"operating","technology":"Conventional Steam Coal","mw":1795.4,"generators":2,"year":2010},"geometry":{"type":"Point","coordinates":[-96.4866,31.1803]}},
{"type":"Feature","properties":{"name":"Dansby","entity":"City of Bryan - (TX)","county":"Brazos","phase":"operating","technology":"Natural Gas Steam Turbine","mw":203.2,"generators":3,"year":1978},"geometry":{"type":"Point","coordinates":[-96.4608,30.7217]}},
{"type":"Feature","properties":{"name":"Major Oak Power","entity":"Major Oak Power, LLC","county":"Robertson","phase":"operating","technology":"Conventional Steam Coal","mw":349.2,"generators":2,"year":1990},"geometry":{"type":"Point","coordinates":[-96.695,31.0919]}},
{"type":"Feature","properties":{"name":"J K Spruce","entity":"City of San Antonio - (TX)","county":"Bexar","phase":"operating","technology":"Conventional Steam Coal","mw":1488.5,"generators":2,"year":1992},"geometry":{"type":"Point","coordinates":[-98.3203,29.3097]}},
{"type":"Feature","properties":{"name":"Arthur Von Rosenberg","entity":"City of San Antonio - (TX)","county":"Bexar","phase":"operating","technology":"Natural Gas Fired Combined Cycle","mw":575.0,"generators":3,"year":2000},"geometry":{"type":"Point","coordinates":[-98.3841,29.257]}},
{"type":"Feature","properties":{"name":"Sand Hill","entity":"Austin Energy","county":"Travis","phase":"operating","technology":"Natural Gas Fired Combined Cycle","mw":696.4,"generators":8,"year":2001},"geometry":{"type":"Point","coordinates":[-97.6129,30.2098]}},
{"type":"Feature","properties":{"name":"Central Utility Plant","entity":"Silicon Hills Campus, LLC","county":"Travis","phase":"operating","technology":"Natural Gas Internal Combustion Engine","mw":14.3,"generators":3,"year":1988},"geometry":{"type":"Point","coordinates":[-97.8426,30.3973]}},
{"type":"Feature","properties":{"name":"Hal C Weaver Power Plant","entity":"University of Texas at Austin","county":"Travis","phase":"operating","technology":"Natural Gas Fired Combined Cycle","mw":152.5,"generators":6,"year":1951},"geometry":{"type":"Point","coordinates":[-97.7356,30.2867]}},
{"type":"Feature","properties":{"name":"Rio Nogales Power Project","entity":"City of San Antonio - (TX)","county":"Guadalupe","phase":"operating","technology":"Natural Gas Fired Combined Cycle","mw":1108.0,"generators":4,"year":2002},"geometry":{"type":"Point","coordinates":[-97.9732,29.5931]}},
{"type":"Feature","properties":{"name":"Hays Energy Project","entity":"Hays Energy, LLC","county":"Hays","phase":"operating","technology":"Natural Gas Fired Combined Cycle","mw":989.0,"generators":4,"year":2002},"geometry":{"type":"Point","coordinates":[-97.9894,29.7806]}},
{"type":"Feature","properties":{"name":"Guadalupe Generating Station","entity":"Guadalupe Power Partners LP","county":"Guadalupe","phase":"operating","technology":"Natural Gas Fired Combined Cycle","mw":1088.2,"generators":6,"year":2000},"geometry":{"type":"Point","coordinates":[-98.1419,29.6244]}},
{"type":"Feature","properties":{"name":"Lost Pines 1 Power Project","entity":"Lower Colorado River Authority","county":"Bastrop","phase":"operating","technology":"Natural Gas Fired Combined Cycle","mw":609.0,"generators":3,"year":2001},"geometry":{"type":"Point","coordinates":[-97.2714,30.1478]}},
{"type":"Feature","properties":{"name":"Bastrop Energy Center","entity":"Bastrop Energy Partners, LP","county":"Bastrop","phase":"operating","technology":"Natural Gas Fired Combined Cycle","mw":618.7,"generators":3,"year":2002},"geometry":{"type":"Point","coordinates":[-97.55,30.1458]}},
{"type":"Feature","properties":{"name":"Robert Mueller Energy Center","entity":"Austin Energy","county":"Travis","phase":"operating","technology":"Natural Gas Fired Combustion Turbine","mw":6.1,"generators":2,"year":2006},"geometry":{"type":"Point","coordinates":[-97.7077,30.305]}},
{"type":"Feature","properties":{"name":"Austin Gas Recovery","entity":"WM Renewable Energy LLC","county":"Travis","phase":"operating","technology":"Landfill Gas","mw":4.8,"generators":3,"year":2007},"geometry":{"type":"Point","coordinates":[-97.6217,30.3344]}},
{"type":"Feature","properties":{"name":"Sandy Creek Energy Station","entity":"Sandy Creek Energy Associates LP","county":"McLennan","phase":"operating","technology":"Conventional Steam Coal","mw":1008.0,"generators":1,"year":2013},"geometry":{"type":"Point","coordinates":[-96.9572,31.4744]}},
{"type":"Feature","properties":{"name":"Winchester Power Park","entity":"Lower Colorado River Authority","county":"Fayette","phase":"operating","technology":"Natural Gas Fired Combustion Turbine","mw":242.0,"generators":4,"year":2010},"geometry":{"type":"Point","coordinates":[-96.9945,30.0255]}},
{"type":"Feature","properties":{"name":"Mesquite Creek LFGTE Project","entity":"WM Renewable Energy LLC","county":"Comal","phase":"operating","technology":"Landfill Gas","mw":3.2,"generators":2,"year":2010},"geometry":{"type":"Point","coordinates":[-98.0228,29.7372]}},
{"type":"Feature","properties":{"name":"Blue Wing Solar Energy Generation","entity":"Deriva Energy","county":"Bexar","phase":"operating","technology":"Solar Photovoltaic","mw":13.9,"generators":1,"year":2010},"geometry":{"type":"Point","coordinates":[-98.4003,29.3042]}},
{"type":"Feature","properties":{"name":"East Blackland Solar Project 1","entity":"Deriva Energy","county":"Travis","phase":"operating","technology":"Solar Photovoltaic","mw":144.0,"generators":1,"year":2021},"geometry":{"type":"Point","coordinates":[-97.4614,30.4214]}},
{"type":"Feature","properties":{"name":"Webberville Solar Project","entity":"FRV AE Solar LLC","county":"Travis","phase":"operating","technology":"Solar Photovoltaic","mw":30.0,"generators":1,"year":2011},"geometry":{"type":"Point","coordinates":[-97.5088,30.2385]}},
{"type":"Feature","properties":{"name":"Temple Power Station","entity":"Temple Generation Holdings LLC","county":"Bell","phase":"operating","technology":"Natural Gas Fired Combined Cycle","mw":1606.4,"generators":6,"year":2014},"geometry":{"type":"Point","coordinates":[-97.3172,31.0558]}},
{"type":"Feature","properties":{"name":"SunE CPS3 LLC","entity":"REC Solar","county":"Bexar","phase":"operating","technology":"Solar Photovoltaic","mw":10.6,"generators":2,"year":2012},"geometry":{"type":"Point","coordinates":[-98.6692,29.2219]}},
{"type":"Feature","properties":{"name":"IKEA Round Rock 027","entity":"IKEA Property Inc","county":"Williamson","phase":"operating","technology":"Solar Photovoltaic","mw":1.4,"generators":1,"year":2012},"geometry":{"type":"Point","coordinates":[-97.6903,30.557]}},
{"type":"Feature","properties":{"name":"SunE CPS2 LLC","entity":"REC Solar","county":"Bexar","phase":"operating","technology":"Solar Photovoltaic","mw":10.0,"generators":1,"year":2012},"geometry":{"type":"Point","coordinates":[-98.4183,29.245]}},
{"type":"Feature","properties":{"name":"SunE CPS1 LLC","entity":"REC Solar","county":"Bexar","phase":"operating","technology":"Solar Photovoltaic","mw":10.0,"generators":1,"year":2012},"geometry":{"type":"Point","coordinates":[-98.4183,29.245]}},
{"type":"Feature","properties":{"name":"Central Utility Plant - Texas A&M","entity":"Texas A&M, Utilities & Energy Services","county":"Brazos","phase":"operating","technology":"Natural Gas Fired Combined Cycle","mw":45.1,"generators":2,"year":2011},"geometry":{"type":"Point","coordinates":[-96.3433,30.6178]}},
{"type":"Feature","properties":{"name":"Goldthwaite Wind Energy Facility","entity":"Invenergy Services LLC","county":"Mills","phase":"operating","technology":"Onshore Wind Turbine","mw":150.0,"generators":1,"year":2013},"geometry":{"type":"Point","coordinates":[-98.4667,31.3833]}},
{"type":"Feature","properties":{"name":"OCI Alamo Solar I Hybrid","entity":"OCI Energy LLC","county":"Bexar","phase":"operating","technology":"Solar Photovoltaic","mw":40.7,"generators":1,"year":2013},"geometry":{"type":"Point","coordinates":[-98.4447,29.2717]}},
{"type":"Feature","properties":{"name":"OCI Alamo 2, LLC","entity":"OCI Energy LLC","county":"Bexar","phase":"operating","technology":"Solar Photovoltaic","mw":4.4,"generators":1,"year":2014},"geometry":{"type":"Point","coordinates":[-98.3319,29.4694]}},
{"type":"Feature","properties":{"name":"OCI Alamo 3 LLC","entity":"RWE Clean Energy","county":"Bexar","phase":"operating","technology":"Solar Photovoltaic","mw":5.5,"generators":1,"year":2015},"geometry":{"type":"Point","coordinates":[-98.2972,29.4792]}},
{"type":"Feature","properties":{"name":"Nelson Gardens Landfill Gas to Energy","entity":"Nelson Gardens Energy, LLC","county":"Bexar","phase":"operating","technology":"Landfill Gas","mw":4.4,"generators":4,"year":2014},"geometry":{"type":"Point","coordinates":[-98.66,29.33]}},
{"type":"Feature","properties":{"name":"Sky Global Power One","entity":"Sky Global Power One Pledgor, LLC","county":"Colorado","phase":"operating","technology":"Natural Gas Internal Combustion Engine","mw":51.0,"generators":6,"year":2016},"geometry":{"type":"Point","coordinates":[-96.5378,29.5503]}},
{"type":"Feature","properties":{"name":"CPS 1 Community Solar","entity":"City of San Antonio - (TX)","county":"Bexar","phase":"operating","technology":"Solar Photovoltaic","mw":1.0,"generators":1,"year":2016},"geometry":{"type":"Point","coordinates":[-98.2692,29.378]}},
{"type":"Feature","properties":{"name":"Rabbit Hill Energy Storage Project","entity":"Rabbit Hill Energy Storage Project","county":"Williamson","phase":"operating","technology":"Batteries","mw":9.9,"generators":1,"year":2020},"geometry":{"type":"Point","coordinates":[-97.687,30.5878]}},
{"type":"Feature","properties":{"name":"Phantom Solar","entity":"Phantom Solar, LLC","county":"Bell","phase":"operating","technology":"Solar Photovoltaic","mw":15.4,"generators":1,"year":2017},"geometry":{"type":"Point","coordinates":[-97.8451,31.115]}},
{"type":"Feature","properties":{"name":"Flat Top Wind I","entity":"BHE Renewables, LLC","county":"Mills","phase":"operating","technology":"Onshore Wind Turbine","mw":200.0,"generators":1,"year":2018},"geometry":{"type":"Point","coordinates":[-98.6034,31.6845]}},
{"type":"Feature","properties":{"name":"Marlin Solar","entity":"Cypress Creek Renewables","county":"Limestone","phase":"operating","technology":"Solar Photovoltaic","mw":5.3,"generators":1,"year":2017},"geometry":{"type":"Point","coordinates":[-96.8772,31.2867]}},
{"type":"Feature","properties":{"name":"PowerFin Kingsbery","entity":"PowerFin ASL 1, LLC","county":"Travis","phase":"operating","technology":"Solar Photovoltaic","mw":2.6,"generators":1,"year":2018},"geometry":{"type":"Point","coordinates":[-97.6849,30.2659]}},
{"type":"Feature","properties":{"name":"Kingsberry Energy Storage System","entity":"Austin Energy","county":"Travis","phase":"operating","technology":"Batteries","mw":1.5,"generators":1,"year":2018},"geometry":{"type":"Point","coordinates":[-97.6861,30.266]}},
{"type":"Feature","properties":{"name":"System Control Center","entity":"Austin Energy","county":"Travis","phase":"operating","technology":"Flywheels","mw":5.0,"generators":2,"year":2012},"geometry":{"type":"Point","coordinates":[-97.7088,30.2199]}},
{"type":"Feature","properties":{"name":"Eddy II","entity":"Cypress Creek Renewables","county":"McLennan","phase":"operating","technology":"Solar Photovoltaic","mw":10.0,"generators":1,"year":2018},"geometry":{"type":"Point","coordinates":[-97.2607,31.2911]}},
{"type":"Feature","properties":{"name":"IKEA Live Oak Rooftop PV System","entity":"IKEA Property Inc","county":"Bexar","phase":"operating","technology":"Solar Photovoltaic","mw":1.7,"generators":1,"year":2019},"geometry":{"type":"Point","coordinates":[-98.25,29.48]}},
{"type":"Feature","properties":{"name":"Commerce ESS","entity":"City of San Antonio - (TX)","county":"Bexar","phase":"operating","technology":"Batteries","mw":10.0,"generators":1,"year":2019},"geometry":{"type":"Point","coordinates":[-98.6177,29.4344]}},
{"type":"Feature","properties":{"name":"Commerce Solar","entity":"City of San Antonio - (TX)","county":"Bexar","phase":"operating","technology":"Solar Photovoltaic","mw":5.0,"generators":1,"year":2019},"geometry":{"type":"Point","coordinates":[-98.6177,29.4344]}},
{"type":"Feature","properties":{"name":"Griffin Solar","entity":"Sol Systems","county":"McLennan","phase":"operating","technology":"Solar Photovoltaic","mw":5.0,"generators":1,"year":2019},"geometry":{"type":"Point","coordinates":[-97.1412,31.4741]}},
{"type":"Feature","properties":{"name":"Prairie Hill Wind Project","entity":"Engie North America","county":"Limestone","phase":"operating","technology":"Onshore Wind Turbine","mw":300.0,"generators":1,"year":2020},"geometry":{"type":"Point","coordinates":[-96.9041,31.5499]}},
{"type":"Feature","properties":{"name":"Priddy Wind Project","entity":"Engie North America","county":"Mills","phase":"operating","technology":"Onshore Wind Turbine","mw":302.4,"generators":1,"year":2022},"geometry":{"type":"Point","coordinates":[-98.4949,31.5481]}},
{"type":"Feature","properties":{"name":"Big Star Solar, LLC (Hybrid)","entity":"RWE Clean Energy","county":"Bastrop","phase":"operating","technology":"Solar Photovoltaic","mw":200.0,"generators":1,"year":2025},"geometry":{"type":"Point","coordinates":[-97.2705,29.894]}},
{"type":"Feature","properties":{"name":"7V Solar Ranch","entity":"7V Solar Ranch, LLC","county":"Fayette","phase":"operating","technology":"Solar Photovoltaic","mw":240.0,"generators":1,"year":2025},"geometry":{"type":"Point","coordinates":[-97.0741,29.807]}},
{"type":"Feature","properties":{"name":"BPL Crown Solar LLC","entity":"BPL Crown Solar LLC","county":"Falls","phase":"operating","technology":"Solar Photovoltaic","mw":100.0,"generators":1,"year":2024},"geometry":{"type":"Point","coordinates":[-97.0828,31.3467]}},
{"type":"Feature","properties":{"name":"BPL Sol Solar LLC","entity":"BPL Sol Solar LLC","county":"Falls","phase":"operating","technology":"Solar Photovoltaic","mw":100.0,"generators":1,"year":2024},"geometry":{"type":"Point","coordinates":[-97.0828,31.3467]}},
{"type":"Feature","properties":{"name":"North Fork TX","entity":"Engie North America","county":"Williamson","phase":"operating","technology":"Batteries","mw":100.0,"generators":1,"year":2021},"geometry":{"type":"Point","coordinates":[-97.8757,30.749]}},
{"type":"Feature","properties":{"name":"Ranchtown","entity":"Engie North America","county":"Bexar","phase":"operating","technology":"Batteries","mw":9.9,"generators":1,"year":2021},"geometry":{"type":"Point","coordinates":[-98.736,29.6179]}},
{"type":"Feature","properties":{"name":"Niagara Bottling - Seguin","entity":"SkyHigh 2 Solar","county":"Guadalupe","phase":"operating","technology":"Solar Photovoltaic","mw":4.9,"generators":1,"year":2021},"geometry":{"type":"Point","coordinates":[-97.9772,29.5891]}},
{"type":"Feature","properties":{"name":"WAL407","entity":"Walmart Stores Texas, LLC","county":"Bell","phase":"operating","technology":"Natural Gas Internal Combustion Engine","mw":1.2,"generators":3,"year":2021},"geometry":{"type":"Point","coordinates":[-97.7293,31.0897]}},
{"type":"Feature","properties":{"name":"WAL1232","entity":"Walmart Stores Texas, LLC","county":"Bell","phase":"operating","technology":"Natural Gas Internal Combustion Engine","mw":1.2,"generators":3,"year":2020},"geometry":{"type":"Point","coordinates":[-97.4578,31.0808]}},
{"type":"Feature","properties":{"name":"FELPS 1 - Calaveras","entity":"DG Central 1, LLC","county":"Wilson","phase":"operating","technology":"Solar Photovoltaic","mw":1.0,"generators":1,"year":2021},"geometry":{"type":"Point","coordinates":[-98.2509,29.2204]}},
{"type":"Feature","properties":{"name":"FELPS 2 - Calaveras","entity":"DG Central 1, LLC","county":"Wilson","phase":"operating","technology":"Solar Photovoltaic","mw":1.0,"generators":1,"year":2021},"geometry":{"type":"Point","coordinates":[-98.2517,29.2209]}},
{"type":"Feature","properties":{"name":"WAL5479","entity":"Walmart Stores Texas, LLC","county":"Travis","phase":"operating","technology":"Natural Gas Internal Combustion Engine","mw":1.2,"generators":3,"year":2021},"geometry":{"type":"Point","coordinates":[-97.606,30.4531]}},
{"type":"Feature","properties":{"name":"WAL5480","entity":"Walmart Stores Texas, LLC","county":"Williamson","phase":"operating","technology":"Natural Gas Internal Combustion Engine","mw":1.2,"generators":3,"year":2021},"geometry":{"type":"Point","coordinates":[-97.612,30.5337]}},
{"type":"Feature","properties":{"name":"WAL6929","entity":"Walmart Stores Texas, LLC","county":"Bell","phase":"operating","technology":"Natural Gas Internal Combustion Engine","mw":1.2,"generators":3,"year":2020},"geometry":{"type":"Point","coordinates":[-97.4144,31.115]}},
{"type":"Feature","properties":{"name":"Roseland Solar Project, LLC","entity":"Enel Green Power Roseland Solar, LLC","county":"Falls","phase":"operating","technology":"Batteries","mw":51.8,"generators":1,"year":2023},"geometry":{"type":"Point","coordinates":[-96.8249,31.4612]}},
{"type":"Feature","properties":{"name":"Austin TX GigaFactory","entity":"Tesla Inc.","county":"Travis","phase":"operating","technology":"Solar Photovoltaic","mw":5.4,"generators":4,"year":2023},"geometry":{"type":"Point","coordinates":[-97.6197,30.2202]}},
{"type":"Feature","properties":{"name":"HEB00182","entity":"Texas Microgrid, LLC","county":"Bell","phase":"operating","technology":"Natural Gas Internal Combustion Engine","mw":1.2,"generators":3,"year":2018},"geometry":{"type":"Point","coordinates":[-97.3709,31.0721]}},
{"type":"Feature","properties":{"name":"TX11 Republic Road Storage","entity":"Key Capture Energy","county":"Robertson","phase":"operating","technology":"Batteries","mw":50.0,"generators":1,"year":2022},"geometry":{"type":"Point","coordinates":[-96.6254,30.8814]}},
{"type":"Feature","properties":{"name":"TX12 Silicon Hill Storage","entity":"Key Capture Energy","county":"Travis","phase":"operating","technology":"Batteries","mw":100.0,"generators":1,"year":2022},"geometry":{"type":"Point","coordinates":[-97.5741,30.4122]}},
{"type":"Feature","properties":{"name":"TX19 River Valley Storage 1","entity":"Key Capture Energy","county":"Williamson","phase":"operating","technology":"Batteries","mw":50.0,"generators":1,"year":2023},"geometry":{"type":"Point","coordinates":[-97.357,30.4148]}},
{"type":"Feature","properties":{"name":"TX21 River Valley Storage 2","entity":"Key Capture Energy","county":"Williamson","phase":"operating","technology":"Batteries","mw":50.0,"generators":1,"year":2023},"geometry":{"type":"Point","coordinates":[-97.3552,30.4143]}},
{"type":"Feature","properties":{"name":"Castle Gap Wind","entity":"Castle Gap Wind Power, LLC","county":"Mills","phase":"operating","technology":"Onshore Wind Turbine","mw":196.8,"generators":1,"year":2023},"geometry":{"type":"Point","coordinates":[-98.3594,31.3938]}},
{"type":"Feature","properties":{"name":"Cachi","entity":"Engie North America","county":"Guadalupe","phase":"operating","technology":"Batteries","mw":200.0,"generators":1,"year":2025},"geometry":{"type":"Point","coordinates":[-98.0152,29.6531]}},
{"type":"Feature","properties":{"name":"Stillhouse Solar","entity":"Stillhouse Solar LLC","county":"Bell","phase":"operating","technology":"Solar Photovoltaic","mw":210.0,"generators":1,"year":2025},"geometry":{"type":"Point","coordinates":[-97.1651,30.9676]}},
{"type":"Feature","properties":{"name":"True North Solar, LLC","entity":"Avangrid Power LLC","county":"Falls","phase":"operating","technology":"Solar Photovoltaic","mw":238.8,"generators":1,"year":2024},"geometry":{"type":"Point","coordinates":[-96.7942,31.4686]}},
{"type":"Feature","properties":{"name":"Timmerman Power Plant","entity":"Lower Colorado River Authority","county":"Caldwell","phase":"operating","technology":"Natural Gas Internal Combustion Engine","mw":368.0,"generators":20,"year":2025},"geometry":{"type":"Point","coordinates":[-97.807,29.875]}},
{"type":"Feature","properties":{"name":"Tidwell Prairie Storage 1","entity":"Tidwell Prairie","county":"Robertson","phase":"operating","technology":"Batteries","mw":200.0,"generators":1,"year":2025},"geometry":{"type":"Point","coordinates":[-96.6637,31.0983]}},
{"type":"Feature","properties":{"name":"Bexar ESS","entity":"Bexar ESS, LLC","county":"Bexar","phase":"operating","technology":"Batteries","mw":100.0,"generators":1,"year":2026},"geometry":{"type":"Point","coordinates":[-98.456,29.271]}},
{"type":"Feature","properties":{"name":"Five Wells Solar Center - Hybrid","entity":"Five Wells Solar Center, LLC","county":"Bell","phase":"operating","technology":"Solar Photovoltaic","mw":617.9,"generators":2,"year":2023},"geometry":{"type":"Point","coordinates":[-97.259,30.9986]}},
{"type":"Feature","properties":{"name":"HEB00591","entity":"Texas Microgrid, LLC","county":"Williamson","phase":"operating","technology":"Natural Gas Internal Combustion Engine","mw":1.6,"generators":4,"year":2018},"geometry":{"type":"Point","coordinates":[-97.6585,30.5188]}},
{"type":"Feature","properties":{"name":"HEB_CPS00085","entity":"Texas Microgrid, LLC","county":"Bexar","phase":"operating","technology":"Natural Gas Internal Combustion Engine","mw":1.6,"generators":4,"year":2019},"geometry":{"type":"Point","coordinates":[-98.7035,29.4337]}},
{"type":"Feature","properties":{"name":"HEB_CPSSADC","entity":"Texas Microgrid, LLC","county":"Bexar","phase":"operating","technology":"Natural Gas Internal Combustion Engine","mw":6.4,"generators":16,"year":2020},"geometry":{"type":"Point","coordinates":[-98.3609,29.4173]}},
{"type":"Feature","properties":{"name":"Orion III Solar Project","entity":"Ben Milam Solar 3 LLC","county":"Milam","phase":"operating","technology":"Solar Photovoltaic","mw":250.0,"generators":1,"year":2024},"geometry":{"type":"Point","coordinates":[-97.1245,30.9602]}},
{"type":"Feature","properties":{"name":"Orion I Solar Project","entity":"Ben Milam Solar 1 LLC","county":"Milam","phase":"operating","technology":"Solar Photovoltaic","mw":200.0,"generators":1,"year":2024},"geometry":{"type":"Point","coordinates":[-97.0015,30.9965]}},
{"type":"Feature","properties":{"name":"Orion II Solar Project","entity":"Ben Milam Solar 2 LLC","county":"Milam","phase":"operating","technology":"Solar Photovoltaic","mw":250.0,"generators":1,"year":2024},"geometry":{"type":"Point","coordinates":[-96.9348,31.029]}},
{"type":"Feature","properties":{"name":"Copperhead Solar, LLC","entity":"Geronimo Power","county":"McLennan","phase":"operating","technology":"Solar Photovoltaic","mw":250.0,"generators":2,"year":2024},"geometry":{"type":"Point","coordinates":[-96.86,31.45]}},
{"type":"Feature","properties":{"name":"Ebony Energy Storage","entity":"Ebony Energy Storage, LLC","county":"Comal","phase":"operating","technology":"Batteries","mw":207.9,"generators":1,"year":2024},"geometry":{"type":"Point","coordinates":[-98.3345,29.6201]}},
{"type":"Feature","properties":{"name":"AbbVie Waco","entity":"Generate ER-NG, LLC","county":"McLennan","phase":"operating","technology":"Natural Gas Internal Combustion Engine","mw":5.6,"generators":14,"year":2023},"geometry":{"type":"Point","coordinates":[-97.2006,31.4882]}},
{"type":"Feature","properties":{"name":"HEBTEMDistCenter","entity":"Texas Microgrid, LLC","county":"Bell","phase":"operating","technology":"Natural Gas Internal Combustion Engine","mw":6.4,"generators":16,"year":2023},"geometry":{"type":"Point","coordinates":[-97.3612,31.1524]}},
{"type":"Feature","properties":{"name":"OTHERTexasA&M","entity":"Texas Microgrid, LLC","county":"Brazos","phase":"operating","technology":"Natural Gas Internal Combustion Engine","mw":9.6,"generators":24,"year":2018},"geometry":{"type":"Point","coordinates":[-96.461,30.642]}},
{"type":"Feature","properties":{"name":"Markum Solar Farm","entity":"Markum Solar Farm, LLC","county":"Bosque","phase":"operating","technology":"Solar Photovoltaic","mw":161.0,"generators":1,"year":2024},"geometry":{"type":"Point","coordinates":[-97.3749,31.6948]}},
{"type":"Feature","properties":{"name":"ABIA Parking Structure","entity":"SoCore Energy LLC","county":"Travis","phase":"operating","technology":"Solar Photovoltaic","mw":1.8,"generators":1,"year":2021},"geometry":{"type":"Point","coordinates":[-97.6686,30.2047]}},
{"type":"Feature","properties":{"name":"GFTX BESS","entity":"Giga Texas Energy LLC","county":"Travis","phase":"operating","technology":"Batteries","mw":125.0,"generators":1,"year":2024},"geometry":{"type":"Point","coordinates":[-97.6188,30.2283]}},
{"type":"Feature","properties":{"name":"Big Elm Solar","entity":"Big Elm Solar, LLC","county":"Bell","phase":"operating","technology":"Solar Photovoltaic","mw":200.0,"generators":1,"year":2025},"geometry":{"type":"Point","coordinates":[-97.217,31.141]}},
{"type":"Feature","properties":{"name":"Gransolar Texas One, LLC","entity":"Gransolar Texas One, LLC","county":"Milam","phase":"operating","technology":"Solar Photovoltaic","mw":50.0,"generators":1,"year":2025},"geometry":{"type":"Point","coordinates":[-97.1548,30.5998]}},
{"type":"Feature","properties":{"name":"BT Jungmann","entity":"BT Jungmann, LLC","county":"Milam","phase":"operating","technology":"Solar Photovoltaic","mw":40.0,"generators":1,"year":2025},"geometry":{"type":"Point","coordinates":[-97.0578,30.9038]}},
{"type":"Feature","properties":{"name":"Diver Solar, LLC","entity":"Diver Solar, LLC","county":"Limestone","phase":"operating","technology":"Solar Photovoltaic","mw":225.0,"generators":1,"year":2025},"geometry":{"type":"Point","coordinates":[-96.39,31.25]}},
{"type":"Feature","properties":{"name":"HEBTEMDistCenter2A","entity":"Texas Microgrid, LLC","county":"Bell","phase":"operating","technology":"Natural Gas Internal Combustion Engine","mw":6.4,"generators":16,"year":2024},"geometry":{"type":"Point","coordinates":[-97.3612,31.1524]}},
{"type":"Feature","properties":{"name":"Chillingham Storage","entity":"Chillingham Storage LLC","county":"Bell","phase":"operating","technology":"Batteries","mw":150.0,"generators":1,"year":2025},"geometry":{"type":"Point","coordinates":[-97.2632,31.0053]}},
{"type":"Feature","properties":{"name":"Libra Storage","entity":"Libra Storage LLC","county":"Guadalupe","phase":"operating","technology":"Batteries","mw":236.3,"generators":1,"year":2023},"geometry":{"type":"Point","coordinates":[-98.0028,29.4666]}},
{"type":"Feature","properties":{"name":"Padua 1","entity":"Padua 1","county":"Bexar","phase":"operating","technology":"Batteries","mw":50.0,"generators":1,"year":2025},"geometry":{"type":"Point","coordinates":[-98.3256,29.3251]}},
{"type":"Feature","properties":{"name":"Padua 2","entity":"Padua 2","county":"Bexar","phase":"operating","technology":"Batteries","mw":150.0,"generators":1,"year":2026},"geometry":{"type":"Point","coordinates":[-98.3256,29.3251]}},
{"type":"Feature","properties":{"name":"Ferdinand Energy Center","entity":"Ferdinand Grid, LLC","county":"Bexar","phase":"operating","technology":"Batteries","mw":200.0,"generators":1,"year":2026},"geometry":{"type":"Point","coordinates":[-98.5765,29.3484]}},
{"type":"Feature","properties":{"name":"Stoneridge Solar, LLC","entity":"RWE Clean Energy","county":"Milam","phase":"operating","technology":"Solar Photovoltaic","mw":100.0,"generators":1,"year":2025},"geometry":{"type":"Point","coordinates":[-97.1104,30.5694]}},
{"type":"Feature","properties":{"name":"EDFR Bluebonnet","entity":"Texas Bluebonnet Solar Partners, LLC","county":"McLennan","phase":"operating","technology":"Solar Photovoltaic","mw":9.9,"generators":1,"year":2023},"geometry":{"type":"Point","coordinates":[-97.4237,31.4119]}},
{"type":"Feature","properties":{"name":"PP Jaguar BESS LLC","entity":"PP Jaguar BESS LLC","county":"McLennan","phase":"operating","technology":"Batteries","mw":300.0,"generators":2,"year":2025},"geometry":{"type":"Point","coordinates":[-96.9705,31.5999]}},
{"type":"Feature","properties":{"name":"Buda BESS","entity":"Buda Infra LLC","county":"Hays","phase":"operating","technology":"Batteries","mw":9.9,"generators":1,"year":2026},"geometry":{"type":"Point","coordinates":[-97.851,30.0756]}},
{"type":"Feature","properties":{"name":"Johnson City BESS","entity":"Pedernales Electric Coop, Inc","county":"Blanco","phase":"operating","technology":"Batteries","mw":2.3,"generators":1,"year":2020},"geometry":{"type":"Point","coordinates":[-98.3983,30.3004]}},
{"type":"Feature","properties":{"name":"Regis Medina Lake","entity":"Regis Medina Lake LLC","county":"Bandera","phase":"operating","technology":"Batteries","mw":9.9,"generators":1,"year":2026},"geometry":{"type":"Point","coordinates":[-98.9351,29.6127]}},
{"type":"Feature","properties":{"name":"Bynum Solar Project","entity":"Bynum Solar Project LLC (RE)","county":"Coryell","phase":"operating","technology":"Solar Photovoltaic","mw":56.0,"generators":1,"year":2026},"geometry":{"type":"Point","coordinates":[-97.6647,31.5851]}},
{"type":"Feature","properties":{"name":"RP SCG Texas Solar","entity":"RP SCG Texas Solar LLC","county":"Travis","phase":"operating","technology":"Solar Photovoltaic","mw":1.5,"generators":1,"year":2025},"geometry":{"type":"Point","coordinates":[-97.7474,30.4277]}},
{"type":"Feature","properties":{"name":"Blevins Solar & Storage","entity":"Geronimo Power","county":"Falls","phase":"operating","technology":"Solar Photovoltaic","mw":450.0,"generators":3,"year":2025},"geometry":{"type":"Point","coordinates":[-97.1851,31.2111]}},
{"type":"Feature","properties":{"name":"Bexar Corrilla BESS","entity":"Bexar Corrilla LLC","county":"Bexar","phase":"operating","technology":"Batteries","mw":9.9,"generators":1,"year":2026},"geometry":{"type":"Point","coordinates":[-98.3167,29.3797]}},
{"type":"Feature","properties":{"name":"HEB_CPS00793","entity":"Texas Microgrid, LLC","county":"Bexar","phase":"operating","technology":"Natural Gas Internal Combustion Engine","mw":1.2,"generators":3,"year":2025},"geometry":{"type":"Point","coordinates":[-98.6803,29.7344]}},
{"type":"Feature","properties":{"name":"GVEC","entity":"Onsite Partners Projectco, LLC","county":"Guadalupe","phase":"operating","technology":"Solar Photovoltaic","mw":2.0,"generators":1,"year":2017},"geometry":{"type":"Point","coordinates":[-97.7555,29.5444]}},
{"type":"Feature","properties":{"name":"Hermes Solar PV","entity":"Bell 1 Solar, LLC","county":"Bell","phase":"planned","technology":"Solar Photovoltaic","mw":100.4,"generators":1,"year":2026},"geometry":{"type":"Point","coordinates":[-97.1498,30.9898]}},
{"type":"Feature","properties":{"name":"Padua 3","entity":"Padua 3","county":"Bexar","phase":"planned","technology":"Batteries","mw":200.0,"generators":1,"year":2026},"geometry":{"type":"Point","coordinates":[-98.3256,29.3251]}},
{"type":"Feature","properties":{"name":"Roseland Solar Project, LLC","entity":"Enel Green Power Roseland Solar, LLC","county":"Falls","phase":"planned","technology":"Solar Photovoltaic","mw":500.0,"generators":1,"year":2026},"geometry":{"type":"Point","coordinates":[-96.8249,31.4612]}},
{"type":"Feature","properties":{"name":"Austin TX GigaFactory","entity":"Tesla Inc.","county":"Travis","phase":"planned","technology":"Solar Photovoltaic","mw":2.3,"generators":1,"year":2026},"geometry":{"type":"Point","coordinates":[-97.6197,30.2202]}},
{"type":"Feature","properties":{"name":"Yaupon Solar Project (Hybrid)","entity":"Yaupon Solar, LLC","county":"Milam","phase":"planned","technology":"Solar Photovoltaic","mw":300.0,"generators":2,"year":2026},"geometry":{"type":"Point","coordinates":[-96.8514,31.0444]}},
{"type":"Feature","properties":{"name":"Chillingham Solar","entity":"Chillingham Solar LLC","county":"Bell","phase":"planned","technology":"Solar Photovoltaic","mw":350.0,"generators":1,"year":2026},"geometry":{"type":"Point","coordinates":[-97.262,31.006]}},
{"type":"Feature","properties":{"name":"Hermes Storage BESS","entity":"Bell 1 Storage, LLC","county":"Bell","phase":"planned","technology":"Batteries","mw":100.4,"generators":1,"year":2026},"geometry":{"type":"Point","coordinates":[-97.1429,30.9816]}},
{"type":"Feature","properties":{"name":"Limewood Bell Renewables Solar","entity":"Limewood Bell Renewables LLC","county":"Bell","phase":"planned","technology":"Solar Photovoltaic","mw":204.0,"generators":1,"year":2026},"geometry":{"type":"Point","coordinates":[-97.2614,31.1294]}},
{"type":"Feature","properties":{"name":"Sypert Branch Solar","entity":"Sypert Branch Solar LLC","county":"Milam","phase":"planned","technology":"Solar Photovoltaic","mw":293.9,"generators":1,"year":2026},"geometry":{"type":"Point","coordinates":[-97.1944,30.8779]}},
{"type":"Feature","properties":{"name":"Big Star Solar, LLC (Hybrid)","entity":"RWE Clean Energy","county":"Bastrop","phase":"planned","technology":"Batteries","mw":80.0,"generators":1,"year":2026},"geometry":{"type":"Point","coordinates":[-97.2705,29.894]}},
{"type":"Feature","properties":{"name":"Cattlemen Solar Park","entity":"Cattlemen Solar Park LLC","county":"Milam","phase":"planned","technology":"Solar Photovoltaic","mw":240.0,"generators":1,"year":2026},"geometry":{"type":"Point","coordinates":[-96.8586,31.0457]}},
{"type":"Feature","properties":{"name":"Cattlemen Solar II","entity":"Cattlemen Solar Park II LLC","county":"Milam","phase":"planned","technology":"Solar Photovoltaic","mw":200.0,"generators":1,"year":2026},"geometry":{"type":"Point","coordinates":[-96.8573,31.0836]}},
{"type":"Feature","properties":{"name":"Tidwell Prairie II","entity":"Tidwell Prairie IIA LLC","county":"Robertson","phase":"planned","technology":"Batteries","mw":200.0,"generators":1,"year":2026},"geometry":{"type":"Point","coordinates":[-96.6649,31.1031]}},
{"type":"Feature","properties":{"name":"Barton Branch IA","entity":"Barton Branch IA LLC","county":"Robertson","phase":"planned","technology":"Batteries","mw":200.0,"generators":1,"year":2026},"geometry":{"type":"Point","coordinates":[-96.6649,31.1031]}},
{"type":"Feature","properties":{"name":"Columbus Clean Energy Center (BESS)","entity":"On Energy Storage","county":"Colorado","phase":"planned","technology":"Batteries","mw":10.1,"generators":1,"year":2026},"geometry":{"type":"Point","coordinates":[-96.5304,29.6789]}},
{"type":"Feature","properties":{"name":"Stoneridge Solar, LLC","entity":"RWE Clean Energy","county":"Milam","phase":"planned","technology":"Batteries","mw":100.0,"generators":1,"year":2026},"geometry":{"type":"Point","coordinates":[-97.1104,30.5694]}},
{"type":"Feature","properties":{"name":"Backbone Creek BESS","entity":"Backbone BESS LLC","county":"Burnet","phase":"planned","technology":"Batteries","mw":121.0,"generators":1,"year":2026},"geometry":{"type":"Point","coordinates":[-98.2569,30.5502]}},
{"type":"Feature","properties":{"name":"Piedra Solar","entity":"Piedra Solar, LLC","county":"Freestone","phase":"planned","technology":"Solar Photovoltaic","mw":280.0,"generators":1,"year":2026},"geometry":{"type":"Point","coordinates":[-96.3452,31.649]}},
{"type":"Feature","properties":{"name":"Colorado Clean Energy Center (BESS)","entity":"On Energy Storage","county":"Colorado","phase":"planned","technology":"Batteries","mw":10.1,"generators":1,"year":2026},"geometry":{"type":"Point","coordinates":[-96.5152,29.649]}},
{"type":"Feature","properties":{"name":"GPI WACO Power","entity":"Graphic Packaging International - WACO","county":"McLennan","phase":"planned","technology":"Natural Gas Fired Combustion Turbine","mw":43.4,"generators":1,"year":2027},"geometry":{"type":"Point","coordinates":[-97.1877,31.4768]}},
{"type":"Feature","properties":{"name":"Ryan Storage","entity":"Ryan Storage LLC","county":"Coryell","phase":"planned","technology":"Batteries","mw":50.0,"generators":1,"year":2027},"geometry":{"type":"Point","coordinates":[-97.7987,31.5358]}},
{"type":"Feature","properties":{"name":"Clear Fork Creek Solar and BESS SLF","entity":"Clear Fork","county":"Wilson","phase":"planned","technology":"Batteries","mw":1200.0,"generators":2,"year":2027},"geometry":{"type":"Point","coordinates":[-97.7806,29.2636]}},
{"type":"Feature","properties":{"name":"Staccato BESS","entity":"Sunraycer Assets I LLC","county":"Fayette","phase":"planned","technology":"Batteries","mw":200.5,"generators":1,"year":2027},"geometry":{"type":"Point","coordinates":[-96.9212,30.0531]}},
{"type":"Feature","properties":{"name":"Pecan Prairie South Solar","entity":"Repsol Renewables NA","county":"Leon","phase":"planned","technology":"Solar Photovoltaic","mw":132.9,"generators":1,"year":2027},"geometry":{"type":"Point","coordinates":[-96.221,31.05]}},
{"type":"Feature","properties":{"name":"Pecan Prairie North Solar","entity":"Repsol Renewables NA","county":"Leon","phase":"planned","technology":"Solar Photovoltaic","mw":324.1,"generators":1,"year":2027},"geometry":{"type":"Point","coordinates":[-96.2693,31.1372]}},
{"type":"Feature","properties":{"name":"Chisme Solar and Storage","entity":"Red River Clean Energy","county":"Brown","phase":"planned","technology":"Solar Photovoltaic","mw":293.0,"generators":2,"year":2027},"geometry":{"type":"Point","coordinates":[-98.822,31.5689]}},
{"type":"Feature","properties":{"name":"Bee Branch IA","entity":"Bee Branch IA, LLC","county":"Robertson","phase":"planned","technology":"Batteries","mw":200.0,"generators":1,"year":2027},"geometry":{"type":"Point","coordinates":[-96.6648,31.1048]}},
{"type":"Feature","properties":{"name":"Alamo City ESS","entity":"Alamo City ESS LLC","county":"Bexar","phase":"planned","technology":"Batteries","mw":200.0,"generators":1,"year":2027},"geometry":{"type":"Point","coordinates":[-98.3195,29.3453]}},
{"type":"Feature","properties":{"name":"Pepper Solar Farm","entity":"Pepper Solar Farm, LLC","county":"McLennan","phase":"planned","technology":"Solar Photovoltaic","mw":120.0,"generators":1,"year":2027},"geometry":{"type":"Point","coordinates":[-97.046,31.6784]}},
{"type":"Feature","properties":{"name":"El Patrimonio","entity":"Heritage Solar LLC","county":"Bexar","phase":"planned","technology":"Solar Photovoltaic","mw":150.0,"generators":1,"year":2027},"geometry":{"type":"Point","coordinates":[-98.5101,29.2405]}},
{"type":"Feature","properties":{"name":"Tokio Solar","entity":"Gransolar Texas Eight, LLC","county":"McLennan","phase":"planned","technology":"Solar Photovoltaic","mw":170.4,"generators":1,"year":2027},"geometry":{"type":"Point","coordinates":[-97.3109,31.4274]}},
{"type":"Feature","properties":{"name":"Holly Branch Solar, LLC","entity":"Cypress Creek Renewables","county":"Robertson","phase":"planned","technology":"Solar Photovoltaic","mw":330.0,"generators":2,"year":2027},"geometry":{"type":"Point","coordinates":[-96.4141,31.0946]}},
{"type":"Feature","properties":{"name":"Two Rivers Solar","entity":"Two Rivers Solar, LLC","county":"Milam","phase":"planned","technology":"Solar Photovoltaic","mw":214.0,"generators":1,"year":2027},"geometry":{"type":"Point","coordinates":[-96.7357,30.8685]}},
{"type":"Feature","properties":{"name":"Adelite Storage Project LLC","entity":"Acciona Energy USA Global, LLC","county":"Milam","phase":"planned","technology":"Batteries","mw":230.0,"generators":1,"year":2027},"geometry":{"type":"Point","coordinates":[-97.2105,30.6224]}},
{"type":"Feature","properties":{"name":"Rock Island Generation Project","entity":"Kerrville Public Utility Board Public Facility Corp","county":"Colorado","phase":"planned","technology":"Natural Gas Internal Combustion Engine","mw":121.8,"generators":6,"year":2027},"geometry":{"type":"Point","coordinates":[-96.5368,29.5507]}},
{"type":"Feature","properties":{"name":"Naduah Solar","entity":"Gransolar Texas Fifteen, LLC","county":"Limestone","phase":"planned","technology":"Solar Photovoltaic","mw":102.3,"generators":1,"year":2027},"geometry":{"type":"Point","coordinates":[-96.6739,31.5215]}},
{"type":"Feature","properties":{"name":"Cosper Solar","entity":"Gransolar Texas Twenty LLC","county":"Bell","phase":"planned","technology":"Solar Photovoltaic","mw":148.2,"generators":1,"year":2027},"geometry":{"type":"Point","coordinates":[-97.7959,30.9942]}},
{"type":"Feature","properties":{"name":"Central Utility Plant - Texas A&M","entity":"Texas A&M, Utilities & Energy Services","county":"Brazos","phase":"planned","technology":"Natural Gas Fired Combined Cycle","mw":5.0,"generators":1,"year":2027},"geometry":{"type":"Point","coordinates":[-96.3433,30.6178]}},
{"type":"Feature","properties":{"name":"Albatross Solar, LLC","entity":"Sunraycer Assets I LLC","county":"McLennan","phase":"planned","technology":"Solar Photovoltaic","mw":151.4,"generators":2,"year":2027},"geometry":{"type":"Point","coordinates":[-97.4224,31.4843]}},
{"type":"Feature","properties":{"name":"Lampe Solar","entity":"Gransolar Texas Seven LLC","county":"Washington","phase":"planned","technology":"Solar Photovoltaic","mw":60.2,"generators":1,"year":2027},"geometry":{"type":"Point","coordinates":[-96.4789,30.3105]}},
{"type":"Feature","properties":{"name":"Symank Solar","entity":"Belltown Power Texas 2, LLC","county":"Bosque","phase":"planned","technology":"Solar Photovoltaic","mw":66.6,"generators":1,"year":2027},"geometry":{"type":"Point","coordinates":[-97.6421,31.626]}},
{"type":"Feature","properties":{"name":"Findley PV and BESS","entity":"Gransolar Texas Sixteen, LLC","county":"Limestone","phase":"planned","technology":"Batteries","mw":100.6,"generators":2,"year":2028},"geometry":{"type":"Point","coordinates":[-96.7796,31.6434]}},
{"type":"Feature","properties":{"name":"Braswell Solar","entity":"Gransolar Texas Nine LLC","county":"McLennan","phase":"planned","technology":"Solar Photovoltaic","mw":44.2,"generators":1,"year":2028},"geometry":{"type":"Point","coordinates":[-97.2179,31.349]}},
{"type":"Feature","properties":{"name":"RedSun PV and BESS","entity":"Gransolar Texas Twenty Two LLC","county":"Burnet","phase":"planned","technology":"Batteries","mw":168.0,"generators":2,"year":2028},"geometry":{"type":"Point","coordinates":[-98.2022,30.7849]}},
{"type":"Feature","properties":{"name":"Sandow Lakes Energy Station","entity":"SL Energy Power Plant I, LLC","county":"Lee","phase":"planned","technology":"Natural Gas Fired Combined Cycle","mw":1290.0,"generators":2,"year":2028},"geometry":{"type":"Point","coordinates":[-97.1912,30.4194]}},
{"type":"Feature","properties":{"name":"Pecan BESS","entity":"Gransolar Texas Three, LLC","county":"Leon","phase":"planned","technology":"Batteries","mw":157.1,"generators":1,"year":2028},"geometry":{"type":"Point","coordinates":[-96.2233,31.0787]}},
{"type":"Feature","properties":{"name":"Kahla Storage","entity":"Belltown Power Texas 2, LLC","county":"Leon","phase":"planned","technology":"Batteries","mw":200.9,"generators":1,"year":2028},"geometry":{"type":"Point","coordinates":[-96.2607,31.3257]}},
{"type":"Feature","properties":{"name":"Prost ESS","entity":"Prost ESS LLC","county":"Austin","phase":"planned","technology":"Batteries","mw":200.0,"generators":1,"year":2029},"geometry":{"type":"Point","coordinates":[-96.5333,29.9578]}},
{"type":"Feature","properties":{"name":"Metro BESS","entity":"Metro BESS LLC","county":"Caldwell","phase":"planned","technology":"Batteries","mw":200.0,"generators":1,"year":2030},"geometry":{"type":"Point","coordinates":[-97.6779,30.0032]}},
{"type":"Feature","properties":{"name":"Rush ESS","entity":"Rush ESS LLC","county":"Bexar","phase":"planned","technology":"Batteries","mw":200.0,"generators":1,"year":2031},"geometry":{"type":"Point","coordinates":[-98.2967,29.3076]}}
]
}
