{
"type": "FeatureCollection",
"name": "SELECT",
"xy_coordinate_resolution": 0.0001,
"features": [
{"type":"Feature","properties":{"system":"NEW BRAUNFELS UTILITIES","waterbody":"GUADALUPE RIVER","intake":" "},"geometry":{"type":"Point","coordinates":[-98.1138,29.7173]}},
{"type":"Feature","properties":{"system":"CLWSC CANYON LAKE SHORES","waterbody":"CANYON LAKE","intake":"INTAKE 1"},"geometry":{"type":"Point","coordinates":[-98.286,29.9042]}},
{"type":"Feature","properties":{"system":"SJWTX TRIPLE PEAK PLANT","waterbody":"CANYON LAKE","intake":" "},"geometry":{"type":"Point","coordinates":[-98.2115,29.8514]}},
{"type":"Feature","properties":{"system":"GBRA WESTERN CANYON WATER SUPPLY","waterbody":"CANYON LAKE","intake":" "},"geometry":{"type":"Point","coordinates":[-98.2448,29.8677]}},
{"type":"Feature","properties":{"system":"CITY OF MARLIN","waterbody":"MARLIN NEW CITY LAKE","intake":"INTAKE 2"},"geometry":{"type":"Point","coordinates":[-96.8574,31.3356]}},
{"type":"Feature","properties":{"system":"CITY OF GONZALES","waterbody":"GUADALUPE RIVER","intake":" "},"geometry":{"type":"Point","coordinates":[-97.4551,29.4973]}},
{"type":"Feature","properties":{"system":"CITY OF GONZALES","waterbody":"GUADALUPE RIVER","intake":" "},"geometry":{"type":"Point","coordinates":[-97.4552,29.4975]}},
{"type":"Feature","properties":{"system":"CITY OF SEGUIN","waterbody":"GUADALUPE RIVER","intake":"INTAKE 1"},"geometry":{"type":"Point","coordinates":[-97.9707,29.5517]}},
{"type":"Feature","properties":{"system":"CITY OF SEGUIN","waterbody":"GUADALUPE RIVER","intake":"INTAKE 2"},"geometry":{"type":"Point","coordinates":[-97.9707,29.5517]}},
{"type":"Feature","properties":{"system":"SPRINGS HILL WSC","waterbody":"LAKE PLACID","intake":"INTAKE 1"},"geometry":{"type":"Point","coordinates":[-97.9999,29.548]}},
{"type":"Feature","properties":{"system":"CRWA LAKE DUNLAP WTP","waterbody":"LAKE DUNLAP","intake":"INTAKE 1"},"geometry":{"type":"Point","coordinates":[-98.067,29.6537]}},
{"type":"Feature","properties":{"system":"CRWA LAKE DUNLAP WTP","waterbody":"LAKE DUNLAP","intake":" "},"geometry":{"type":"Point","coordinates":[-98.0668,29.6542]}},
{"type":"Feature","properties":{"system":"CITY OF SAN MARCOS","waterbody":"LAKE DUNLAP","intake":" "},"geometry":{"type":"Point","coordinates":[-98.0642,29.6552]}},
{"type":"Feature","properties":{"system":"CITY OF GATESVILLE","waterbody":"BELTON LAKE","intake":" "},"geometry":{"type":"Point","coordinates":[-97.506,31.1618]}},
{"type":"Feature","properties":{"system":"TEXAS RAIN","waterbody":"RAINWATER","intake":" "},"geometry":{"type":"Point","coordinates":[-97.187,30.05]}},
{"type":"Feature","properties":{"system":"CITY OF TEMPLE","waterbody":"LEON RIVER","intake":"INTAKE 1"},"geometry":{"type":"Point","coordinates":[-97.4415,31.0699]}},
{"type":"Feature","properties":{"system":"BELL COUNTY WCID 1","waterbody":"BELTON LAKE","intake":"INTAKE 1 - LK BELTON"},"geometry":{"type":"Point","coordinates":[-97.5164,31.1271]}},
{"type":"Feature","properties":{"system":"CENTRAL TEXAS WSC","waterbody":"STILLHOUSE HOLLOW LAKE","intake":"INTAKE 1"},"geometry":{"type":"Point","coordinates":[-97.6464,31.0177]}},
{"type":"Feature","properties":{"system":"CENTRAL TEXAS WSC","waterbody":"STILLHOUSE HOLLOW LAKE","intake":"INTAKE 2 - STILLHOUSE HOLLOW RES"},"geometry":{"type":"Point","coordinates":[-97.5444,31.0111]}},
{"type":"Feature","properties":{"system":"BLUEBONNET WSC","waterbody":"BELTON LAKE","intake":"INTAKE 1"},"geometry":{"type":"Point","coordinates":[-97.4713,31.1829]}},
{"type":"Feature","properties":{"system":"CITY OF BLANCO","waterbody":"BLANCO RIVER","intake":"INTAKE 1"},"geometry":{"type":"Point","coordinates":[-98.431,30.093]}},
{"type":"Feature","properties":{"system":"TPWD PEDERNALES FALLS STATE PARK","waterbody":"PEDERNALES RIVER","intake":"INTAKE 1"},"geometry":{"type":"Point","coordinates":[-98.2456,30.3308]}},
{"type":"Feature","properties":{"system":"CITY OF BURNET","waterbody":"INKS LAKE","intake":"INTAKE 1"},"geometry":{"type":"Point","coordinates":[-98.3701,30.7462]}},
{"type":"Feature","properties":{"system":"BUENA VISTA WS BURNET","waterbody":"INKS LAKE","intake":"INTAKE 1"},"geometry":{"type":"Point","coordinates":[-98.3842,30.7484]}},
{"type":"Feature","properties":{"system":"CITY OF COTTONWOOD SHORES","waterbody":"LAKE LYNDON B JOHNSON","intake":"INTAKE 1 - LK LBJ"},"geometry":{"type":"Point","coordinates":[-98.3375,30.5499]}},
{"type":"Feature","properties":{"system":"CITY OF COTTONWOOD SHORES","waterbody":"COTTONWOOD SHORES RESERVOIR","intake":"INTAKE 2 - ROCK QUARRY RESERVOIR"},"geometry":{"type":"Point","coordinates":[-98.3355,30.5459]}},
{"type":"Feature","properties":{"system":"CITY OF MARBLE FALLS","waterbody":"LAKE MARBLE FALLS","intake":" "},"geometry":{"type":"Point","coordinates":[-98.2819,30.5642]}},
{"type":"Feature","properties":{"system":"WINDERMERE OAKS WSC","waterbody":"LAKE TRAVIS","intake":"INTAKE 1"},"geometry":{"type":"Point","coordinates":[-98.1226,30.4852]}},
{"type":"Feature","properties":{"system":"CITY OF MEADOWLAKES","waterbody":"LAKE MARBLE FALLS","intake":"INTAKE 1"},"geometry":{"type":"Point","coordinates":[-98.3006,30.5565]}},
{"type":"Feature","properties":{"system":"SMITHWICK MILLS COMMUNITY","waterbody":"LAKE TRAVIS","intake":" "},"geometry":{"type":"Point","coordinates":[-98.1671,30.5404]}},
{"type":"Feature","properties":{"system":"CITY OF GRANITE SHOALS","waterbody":"LAKE LYNDON B JOHNSON","intake":" "},"geometry":{"type":"Point","coordinates":[-98.3989,30.5895]}},
{"type":"Feature","properties":{"system":"RIDGE HARBOR","waterbody":"LAKE TRAVIS","intake":" "},"geometry":{"type":"Point","coordinates":[-98.1112,30.4908]}},
{"type":"Feature","properties":{"system":"GBRA LULING PLANT","waterbody":"SAN MARCOS RIVER","intake":"INTAKE 1 - WET WELL"},"geometry":{"type":"Point","coordinates":[-97.6543,29.6669]}},
{"type":"Feature","properties":{"system":"CRWA HAYS CALDWELL WTP","waterbody":"SAN MARCOS RIVER","intake":" "},"geometry":{"type":"Point","coordinates":[-97.8841,29.8626]}},
{"type":"Feature","properties":{"system":"CITY OF AUSTIN WATER & WASTEWATER","waterbody":"LAKE AUSTIN","intake":"INTAKE - DAVIS WTP"},"geometry":{"type":"Point","coordinates":[-97.7752,30.3147]}},
{"type":"Feature","properties":{"system":"CITY OF AUSTIN WATER & WASTEWATER","waterbody":"LAKE AUSTIN","intake":"INTAKE - ULLRICH WTP"},"geometry":{"type":"Point","coordinates":[-97.7878,30.2965]}},
{"type":"Feature","properties":{"system":"VILLAGE OF BRIARCLIFF","waterbody":"LAKE TRAVIS","intake":" "},"geometry":{"type":"Point","coordinates":[-98.0412,30.4182]}},
{"type":"Feature","properties":{"system":"JONESTOWN WSC","waterbody":"LAKE TRAVIS","intake":"INTAKE 1 - BARGE"},"geometry":{"type":"Point","coordinates":[-97.9195,30.4639]}},
{"type":"Feature","properties":{"system":"LAKEWAY MUD","waterbody":"LAKE TRAVIS","intake":"INTAKE 2"},"geometry":{"type":"Point","coordinates":[-98.0046,30.3713]}},
{"type":"Feature","properties":{"system":"LAKEWAY MUD","waterbody":"LAKE TRAVIS","intake":" "},"geometry":{"type":"Point","coordinates":[-98.0044,30.3714]}},
{"type":"Feature","properties":{"system":"CITY OF PFLUGERVILLE","waterbody":"LAKE PFLUGERVILLE","intake":" "},"geometry":{"type":"Point","coordinates":[-97.5691,30.4387]}},
{"type":"Feature","properties":{"system":"TRAVIS COUNTY WCID 17","waterbody":"LAKE TRAVIS","intake":" "},"geometry":{"type":"Point","coordinates":[-97.9335,30.4007]}},
{"type":"Feature","properties":{"system":"TRAVIS COUNTY WCID POINT VENTURE","waterbody":"LAKE TRAVIS","intake":" "},"geometry":{"type":"Point","coordinates":[-97.9948,30.378]}},
{"type":"Feature","properties":{"system":"OAK SHORES WATER SYSTEM","waterbody":"LAKE AUSTIN","intake":" "},"geometry":{"type":"Point","coordinates":[-97.8138,30.3434]}},
{"type":"Feature","properties":{"system":"TRAVIS COUNTY WCID 18","waterbody":"LAKE AUSTIN","intake":"INTAKE 1"},"geometry":{"type":"Point","coordinates":[-97.857,30.3539]}},
{"type":"Feature","properties":{"system":"CITY OF LAGO VISTA","waterbody":"LAKE TRAVIS","intake":"INTAKE 1"},"geometry":{"type":"Point","coordinates":[-98.0,30.4533]}},
{"type":"Feature","properties":{"system":"CITY OF LAGO VISTA","waterbody":"LAKE TRAVIS","intake":"INTAKE - MARSHALL PT RD"},"geometry":{"type":"Point","coordinates":[-97.9482,30.4404]}},
{"type":"Feature","properties":{"system":"INVERNESS POINT WATER SYSTEM","waterbody":"LAKE TRAVIS","intake":" "},"geometry":{"type":"Point","coordinates":[-98.0199,30.37]}},
{"type":"Feature","properties":{"system":"SAIL HAVEN","waterbody":"LAKE TRAVIS","intake":"INTAKE 1"},"geometry":{"type":"Point","coordinates":[-97.8944,30.4265]}},
{"type":"Feature","properties":{"system":"EMMA LONG METRO PARK","waterbody":"LAKE AUSTIN","intake":"INTAKE 1 - LK AUSTIN AT WTP"},"geometry":{"type":"Point","coordinates":[-97.8441,30.334]}},
{"type":"Feature","properties":{"system":"HURST CREEK MUD","waterbody":"LAKE TRAVIS","intake":"INTAKE 2 - 0.5 MI DOWNSTRM"},"geometry":{"type":"Point","coordinates":[-98.0044,30.3714]}},
{"type":"Feature","properties":{"system":"TRAVIS COUNTY WCID 20","waterbody":"LAKE AUSTIN","intake":"INTAKE 1"},"geometry":{"type":"Point","coordinates":[-97.8449,30.3288]}},
{"type":"Feature","properties":{"system":"WEST TRAVIS COUNTY PUBLIC UTILITY","waterbody":"LAKE AUSTIN","intake":"INTAKE 1"},"geometry":{"type":"Point","coordinates":[-97.9197,30.325]}},
{"type":"Feature","properties":{"system":"LOOP 360 WSC","waterbody":"LAKE AUSTIN","intake":"INTAKE 1"},"geometry":{"type":"Point","coordinates":[-97.794,30.3462]}},
{"type":"Feature","properties":{"system":"TRAVIS COUNTY MUD 4","waterbody":"LAKE AUSTIN","intake":"INTAKE 1 - RIVER RD"},"geometry":{"type":"Point","coordinates":[-97.8449,30.3325]}},
{"type":"Feature","properties":{"system":"HILL COUNTRY SPRINGS","waterbody":"SPRING NORTH OF SLAUGHTER CREEK","intake":"INTAKE 1"},"geometry":{"type":"Point","coordinates":[-97.7896,30.154]}},
{"type":"Feature","properties":{"system":"TRAVIS COUNTY MUD 10","waterbody":"LAKE TRAVIS","intake":"INTAKE 1 - LK TRAVIS"},"geometry":{"type":"Point","coordinates":[-97.9827,30.4018]}},
{"type":"Feature","properties":{"system":"CITY OF BRENHAM","waterbody":"SOMERVILLE LAKE","intake":"INTAKE 1"},"geometry":{"type":"Point","coordinates":[-96.5243,30.3185]}},
{"type":"Feature","properties":{"system":"CITY OF GEORGETOWN","waterbody":"LAKE GEORGETOWN","intake":"INTAKE 1 - LK GEORGETOWN"},"geometry":{"type":"Point","coordinates":[-97.7256,30.6722]}},
{"type":"Feature","properties":{"system":"CITY OF ROUND ROCK","waterbody":"LAKE GEORGETOWN","intake":"INTAKE 1"},"geometry":{"type":"Point","coordinates":[-97.729,30.6695]}},
{"type":"Feature","properties":{"system":"CITY OF CEDAR PARK","waterbody":"LAKE TRAVIS","intake":"INTAKE 1"},"geometry":{"type":"Point","coordinates":[-97.9087,30.467]}},
{"type":"Feature","properties":{"system":"CITY OF LEANDER","waterbody":"LAKE TRAVIS","intake":" "},"geometry":{"type":"Point","coordinates":[-97.9083,30.4663]}},
{"type":"Feature","properties":{"system":"BRUSHY CREEK MUD","waterbody":"LAKE GEORGETOWN","intake":" "},"geometry":{"type":"Point","coordinates":[-97.7293,30.6698]}},
{"type":"Feature","properties":{"system":"BRUSHY CREEK REGIONAL UTILITY AUTH","waterbody":"LAKE TRAVIS","intake":" "},"geometry":{"type":"Point","coordinates":[-97.9084,30.4661]}},
{"type":"Feature","properties":{"system":"CITY OF BOERNE","waterbody":"BOERNE LAKE","intake":"INTAKE 1 - BOERNE CITY LK"},"geometry":{"type":"Point","coordinates":[-98.7685,29.8204]}},
{"type":"Feature","properties":{"system":"TPWD GUADALUPE RIVER STATE PARK","waterbody":"GUADALUPE RIVER","intake":" "},"geometry":{"type":"Point","coordinates":[-98.487,29.8758]}},
{"type":"Feature","properties":{"system":"LOMETA REGIONAL WATER SYSTEM","waterbody":"COLORADO RIVER","intake":" "},"geometry":{"type":"Point","coordinates":[-98.5664,31.2127]}},
{"type":"Feature","properties":{"system":"LOMETA REGIONAL WATER SYSTEM","waterbody":"Santa Fe Lake","intake":" "},"geometry":{"type":"Point","coordinates":[-98.4192,31.2277]}},
{"type":"Feature","properties":{"system":"KEMPNER WSC","waterbody":"STILLHOUSE HOLLOW LAKE","intake":" "},"geometry":{"type":"Point","coordinates":[-97.6269,31.0106]}},
{"type":"Feature","properties":{"system":"CITY OF GROESBECK","waterbody":"NAVASOTA RIVER","intake":"INTAKE 1"},"geometry":{"type":"Point","coordinates":[-96.5209,31.5744]}},
{"type":"Feature","properties":{"system":"SLC WSC","waterbody":"LAKE LIMESTONE","intake":"INTAKE 1 -  W SIDE OF DAM / FM 3371"},"geometry":{"type":"Point","coordinates":[-96.3812,31.4375]}},
{"type":"Feature","properties":{"system":"CITY OF LLANO","waterbody":"LLANO CITY LAKE","intake":"INTAKE 1"},"geometry":{"type":"Point","coordinates":[-98.6767,30.7521]}},
{"type":"Feature","properties":{"system":"LLANO COUNTY MUD 1","waterbody":"LAKE LYNDON B JOHNSON","intake":"INTAKE 1"},"geometry":{"type":"Point","coordinates":[-98.4105,30.5689]}},
{"type":"Feature","properties":{"system":"PARADISE POINT SUBDIVISION","waterbody":"LAKE BUCHANAN","intake":"INTAKE 1"},"geometry":{"type":"Point","coordinates":[-98.4334,30.8566]}},
{"type":"Feature","properties":{"system":"KINGSLAND WSC","waterbody":"LAKE LYNDON B JOHNSON","intake":"INTAKE 1"},"geometry":{"type":"Point","coordinates":[-98.4419,30.6486]}},
{"type":"Feature","properties":{"system":"CITY OF HORSESHOE BAY","waterbody":"LAKE LYNDON B JOHNSON","intake":"INTAKE 1"},"geometry":{"type":"Point","coordinates":[-98.3501,30.5482]}},
{"type":"Feature","properties":{"system":"CITY OF HORSESHOE BAY","waterbody":"LAKE LYNDON B JOHNSON","intake":"INTAKE 2 - WEST"},"geometry":{"type":"Point","coordinates":[-98.3995,30.5585]}},
{"type":"Feature","properties":{"system":"LAKE BUCHANAN","waterbody":"LAKE BUCHANAN","intake":"INTAKE 1"},"geometry":{"type":"Point","coordinates":[-98.4185,30.7513]}},
{"type":"Feature","properties":{"system":"CAMP LONGHORN MAIN CAMP","waterbody":"INKS LAKE","intake":" "},"geometry":{"type":"Point","coordinates":[-98.376,30.7395]}},
{"type":"Feature","properties":{"system":"CITY OF MART","waterbody":"NEW LAKE MART","intake":"INTAKE 1"},"geometry":{"type":"Point","coordinates":[-96.9305,31.5717]}},
{"type":"Feature","properties":{"system":"CITY OF WACO","waterbody":"LAKE WACO","intake":"INTAKE 1 - LK WACO"},"geometry":{"type":"Point","coordinates":[-97.1977,31.5797]}},
{"type":"Feature","properties":{"system":"CITY OF ROBINSON","waterbody":"BRAZOS RIVER","intake":"INTAKE 1 - BRAZOS RIVER BANK"},"geometry":{"type":"Point","coordinates":[-97.0698,31.5216]}},
{"type":"Feature","properties":{"system":"CITY OF ROBINSON","waterbody":"ROBINSON RESERVOIR","intake":"INTAKE 2 - E OFF CHANNEL RESERVOIR"},"geometry":{"type":"Point","coordinates":[-97.0926,31.5034]}},
{"type":"Feature","properties":{"system":"CITY OF CRAWFORD","waterbody":"LIMESTONE QUARRY LAKE","intake":" "},"geometry":{"type":"Point","coordinates":[-97.4266,31.5346]}},
{"type":"Feature","properties":{"system":"CITY OF CRAWFORD","waterbody":"TONK CREEK","intake":"INTAKE 2"},"geometry":{"type":"Point","coordinates":[-97.4272,31.5339]}},
{"type":"Feature","properties":{"system":"CITY OF CAMERON","waterbody":"LITTLE RIVER","intake":"INTAKE 1"},"geometry":{"type":"Point","coordinates":[-96.9651,30.8402]}},
{"type":"Feature","properties":{"system":"CITY OF GOLDTHWAITE","waterbody":"COLORADO RIVER","intake":" "},"geometry":{"type":"Point","coordinates":[-98.6501,31.3674]}},
{"type":"Feature","properties":{"system":"CITY OF GOLDTHWAITE","waterbody":"GOLDTHWAITE RESERVOIR SOUTH","intake":" "},"geometry":{"type":"Point","coordinates":[-98.6435,31.3727]}},
{"type":"Feature","properties":{"system":"CITY OF GOLDTHWAITE","waterbody":"GOLDTHWAITE RESERVOIR NORTH","intake":" "},"geometry":{"type":"Point","coordinates":[-98.6053,31.433]}},
{"type":"Feature","properties":{"system":"NEW HORIZONS RANCH & CENTER","waterbody":"NEW HORIZONS RANCH LAKE","intake":"INTAKE 1"},"geometry":{"type":"Point","coordinates":[-98.7123,31.4607]}}
]
}
