{
"type": "FeatureCollection",
"name": "SELECT",
"xy_coordinate_resolution": 0.0001,
"features": [
{"type":"Feature","properties":{"name":"Region C\r\n"},"geometry":{"type":"Polygon","coordinates":[[[-96.2,31.7],[-96.4313,31.7],[-96.2365,31.4134],[-96.2,31.4302],[-96.2,31.7]]]}},
{"type":"Feature","properties":{"name":"Region F\r\n"},"geometry":{"type":"MultiPolygon","coordinates":[[[[-99.0,30.9216],[-99.0,30.4984],[-98.9641,30.4986],[-98.9645,30.614],[-98.9633,30.769],[-98.9646,30.9215],[-99.0,30.9216]]],[[[-99.0,31.7],[-99.0,31.4807],[-98.9978,31.4811],[-98.9932,31.4834],[-98.993,31.4848],[-98.9452,31.511],[-98.7803,31.6104],[-98.76,31.6879],[-98.6747,31.7],[-99.0,31.7]]]]}},
{"type":"Feature","properties":{"name":"Brazos G\r\n"},"geometry":{"type":"Polygon","coordinates":[[[-96.4313,31.7],[-98.4754,31.7],[-98.4191,31.6235],[-98.3523,31.529],[-98.2668,31.4105],[-98.5627,31.2305],[-98.5636,31.2208],[-98.5675,31.2118],[-98.5696,31.2045],[-98.5688,31.1984],[-98.5596,31.193],[-98.5569,31.1921],[-98.5529,31.1921],[-98.5439,31.1947],[-98.5418,31.1943],[-98.5394,31.1925],[-98.5378,31.1892],[-98.5357,31.1876],[-98.5355,31.186],[-98.5444,31.1795],[-98.5445,31.1771],[-98.543,31.1749],[-98.5299,31.1735],[-98.5196,31.1649],[-98.5142,31.1648],[-98.506,31.1673],[-98.5048,31.1669],[-98.5039,31.1654],[-98.504,31.1632],[-98.5049,31.1617],[-98.5113,31.1551],[-98.5169,31.1545],[-98.5255,31.1561],[-98.5281,31.155],[-98.5294,31.1523],[-98.5271,31.1421],[-98.5278,31.1375],[-98.53,31.1356],[-98.5368,31.1325],[-98.5469,31.1294],[-98.548,31.1277],[-98.5485,31.1245],[-98.5473,31.1226],[-98.5383,31.1138],[-98.5366,31.1099],[-98.5308,31.1026],[-98.5296,31.095],[-98.5272,31.0907],[-98.5236,31.0888],[-98.5183,31.0927],[-98.5159,31.0965],[-98.5123,31.106],[-98.5054,31.1087],[-98.5008,31.1174],[-98.4989,31.1185],[-98.4938,31.1184],[-98.4902,31.1147],[-98.4879,31.114],[-98.486,31.115],[-98.4829,31.1186],[-98.4807,31.119],[-98.4741,31.1097],[-98.4715,31.1074],[-98.4692,31.1067],[-98.4655,31.1078],[-98.4598,31.112],[-98.4564,31.1118],[-98.4554,31.1099],[-98.456,31.1069],[-98.4618,31.1012],[-98.4697,31.0963],[-98.4706,31.0947],[-98.4701,31.0932],[-98.4686,31.0921],[-98.4615,31.0904],[-98.4579,31.0887],[-98.4563,31.0846],[-98.4563,31.079],[-98.4586,31.0772],[-98.462,31.0761],[-98.4692,31.0769],[-98.4726,31.0764],[-98.4762,31.0706],[-98.4835,31.068],[-98.4842,31.0666],[-98.4841,31.063],[-98.4827,31.0597],[-98.4749,31.0528],[-98.4645,31.0476],[-98.4531,31.0444],[-98.4476,31.0414],[-98.4449,31.0386],[-98.4398,31.0296],[-98.1495,31.0321],[-97.9116,31.035],[-97.8863,31.0013],[-97.8749,30.9825],[-97.8285,30.9108],[-97.8657,30.8751],[-97.862,30.8751],[-97.9629,30.7856],[-98.0499,30.6239],[-98.0402,30.618],[-98.0395,30.6183],[-98.0365,30.6116],[-98.0296,30.6145],[-98.0126,30.6173],[-98.0063,30.6275],[-98.0019,30.6213],[-97.9979,30.6127],[-97.9922,30.6093],[-97.9778,30.622],[-97.9664,30.6236],[-97.9569,30.628],[-97.9519,30.6252],[-97.9348,30.6101],[-97.917,30.6048],[-97.9218,30.5908],[-97.9205,30.5868],[-97.9152,30.5805],[-97.927,30.5675],[-97.9219,30.5642],[-97.9024,30.5712],[-97.8959,30.5646],[-97.8929,30.565],[-97.8914,30.5664],[-97.8887,30.5652],[-97.8876,30.5566],[-97.8834,30.5529],[-97.8822,30.5538],[-97.8678,30.5465],[-97.8714,30.5227],[-97.8672,30.5174],[-97.8598,30.5124],[-97.8558,30.5075],[-97.8561,30.5028],[-97.8622,30.4973],[-97.8458,30.4756],[-97.8465,30.4734],[-97.8267,30.4575],[-97.8262,30.4558],[-97.8203,30.4608],[-97.8107,30.464],[-97.815,30.4749],[-97.8029,30.4792],[-97.8052,30.4822],[-97.8083,30.4892],[-97.8049,30.4953],[-97.8015,30.4961],[-97.7978,30.4983],[-97.7954,30.5027],[-97.7902,30.5049],[-97.7853,30.505],[-97.7762,30.5036],[-97.7723,30.5048],[-97.7692,30.5047],[-97.766,30.5069],[-97.767,30.5078],[-97.7578,30.5098],[-97.7555,30.5131],[-97.7481,30.5173],[-97.742,30.5018],[-97.7494,30.5],[-97.743,30.4846],[-97.7395,30.4856],[-97.738,30.4837],[-97.7353,30.4843],[-97.7326,30.4858],[-97.7304,30.4882],[-97.7295,30.4839],[-97.7189,30.4863],[-97.7222,30.4989],[-97.7161,30.5075],[-97.7155,30.5025],[-97.7063,30.4791],[-97.6919,30.4781],[-97.6882,30.4788],[-97.687,30.4759],[-97.6858,30.4771],[-97.6839,30.4762],[-97.6828,30.4792],[-97.674,30.4799],[-97.67,30.4785],[-97.6641,30.4817],[-97.6516,30.4747],[-97.6435,30.478],[-97.6431,30.4798],[-97.6413,30.482],[-97.6277,30.4854],[-97.6186,30.4903],[-97.6172,30.4891],[-97.6068,30.4902],[-97.6061,30.495],[-97.6015,30.4987],[-97.5961,30.5014],[-97.593,30.5004],[-97.5913,30.5009],[-97.5908,30.497],[-97.5806,30.5007],[-97.5791,30.4999],[-97.5768,30.5009],[-97.5746,30.5],[-97.5714,30.5002],[-97.5688,30.4992],[-97.5689,30.4961],[-97.5639,30.4955],[-97.5631,30.4916],[-97.5527,30.4901],[-97.5493,30.4808],[-97.55,30.4764],[-97.5466,30.4747],[-97.5431,30.4791],[-97.5271,30.475],[-97.5239,30.4724],[-97.5222,30.4763],[-97.5108,30.4849],[-97.5049,30.4808],[-97.5025,30.4801],[-97.5013,30.4774],[-97.4886,30.4732],[-97.4858,30.4692],[-97.4797,30.4699],[-97.4762,30.4687],[-97.4752,30.4668],[-97.4711,30.4664],[-97.4672,30.4648],[-97.4638,30.4597],[-97.4595,30.4575],[-97.4535,30.4605],[-97.4455,30.4607],[-97.4447,30.4554],[-97.4414,30.4547],[-97.439,30.4595],[-97.4369,30.46],[-97.4337,30.4589],[-97.4335,30.4527],[-97.4274,30.4521],[-97.4225,30.4446],[-97.4155,30.4381],[-97.4088,30.4381],[-97.4064,30.4421],[-97.4044,30.4402],[-97.3956,30.4377],[-97.3931,30.4389],[-97.3916,30.4369],[-97.3926,30.4346],[-97.3877,30.4335],[-97.3872,30.43],[-97.3844,30.4281],[-97.3832,30.4261],[-97.3834,30.4243],[-97.3795,30.4242],[-97.378,30.4218],[-97.3774,30.4188],[-97.3731,30.4174],[-97.3699,30.4195],[-97.3687,30.4193],[-97.1995,30.3378],[-97.0817,30.2592],[-97.0191,30.032],[-96.8458,30.116],[-96.7944,30.1606],[-96.7805,30.1521],[-96.7729,30.1495],[-96.7668,30.1387],[-96.7355,30.1474],[-96.715,30.145],[-96.7021,30.1577],[-96.6872,30.1645],[-96.6834,30.1511],[-96.6619,30.149],[-96.647,30.1451],[-96.6531,30.13],[-96.6405,30.1203],[-96.6337,30.1062],[-96.6324,30.0841],[-96.6342,30.0756],[-96.6307,30.0702],[-96.6239,30.0667],[-96.6221,30.0442],[-96.594,30.0711],[-96.59,30.0689],[-96.5861,30.0648],[-96.5188,30.0652],[-96.2885,30.0968],[-96.2856,30.0963],[-96.283,30.0938],[-96.2815,30.0934],[-96.2798,30.0942],[-96.2762,30.0925],[-96.2736,30.094],[-96.2712,30.0941],[-96.2693,30.0912],[-96.27,30.0898],[-96.2687,30.0876],[-96.2685,30.0855],[-96.2676,30.085],[-96.2678,30.0832],[-96.2644,30.0815],[-96.264,30.0783],[-96.2608,30.078],[-96.2595,30.0757],[-96.2561,30.0759],[-96.2542,30.0746],[-96.2541,30.0757],[-96.2529,30.0758],[-96.2511,30.0741],[-96.2474,30.0753],[-96.2454,30.0742],[-96.2444,30.0748],[-96.2428,30.0744],[-96.2396,30.0766],[-96.2288,30.0757],[-96.2255,30.0738],[-96.2248,30.0723],[-96.2198,30.0726],[-96.2185,30.0717],[-96.2187,30.0708],[-96.2142,30.0693],[-96.214,30.0664],[-96.2126,30.0657],[-96.2096,30.0623],[-96.2086,30.063],[-96.2084,30.0654],[-96.2067,30.0669],[-96.2007,30.0666],[-96.2,30.0662],[-96.2,30.8855],[-96.2002,30.8853],[-96.2009,30.8869],[-96.2004,30.8883],[-96.2,30.8883],[-96.2,30.8892],[-96.2004,30.8893],[-96.2,30.8899],[-96.2,30.8909],[-96.2014,30.8908],[-96.201,30.8927],[-96.2025,30.8922],[-96.2042,30.8964],[-96.2029,30.8973],[-96.2043,30.8978],[-96.2033,30.8994],[-96.2036,30.9013],[-96.2048,30.9006],[-96.2065,30.9006],[-96.2067,30.9022],[-96.2096,30.903],[-96.2103,30.9044],[-96.2127,30.9047],[-96.2117,30.9106],[-96.2134,30.9113],[-96.2119,30.9137],[-96.2106,30.9142],[-96.21,30.9173],[-96.2079,30.9171],[-96.2064,30.9182],[-96.2067,30.9194],[-96.2086,30.9206],[-96.2061,30.9207],[-96.2071,30.922],[-96.2068,30.9239],[-96.2047,30.9237],[-96.2046,30.9251],[-96.2038,30.9242],[-96.2032,30.9253],[-96.2012,30.9259],[-96.2045,30.9281],[-96.2034,30.9286],[-96.2032,30.9331],[-96.2022,30.9329],[-96.2002,30.9304],[-96.2,30.9306],[-96.2,30.933],[-96.2009,30.9332],[-96.2017,30.938],[-96.2062,30.9405],[-96.2061,30.9421],[-96.2077,30.9441],[-96.2067,30.9451],[-96.2077,30.9474],[-96.2086,30.9477],[-96.209,30.9467],[-96.2111,30.9473],[-96.2121,30.9494],[-96.2159,30.9496],[-96.2167,30.9506],[-96.2185,30.9502],[-96.2195,30.9511],[-96.2194,30.9522],[-96.2235,30.951],[-96.2276,30.9516],[-96.2288,30.9533],[-96.2329,30.9556],[-96.2342,30.9592],[-96.237,30.9595],[-96.2383,30.9607],[-96.2375,30.963],[-96.2398,30.964],[-96.2401,30.9655],[-96.2383,30.9667],[-96.2374,30.9695],[-96.2403,30.9717],[-96.2424,30.9774],[-96.2401,30.9773],[-96.2403,30.9791],[-96.2416,30.9791],[-96.2401,30.9819],[-96.2408,30.9828],[-96.2395,30.9832],[-96.2402,30.9845],[-96.2394,30.9853],[-96.2376,30.9856],[-96.2396,30.9884],[-96.2394,30.9897],[-96.2379,30.9894],[-96.2383,30.9941],[-96.2375,30.9945],[-96.2367,30.9935],[-96.2361,30.9937],[-96.235,30.9956],[-96.2384,30.9979],[-96.2425,30.9982],[-96.2443,30.9998],[-96.2462,30.9982],[-96.246,31.0011],[-96.2467,31.0031],[-96.2457,31.0051],[-96.2467,31.006],[-96.2477,31.006],[-96.248,31.0049],[-96.2498,31.0057],[-96.2516,31.0054],[-96.2543,31.0066],[-96.2567,31.0064],[-96.2586,31.0077],[-96.2596,31.0062],[-96.2604,31.0068],[-96.2601,31.0151],[-96.2581,31.0157],[-96.2581,31.0197],[-96.2568,31.0213],[-96.2582,31.0232],[-96.2559,31.0239],[-96.2553,31.0282],[-96.2539,31.0278],[-96.2525,31.0298],[-96.2528,31.0312],[-96.251,31.0328],[-96.2496,31.0324],[-96.2487,31.0334],[-96.2487,31.035],[-96.2473,31.0371],[-96.2495,31.0376],[-96.2481,31.0387],[-96.2489,31.0396],[-96.2482,31.0413],[-96.2471,31.0413],[-96.2471,31.0434],[-96.2436,31.045],[-96.2432,31.044],[-96.2416,31.0446],[-96.2415,31.0475],[-96.2401,31.0475],[-96.2403,31.0488],[-96.2433,31.0497],[-96.2462,31.0515],[-96.2451,31.0527],[-96.2452,31.0538],[-96.2432,31.0545],[-96.2441,31.0565],[-96.2414,31.057],[-96.2441,31.0597],[-96.2432,31.0616],[-96.2467,31.0625],[-96.2461,31.0611],[-96.2478,31.0607],[-96.2493,31.0634],[-96.2507,31.0636],[-96.2515,31.0652],[-96.2524,31.0652],[-96.2531,31.0642],[-96.2529,31.0665],[-96.2554,31.0657],[-96.2553,31.0678],[-96.257,31.0693],[-96.2546,31.0722],[-96.2525,31.072],[-96.2528,31.0731],[-96.2545,31.0741],[-96.2564,31.0743],[-96.2579,31.076],[-96.2606,31.0772],[-96.2611,31.0765],[-96.2608,31.0749],[-96.2616,31.0757],[-96.2619,31.0778],[-96.2628,31.0767],[-96.2663,31.079],[-96.2671,31.0788],[-96.267,31.078],[-96.269,31.078],[-96.2709,31.0809],[-96.2721,31.0813],[-96.2712,31.0821],[-96.2722,31.0847],[-96.2747,31.0866],[-96.2757,31.0864],[-96.2774,31.0882],[-96.2779,31.0903],[-96.2774,31.0923],[-96.28,31.0943],[-96.2805,31.096],[-96.2793,31.0976],[-96.2796,31.1008],[-96.2781,31.1035],[-96.2793,31.1037],[-96.278,31.1056],[-96.2787,31.106],[-96.2783,31.1083],[-96.279,31.1086],[-96.278,31.1099],[-96.277,31.11],[-96.2768,31.112],[-96.2784,31.1139],[-96.2769,31.1147],[-96.2769,31.1162],[-96.2827,31.1195],[-96.2831,31.1209],[-96.2825,31.1225],[-96.284,31.1243],[-96.2837,31.1254],[-96.2854,31.1254],[-96.2857,31.1277],[-96.2879,31.1292],[-96.2893,31.1317],[-96.291,31.1316],[-96.2912,31.133],[-96.2928,31.1332],[-96.2924,31.1343],[-96.2929,31.1352],[-96.292,31.135],[-96.2917,31.1359],[-96.2943,31.1387],[-96.2932,31.1404],[-96.2948,31.1411],[-96.2959,31.1401],[-96.2978,31.1466],[-96.299,31.1482],[-96.299,31.1492],[-96.298,31.1494],[-96.2989,31.1503],[-96.2982,31.1526],[-96.2991,31.1533],[-96.2974,31.1551],[-96.2978,31.1562],[-96.2991,31.1563],[-96.3006,31.1588],[-96.2995,31.1592],[-96.3007,31.1608],[-96.3004,31.163],[-96.3016,31.1638],[-96.301,31.1645],[-96.2999,31.1639],[-96.2993,31.1643],[-96.2996,31.1655],[-96.2989,31.1661],[-96.2999,31.1672],[-96.2987,31.1676],[-96.2988,31.1722],[-96.2967,31.1752],[-96.2995,31.1753],[-96.2986,31.1758],[-96.299,31.1772],[-96.3011,31.1791],[-96.3,31.1797],[-96.2989,31.1792],[-96.2988,31.1807],[-96.2971,31.1811],[-96.2994,31.1844],[-96.3022,31.186],[-96.3028,31.1899],[-96.3051,31.1922],[-96.3045,31.1931],[-96.3056,31.1957],[-96.3076,31.1963],[-96.3079,31.1976],[-96.3097,31.1971],[-96.3116,31.1982],[-96.3115,31.1995],[-96.3104,31.2],[-96.311,31.2009],[-96.3097,31.201],[-96.31,31.2029],[-96.309,31.204],[-96.3094,31.205],[-96.3112,31.2048],[-96.3105,31.2057],[-96.311,31.2065],[-96.3106,31.208],[-96.3118,31.2086],[-96.3105,31.2107],[-96.3108,31.2135],[-96.3099,31.2138],[-96.3108,31.2147],[-96.3102,31.2158],[-96.3105,31.2175],[-96.3142,31.2197],[-96.3143,31.2182],[-96.3159,31.2185],[-96.3171,31.2202],[-96.3184,31.2199],[-96.3176,31.2217],[-96.3194,31.2225],[-96.317,31.2237],[-96.3179,31.2242],[-96.3169,31.2262],[-96.314,31.2288],[-96.3154,31.231],[-96.3169,31.232],[-96.3158,31.2329],[-96.3169,31.2336],[-96.318,31.2359],[-96.3197,31.2368],[-96.3193,31.2384],[-96.3208,31.2428],[-96.3221,31.2426],[-96.3286,31.2463],[-96.3288,31.2479],[-96.328,31.2485],[-96.3289,31.2492],[-96.3299,31.2491],[-96.3291,31.2508],[-96.3299,31.2523],[-96.3311,31.2524],[-96.3292,31.2574],[-96.3262,31.2597],[-96.3248,31.2617],[-96.324,31.2606],[-96.3254,31.2596],[-96.3238,31.2578],[-96.3222,31.2569],[-96.3205,31.2579],[-96.3202,31.2602],[-96.3185,31.2605],[-96.3168,31.2632],[-96.3173,31.2647],[-96.3147,31.2658],[-96.3155,31.2669],[-96.3144,31.2676],[-96.3139,31.2703],[-96.314,31.2713],[-96.3175,31.273],[-96.316,31.2773],[-96.3196,31.2807],[-96.3209,31.281],[-96.3208,31.2817],[-96.3222,31.2829],[-96.323,31.2823],[-96.3249,31.2826],[-96.3264,31.2851],[-96.3274,31.2851],[-96.3278,31.2868],[-96.327,31.2897],[-96.328,31.2913],[-96.3269,31.2918],[-96.3264,31.2932],[-96.3272,31.2958],[-96.3284,31.296],[-96.3282,31.2988],[-96.3256,31.3007],[-96.3235,31.2994],[-96.3218,31.2992],[-96.321,31.2978],[-96.3205,31.2998],[-96.3196,31.2997],[-96.3185,31.3014],[-96.3171,31.3015],[-96.3188,31.3038],[-96.3208,31.3046],[-96.3225,31.3062],[-96.3234,31.3084],[-96.3255,31.3105],[-96.3257,31.312],[-96.3251,31.313],[-96.3243,31.3123],[-96.3225,31.3138],[-96.3207,31.3138],[-96.3223,31.3149],[-96.3204,31.3168],[-96.3217,31.3169],[-96.3219,31.3176],[-96.3184,31.3207],[-96.3194,31.3228],[-96.3192,31.3256],[-96.3202,31.3262],[-96.3182,31.3278],[-96.3186,31.3297],[-96.3203,31.3307],[-96.3201,31.3319],[-96.3186,31.3332],[-96.3195,31.336],[-96.3189,31.337],[-96.316,31.3384],[-96.3162,31.3396],[-96.3147,31.3422],[-96.315,31.3428],[-96.3161,31.3427],[-96.3161,31.3439],[-96.317,31.3441],[-96.316,31.3464],[-96.3169,31.347],[-96.3184,31.3466],[-96.3182,31.3477],[-96.3199,31.3503],[-96.32,31.3532],[-96.3188,31.3534],[-96.3187,31.3546],[-96.3195,31.3557],[-96.3191,31.3577],[-96.3171,31.3618],[-96.3178,31.3646],[-96.3188,31.3645],[-96.3191,31.3677],[-96.3226,31.3712],[-96.3228,31.3739],[-96.2365,31.4134],[-96.4313,31.7]]]}},
{"type":"Feature","properties":{"name":"Region H\r\n"},"geometry":{"type":"MultiPolygon","coordinates":[[[[-96.2,30.933],[-96.2,31.4301],[-96.3228,31.3739],[-96.3226,31.3712],[-96.3191,31.3677],[-96.3188,31.3645],[-96.3178,31.3646],[-96.3171,31.3618],[-96.3191,31.3577],[-96.3195,31.3557],[-96.3187,31.3546],[-96.3188,31.3534],[-96.32,31.3532],[-96.3199,31.3503],[-96.3182,31.3477],[-96.3184,31.3466],[-96.3169,31.347],[-96.316,31.3464],[-96.317,31.3441],[-96.3161,31.3439],[-96.3161,31.3427],[-96.315,31.3428],[-96.3147,31.3422],[-96.3162,31.3396],[-96.316,31.3384],[-96.3189,31.337],[-96.3195,31.336],[-96.3186,31.3332],[-96.3201,31.3319],[-96.3203,31.3307],[-96.3186,31.3297],[-96.3182,31.3278],[-96.3202,31.3262],[-96.3192,31.3256],[-96.3194,31.3228],[-96.3184,31.3207],[-96.3219,31.3176],[-96.3217,31.3169],[-96.3204,31.3168],[-96.3223,31.3149],[-96.3207,31.3138],[-96.3225,31.3138],[-96.3243,31.3123],[-96.3251,31.313],[-96.3257,31.312],[-96.3255,31.3105],[-96.3234,31.3084],[-96.3225,31.3062],[-96.3208,31.3046],[-96.3188,31.3038],[-96.3171,31.3015],[-96.3185,31.3014],[-96.3196,31.2997],[-96.3205,31.2998],[-96.321,31.2978],[-96.3218,31.2992],[-96.3235,31.2994],[-96.3256,31.3007],[-96.3282,31.2988],[-96.3284,31.296],[-96.3272,31.2958],[-96.3264,31.2932],[-96.3269,31.2918],[-96.328,31.2913],[-96.327,31.2897],[-96.3278,31.2868],[-96.3274,31.2851],[-96.3264,31.2851],[-96.3249,31.2826],[-96.323,31.2823],[-96.3222,31.2829],[-96.3208,31.2817],[-96.3209,31.281],[-96.3196,31.2807],[-96.316,31.2773],[-96.3175,31.273],[-96.314,31.2713],[-96.3139,31.2703],[-96.3144,31.2676],[-96.3155,31.2669],[-96.3147,31.2658],[-96.3173,31.2647],[-96.3168,31.2632],[-96.3185,31.2605],[-96.3202,31.2602],[-96.3205,31.2579],[-96.3222,31.2569],[-96.3238,31.2578],[-96.3254,31.2596],[-96.324,31.2606],[-96.3248,31.2617],[-96.3262,31.2597],[-96.3292,31.2574],[-96.3311,31.2524],[-96.3299,31.2523],[-96.3291,31.2508],[-96.3299,31.2491],[-96.3289,31.2492],[-96.328,31.2485],[-96.3288,31.2479],[-96.3286,31.2463],[-96.3221,31.2426],[-96.3208,31.2428],[-96.3193,31.2384],[-96.3197,31.2368],[-96.318,31.2359],[-96.3169,31.2336],[-96.3158,31.2329],[-96.3169,31.232],[-96.3154,31.231],[-96.314,31.2288],[-96.3169,31.2262],[-96.3179,31.2242],[-96.317,31.2237],[-96.3194,31.2225],[-96.3176,31.2217],[-96.3184,31.2199],[-96.3171,31.2202],[-96.3159,31.2185],[-96.3143,31.2182],[-96.3142,31.2197],[-96.3105,31.2175],[-96.3102,31.2158],[-96.3108,31.2147],[-96.3099,31.2138],[-96.3108,31.2135],[-96.3105,31.2107],[-96.3118,31.2086],[-96.3106,31.208],[-96.311,31.2065],[-96.3105,31.2057],[-96.3112,31.2048],[-96.3094,31.205],[-96.309,31.204],[-96.31,31.2029],[-96.3097,31.201],[-96.311,31.2009],[-96.3104,31.2],[-96.3115,31.1995],[-96.3116,31.1982],[-96.3097,31.1971],[-96.3079,31.1976],[-96.3076,31.1963],[-96.3056,31.1957],[-96.3045,31.1931],[-96.3051,31.1922],[-96.3028,31.1899],[-96.3022,31.186],[-96.2994,31.1844],[-96.2971,31.1811],[-96.2988,31.1807],[-96.2989,31.1792],[-96.3,31.1797],[-96.3011,31.1791],[-96.299,31.1772],[-96.2986,31.1758],[-96.2995,31.1753],[-96.2967,31.1752],[-96.2988,31.1722],[-96.2987,31.1676],[-96.2999,31.1672],[-96.2989,31.1661],[-96.2996,31.1655],[-96.2993,31.1643],[-96.2999,31.1639],[-96.301,31.1645],[-96.3016,31.1638],[-96.3004,31.163],[-96.3007,31.1608],[-96.2995,31.1592],[-96.3006,31.1588],[-96.2991,31.1563],[-96.2978,31.1562],[-96.2974,31.1551],[-96.2991,31.1533],[-96.2982,31.1526],[-96.2989,31.1503],[-96.298,31.1494],[-96.299,31.1492],[-96.299,31.1482],[-96.2978,31.1466],[-96.2959,31.1401],[-96.2948,31.1411],[-96.2932,31.1404],[-96.2943,31.1387],[-96.2917,31.1359],[-96.292,31.135],[-96.2929,31.1352],[-96.2924,31.1343],[-96.2928,31.1332],[-96.2912,31.133],[-96.291,31.1316],[-96.2893,31.1317],[-96.2879,31.1292],[-96.2857,31.1277],[-96.2854,31.1254],[-96.2837,31.1254],[-96.284,31.1243],[-96.2825,31.1225],[-96.2831,31.1209],[-96.2827,31.1195],[-96.2769,31.1162],[-96.2769,31.1147],[-96.2784,31.1139],[-96.2768,31.112],[-96.277,31.11],[-96.278,31.1099],[-96.279,31.1086],[-96.2783,31.1083],[-96.2787,31.106],[-96.278,31.1056],[-96.2793,31.1037],[-96.2781,31.1035],[-96.2796,31.1008],[-96.2793,31.0976],[-96.2805,31.096],[-96.28,31.0943],[-96.2774,31.0923],[-96.2779,31.0903],[-96.2774,31.0882],[-96.2757,31.0864],[-96.2747,31.0866],[-96.2722,31.0847],[-96.2712,31.0821],[-96.2721,31.0813],[-96.2709,31.0809],[-96.269,31.078],[-96.267,31.078],[-96.2671,31.0788],[-96.2663,31.079],[-96.2628,31.0767],[-96.2619,31.0778],[-96.2616,31.0757],[-96.2608,31.0749],[-96.2611,31.0765],[-96.2606,31.0772],[-96.2579,31.076],[-96.2564,31.0743],[-96.2545,31.0741],[-96.2528,31.0731],[-96.2525,31.072],[-96.2546,31.0722],[-96.257,31.0693],[-96.2553,31.0678],[-96.2554,31.0657],[-96.2529,31.0665],[-96.2531,31.0642],[-96.2524,31.0652],[-96.2515,31.0652],[-96.2507,31.0636],[-96.2493,31.0634],[-96.2478,31.0607],[-96.2461,31.0611],[-96.2467,31.0625],[-96.2432,31.0616],[-96.2441,31.0597],[-96.2414,31.057],[-96.2441,31.0565],[-96.2432,31.0545],[-96.2452,31.0538],[-96.2451,31.0527],[-96.2462,31.0515],[-96.2433,31.0497],[-96.2403,31.0488],[-96.2401,31.0475],[-96.2415,31.0475],[-96.2416,31.0446],[-96.2432,31.044],[-96.2436,31.045],[-96.2471,31.0434],[-96.2471,31.0413],[-96.2482,31.0413],[-96.2489,31.0396],[-96.2481,31.0387],[-96.2495,31.0376],[-96.2473,31.0371],[-96.2487,31.035],[-96.2487,31.0334],[-96.2496,31.0324],[-96.251,31.0328],[-96.2528,31.0312],[-96.2525,31.0298],[-96.2539,31.0278],[-96.2553,31.0282],[-96.2559,31.0239],[-96.2582,31.0232],[-96.2568,31.0213],[-96.2581,31.0197],[-96.2581,31.0157],[-96.2601,31.0151],[-96.2604,31.0068],[-96.2596,31.0062],[-96.2586,31.0077],[-96.2567,31.0064],[-96.2543,31.0066],[-96.2516,31.0054],[-96.2498,31.0057],[-96.248,31.0049],[-96.2477,31.006],[-96.2467,31.006],[-96.2457,31.0051],[-96.2467,31.0031],[-96.246,31.0011],[-96.2462,30.9982],[-96.2443,30.9998],[-96.2425,30.9982],[-96.2384,30.9979],[-96.235,30.9956],[-96.2361,30.9937],[-96.2367,30.9935],[-96.2375,30.9945],[-96.2383,30.9941],[-96.2379,30.9894],[-96.2394,30.9897],[-96.2396,30.9884],[-96.2376,30.9856],[-96.2394,30.9853],[-96.2402,30.9845],[-96.2395,30.9832],[-96.2408,30.9828],[-96.2401,30.9819],[-96.2416,30.9791],[-96.2403,30.9791],[-96.2401,30.9773],[-96.2424,30.9774],[-96.2403,30.9717],[-96.2374,30.9695],[-96.2383,30.9667],[-96.2401,30.9655],[-96.2398,30.964],[-96.2375,30.963],[-96.2383,30.9607],[-96.237,30.9595],[-96.2342,30.9592],[-96.2329,30.9556],[-96.2288,30.9533],[-96.2276,30.9516],[-96.2235,30.951],[-96.2194,30.9522],[-96.2195,30.9511],[-96.2185,30.9502],[-96.2167,30.9506],[-96.2159,30.9496],[-96.2121,30.9494],[-96.2111,30.9473],[-96.209,30.9467],[-96.2086,30.9477],[-96.2077,30.9474],[-96.2067,30.9451],[-96.2077,30.9441],[-96.2061,30.9421],[-96.2062,30.9405],[-96.2017,30.938],[-96.2009,30.9332],[-96.2,30.933]]],[[[-96.2,30.8909],[-96.2,30.9306],[-96.2002,30.9304],[-96.2022,30.9329],[-96.2032,30.9331],[-96.2034,30.9286],[-96.2045,30.9281],[-96.2012,30.9259],[-96.2032,30.9253],[-96.2038,30.9242],[-96.2046,30.9251],[-96.2047,30.9237],[-96.2068,30.9239],[-96.2071,30.922],[-96.2061,30.9207],[-96.2086,30.9206],[-96.2067,30.9194],[-96.2064,30.9182],[-96.2079,30.9171],[-96.21,30.9173],[-96.2106,30.9142],[-96.2119,30.9137],[-96.2134,30.9113],[-96.2117,30.9106],[-96.2127,30.9047],[-96.2103,30.9044],[-96.2096,30.903],[-96.2067,30.9022],[-96.2065,30.9006],[-96.2048,30.9006],[-96.2036,30.9013],[-96.2033,30.8994],[-96.2043,30.8978],[-96.2029,30.8973],[-96.2042,30.8964],[-96.2025,30.8922],[-96.201,30.8927],[-96.2014,30.8908],[-96.2,30.8909]]],[[[-96.2,30.8892],[-96.2,30.8899],[-96.2004,30.8893],[-96.2,30.8892]]],[[[-96.2,30.8855],[-96.2,30.8883],[-96.2004,30.8883],[-96.2009,30.8869],[-96.2002,30.8853],[-96.2,30.8855]]],[[[-96.2,29.6566],[-96.2,30.0662],[-96.2007,30.0666],[-96.2067,30.0669],[-96.2084,30.0654],[-96.2086,30.063],[-96.2096,30.0623],[-96.2126,30.0657],[-96.214,30.0664],[-96.2142,30.0693],[-96.2187,30.0708],[-96.2185,30.0717],[-96.2198,30.0726],[-96.2248,30.0723],[-96.2255,30.0738],[-96.23,30.076],[-96.2397,30.0766],[-96.2423,30.0745],[-96.2444,30.0748],[-96.2454,30.0742],[-96.2474,30.0753],[-96.2511,30.0741],[-96.2529,30.0758],[-96.2541,30.0757],[-96.2542,30.0746],[-96.2561,30.0759],[-96.2595,30.0757],[-96.2608,30.078],[-96.264,30.0783],[-96.2644,30.0815],[-96.2678,30.0832],[-96.2676,30.085],[-96.2685,30.0855],[-96.2687,30.0876],[-96.27,30.0898],[-96.2693,30.0912],[-96.2712,30.0941],[-96.2736,30.094],[-96.2762,30.0925],[-96.2798,30.0942],[-96.2815,30.0934],[-96.283,30.0938],[-96.2856,30.0963],[-96.2885,30.0968],[-96.5188,30.0652],[-96.5861,30.0648],[-96.59,30.0689],[-96.594,30.0711],[-96.6222,30.0442],[-96.5693,29.9621],[-96.5356,29.9071],[-96.4851,29.8673],[-96.4788,29.8691],[-96.4738,29.8672],[-96.4725,29.8647],[-96.469,29.8614],[-96.4665,29.8605],[-96.4648,29.8607],[-96.4644,29.8591],[-96.4628,29.8583],[-96.4604,29.8547],[-96.4578,29.8555],[-96.4574,29.8549],[-96.4547,29.8549],[-96.4549,29.8556],[-96.454,29.8562],[-96.4529,29.8554],[-96.4526,29.8561],[-96.4499,29.8563],[-96.4467,29.8553],[-96.4466,29.8544],[-96.4449,29.8543],[-96.4444,29.8553],[-96.4435,29.8547],[-96.4439,29.8539],[-96.441,29.8538],[-96.4396,29.8504],[-96.4381,29.8492],[-96.4367,29.8495],[-96.4348,29.8478],[-96.4353,29.8466],[-96.4346,29.8459],[-96.4349,29.8441],[-96.4341,29.8433],[-96.4345,29.8417],[-96.4295,29.8406],[-96.4282,29.8409],[-96.426,29.8395],[-96.4251,29.8384],[-96.4252,29.8367],[-96.4237,29.8365],[-96.4238,29.8346],[-96.4218,29.8341],[-96.4221,29.831],[-96.4207,29.8302],[-96.4211,29.8293],[-96.4195,29.8295],[-96.4157,29.828],[-96.4125,29.8245],[-96.4098,29.8254],[-96.4081,29.8238],[-96.4053,29.8255],[-96.4013,29.8247],[-96.3968,29.8225],[-96.3944,29.8241],[-96.3936,29.8236],[-96.3938,29.8221],[-96.3909,29.8221],[-96.3896,29.8213],[-96.3882,29.8225],[-96.3837,29.8236],[-96.3825,29.825],[-96.38,29.8253],[-96.3783,29.8234],[-96.3761,29.824],[-96.3697,29.8236],[-96.3685,29.8219],[-96.3665,29.8217],[-96.3671,29.82],[-96.3656,29.8205],[-96.3638,29.8187],[-96.3621,29.82],[-96.3609,29.8189],[-96.3592,29.8188],[-96.3574,29.8191],[-96.3546,29.8237],[-96.353,29.8242],[-96.3519,29.8275],[-96.3451,29.8299],[-96.343,29.8296],[-96.343,29.8257],[-96.3422,29.8244],[-96.3387,29.8224],[-96.3357,29.8181],[-96.3307,29.8146],[-96.332,29.8068],[-96.3315,29.8038],[-96.3327,29.8028],[-96.3363,29.8032],[-96.3374,29.8026],[-96.3373,29.8013],[-96.3341,29.8009],[-96.3329,29.7985],[-96.3314,29.7976],[-96.3281,29.7988],[-96.327,29.7971],[-96.3244,29.7956],[-96.3222,29.7924],[-96.3184,29.7916],[-96.3174,29.7886],[-96.3147,29.7863],[-96.3158,29.7834],[-96.3151,29.7796],[-96.3191,29.7765],[-96.3197,29.7753],[-96.3191,29.7741],[-96.3162,29.7732],[-96.3141,29.7712],[-96.3143,29.7651],[-96.3136,29.762],[-96.3117,29.759],[-96.3117,29.7562],[-96.309,29.7544],[-96.2979,29.7504],[-96.2963,29.7438],[-96.2982,29.74],[-96.2984,29.7379],[-96.2967,29.7366],[-96.2919,29.7352],[-96.2909,29.734],[-96.2905,29.7329],[-96.2918,29.73],[-96.2914,29.729],[-96.2896,29.728],[-96.2846,29.7279],[-96.282,29.7269],[-96.2778,29.7233],[-96.2764,29.7206],[-96.2714,29.7171],[-96.2709,29.7154],[-96.2715,29.7128],[-96.2704,29.7069],[-96.2748,29.7026],[-96.2754,29.6995],[-96.2736,29.6971],[-96.2717,29.6917],[-96.2671,29.6873],[-96.2654,29.6836],[-96.2622,29.6801],[-96.2622,29.6747],[-96.2585,29.6676],[-96.2565,29.6666],[-96.2482,29.665],[-96.2431,29.6602],[-96.2399,29.6589],[-96.2331,29.661],[-96.2263,29.6648],[-96.2191,29.6623],[-96.2146,29.6615],[-96.2085,29.6566],[-96.201,29.6571],[-96.2,29.6566]]]]}},
{"type":"Feature","properties":{"name":"Plateau\r\n"},"geometry":{"type":"Polygon","coordinates":[[[-99.0,30.1375],[-99.0,29.6235],[-98.9838,29.6234],[-98.981,29.6211],[-98.9768,29.6147],[-98.9757,29.6103],[-98.9766,29.6046],[-98.9784,29.5992],[-98.9807,29.5954],[-98.9852,29.5904],[-98.9868,29.5866],[-98.987,29.5841],[-98.9862,29.5823],[-98.983,29.5803],[-98.9803,29.5796],[-98.9788,29.5769],[-98.9805,29.5738],[-98.9854,29.5705],[-98.9858,29.5663],[-98.9846,29.5629],[-98.9786,29.5545],[-98.9759,29.5525],[-98.9724,29.5517],[-98.9693,29.553],[-98.9658,29.5581],[-98.9616,29.5601],[-98.9572,29.5601],[-98.9495,29.5583],[-98.9443,29.5579],[-98.9401,29.559],[-98.9361,29.562],[-98.933,29.5634],[-98.9301,29.5635],[-98.9272,29.5622],[-98.779,29.7201],[-98.9177,29.7814],[-98.9201,29.8865],[-98.9209,30.0314],[-98.9202,30.1383],[-99.0,30.1375]]]}},
{"type":"Feature","properties":{"name":"Lower Colorado\r\n"},"geometry":{"type":"Polygon","coordinates":[[[-99.0,30.4984],[-99.0,30.1375],[-98.9176,30.1384],[-98.7772,30.1379],[-98.5879,30.1389],[-98.542,30.0846],[-98.4671,29.9996],[-98.414,29.9376],[-98.2976,30.0379],[-98.2601,30.134],[-98.2578,30.1332],[-98.2547,30.1304],[-98.2507,30.128],[-98.2466,30.1275],[-98.2384,30.1279],[-98.2347,30.1267],[-98.2321,30.1252],[-98.2265,30.1197],[-98.2237,30.1161],[-98.2209,30.1105],[-98.2098,30.1034],[-98.2038,30.1005],[-98.1995,30.0993],[-98.1817,30.1064],[-98.1692,30.1055],[-98.1601,30.1101],[-98.1545,30.1119],[-98.1498,30.1116],[-98.1458,30.1078],[-98.1444,30.104],[-98.139,30.1006],[-98.137,30.0951],[-98.1362,30.0896],[-98.1325,30.087],[-98.1142,30.0828],[-98.1031,30.0824],[-98.0928,30.0785],[-98.0863,30.0775],[-98.0804,30.0747],[-98.0778,30.0715],[-98.0758,30.0671],[-98.0728,30.065],[-98.0679,30.0629],[-98.0589,30.0613],[-98.0541,30.0593],[-98.0462,30.051],[-98.0422,30.0492],[-98.0364,30.048],[-98.0324,30.0482],[-98.0074,30.0515],[-97.9943,30.0512],[-97.9829,30.0461],[-97.9763,30.0447],[-97.9654,30.0439],[-97.9528,30.0449],[-97.9438,30.0411],[-97.9333,30.0337],[-97.9281,30.0311],[-97.922,30.0288],[-97.9168,30.028],[-97.8937,30.0366],[-97.8885,30.0392],[-97.8844,30.0428],[-97.874,30.0483],[-97.8601,30.0525],[-97.844,30.0632],[-97.8407,30.0673],[-97.8368,30.0701],[-97.8307,30.0711],[-97.8224,30.0701],[-97.8168,30.0711],[-97.8154,30.0743],[-97.8153,30.0796],[-97.8128,30.083],[-97.8002,30.0866],[-97.7984,30.088],[-97.7087,30.0233],[-97.6533,30.0714],[-97.5701,30.0003],[-97.5692,30.0002],[-97.4551,29.9035],[-97.3158,29.7865],[-97.3178,29.7846],[-97.1305,29.6433],[-97.1433,29.6281],[-96.8649,29.6328],[-96.8659,29.6304],[-96.8629,29.6297],[-96.863,29.6282],[-96.8591,29.6267],[-96.8593,29.6248],[-96.8584,29.6239],[-96.8478,29.6209],[-96.8473,29.6201],[-96.8488,29.6189],[-96.8486,29.6181],[-96.8462,29.6166],[-96.843,29.6162],[-96.8424,29.6127],[-96.8443,29.6091],[-96.8414,29.6077],[-96.8403,29.6052],[-96.8379,29.6036],[-96.837,29.5987],[-96.8334,29.5959],[-96.8357,29.5929],[-96.8364,29.5882],[-96.8386,29.5865],[-96.8391,29.5851],[-96.8382,29.5825],[-96.8347,29.5798],[-96.8327,29.5769],[-96.793,29.5773],[-96.6755,29.4542],[-96.5605,29.3354],[-96.6572,29.2643],[-96.6381,29.2471],[-96.3847,29.3883],[-96.3024,29.2365],[-96.2933,29.226],[-96.2824,29.2233],[-96.2751,29.2202],[-96.2651,29.2123],[-96.2546,29.211],[-96.2501,29.2032],[-96.2523,29.2],[-96.2,29.2],[-96.2,29.6566],[-96.201,29.6571],[-96.2085,29.6566],[-96.2146,29.6615],[-96.2191,29.6623],[-96.2263,29.6648],[-96.2331,29.661],[-96.2399,29.6589],[-96.2431,29.6602],[-96.2482,29.665],[-96.2581,29.6673],[-96.2622,29.6747],[-96.2622,29.6801],[-96.2654,29.6836],[-96.2671,29.6873],[-96.2717,29.6917],[-96.2736,29.6971],[-96.2754,29.6995],[-96.2748,29.7026],[-96.2704,29.7069],[-96.2715,29.7128],[-96.2709,29.7154],[-96.2714,29.7171],[-96.2764,29.7206],[-96.2778,29.7233],[-96.282,29.7269],[-96.2846,29.7279],[-96.2896,29.728],[-96.2914,29.729],[-96.2918,29.73],[-96.2905,29.7329],[-96.2909,29.734],[-96.2919,29.7352],[-96.2967,29.7366],[-96.2984,29.7379],[-96.2982,29.74],[-96.2963,29.7438],[-96.2979,29.7504],[-96.309,29.7544],[-96.3117,29.7562],[-96.3117,29.759],[-96.3136,29.762],[-96.3143,29.7651],[-96.3141,29.7712],[-96.3162,29.7732],[-96.3191,29.7741],[-96.3197,29.7753],[-96.3191,29.7765],[-96.3151,29.7796],[-96.3158,29.7834],[-96.3147,29.7863],[-96.3174,29.7886],[-96.3184,29.7916],[-96.3222,29.7924],[-96.3244,29.7956],[-96.327,29.7971],[-96.3281,29.7988],[-96.3314,29.7976],[-96.3329,29.7985],[-96.3341,29.8009],[-96.3373,29.8013],[-96.3374,29.8026],[-96.3363,29.8032],[-96.3327,29.8028],[-96.3315,29.8038],[-96.332,29.8068],[-96.3307,29.8146],[-96.3357,29.8181],[-96.3387,29.8224],[-96.3422,29.8244],[-96.343,29.8257],[-96.343,29.8296],[-96.3451,29.8299],[-96.3519,29.8275],[-96.353,29.8242],[-96.3546,29.8237],[-96.3574,29.8191],[-96.3592,29.8188],[-96.3609,29.8189],[-96.3621,29.82],[-96.3638,29.8187],[-96.3656,29.8205],[-96.3671,29.82],[-96.3665,29.8217],[-96.3685,29.8219],[-96.3697,29.8236],[-96.3761,29.824],[-96.3783,29.8234],[-96.38,29.8253],[-96.3825,29.825],[-96.3837,29.8236],[-96.3882,29.8225],[-96.3896,29.8213],[-96.3909,29.8221],[-96.3938,29.8221],[-96.3936,29.8236],[-96.3944,29.8241],[-96.3968,29.8225],[-96.4013,29.8247],[-96.4053,29.8255],[-96.4081,29.8238],[-96.4098,29.8254],[-96.4125,29.8245],[-96.4157,29.828],[-96.4195,29.8295],[-96.4211,29.8293],[-96.4207,29.8302],[-96.4221,29.831],[-96.4218,29.8341],[-96.4238,29.8346],[-96.4237,29.8365],[-96.4252,29.8367],[-96.4251,29.8384],[-96.426,29.8395],[-96.4282,29.8409],[-96.4295,29.8406],[-96.4345,29.8417],[-96.4341,29.8433],[-96.4349,29.8441],[-96.4346,29.8459],[-96.4353,29.8466],[-96.4348,29.8478],[-96.4367,29.8495],[-96.4381,29.8492],[-96.4396,29.8504],[-96.441,29.8538],[-96.4439,29.8539],[-96.4435,29.8547],[-96.4444,29.8553],[-96.4449,29.8543],[-96.4466,29.8544],[-96.4467,29.8553],[-96.4499,29.8563],[-96.4526,29.8561],[-96.4529,29.8554],[-96.454,29.8562],[-96.4549,29.8556],[-96.4547,29.8549],[-96.4574,29.8549],[-96.4578,29.8555],[-96.4604,29.8547],[-96.4628,29.8583],[-96.4644,29.8591],[-96.4648,29.8607],[-96.4665,29.8605],[-96.469,29.8614],[-96.4725,29.8647],[-96.4738,29.8672],[-96.4788,29.8691],[-96.4851,29.8673],[-96.5356,29.9071],[-96.5693,29.9621],[-96.6222,30.0442],[-96.6239,30.0667],[-96.6307,30.0702],[-96.6342,30.0756],[-96.6324,30.0841],[-96.6337,30.1062],[-96.6405,30.1203],[-96.6531,30.13],[-96.647,30.1451],[-96.6619,30.149],[-96.6834,30.1511],[-96.6872,30.1645],[-96.7021,30.1577],[-96.715,30.145],[-96.7355,30.1474],[-96.7668,30.1387],[-96.7729,30.1495],[-96.7805,30.1521],[-96.7944,30.1606],[-96.8458,30.116],[-97.0191,30.032],[-97.0817,30.2592],[-97.1995,30.3378],[-97.3687,30.4193],[-97.3699,30.4195],[-97.3731,30.4174],[-97.3774,30.4188],[-97.378,30.4218],[-97.3795,30.4242],[-97.3834,30.4243],[-97.3832,30.4261],[-97.3844,30.4281],[-97.3872,30.43],[-97.3877,30.4335],[-97.3926,30.4346],[-97.3916,30.4369],[-97.3931,30.4389],[-97.3956,30.4377],[-97.4044,30.4402],[-97.4064,30.4421],[-97.4088,30.4381],[-97.4155,30.4381],[-97.4225,30.4446],[-97.4274,30.4521],[-97.4335,30.4527],[-97.4337,30.4589],[-97.4369,30.46],[-97.439,30.4595],[-97.4414,30.4547],[-97.4447,30.4554],[-97.4455,30.4607],[-97.4535,30.4605],[-97.4595,30.4575],[-97.4638,30.4597],[-97.4672,30.4648],[-97.4711,30.4664],[-97.4752,30.4668],[-97.4762,30.4687],[-97.4797,30.4699],[-97.4858,30.4692],[-97.4886,30.4732],[-97.5013,30.4774],[-97.5025,30.4801],[-97.5049,30.4808],[-97.5108,30.4849],[-97.5222,30.4763],[-97.5239,30.4724],[-97.5271,30.475],[-97.5431,30.4791],[-97.5466,30.4747],[-97.55,30.4764],[-97.5493,30.4808],[-97.5527,30.4901],[-97.5631,30.4916],[-97.5639,30.4955],[-97.5689,30.4961],[-97.5688,30.4992],[-97.5714,30.5002],[-97.5746,30.5],[-97.5768,30.5009],[-97.5791,30.4999],[-97.5806,30.5007],[-97.5908,30.497],[-97.5913,30.5009],[-97.593,30.5004],[-97.5961,30.5014],[-97.6015,30.4987],[-97.6061,30.495],[-97.6068,30.4902],[-97.6172,30.4891],[-97.6186,30.4903],[-97.6277,30.4854],[-97.6413,30.482],[-97.6431,30.4798],[-97.6435,30.478],[-97.6516,30.4747],[-97.6641,30.4817],[-97.67,30.4785],[-97.674,30.4799],[-97.6828,30.4792],[-97.6838,30.4761],[-97.6858,30.4771],[-97.687,30.4759],[-97.6882,30.4788],[-97.6919,30.4781],[-97.7063,30.4791],[-97.7155,30.5025],[-97.7161,30.5075],[-97.7222,30.4989],[-97.7189,30.4863],[-97.7295,30.4839],[-97.7304,30.4882],[-97.7326,30.4858],[-97.7353,30.4843],[-97.738,30.4837],[-97.7395,30.4856],[-97.743,30.4846],[-97.7494,30.5],[-97.742,30.5018],[-97.7481,30.5173],[-97.7555,30.5131],[-97.7578,30.5098],[-97.767,30.5078],[-97.766,30.5069],[-97.7692,30.5047],[-97.7723,30.5048],[-97.7762,30.5036],[-97.7853,30.505],[-97.7902,30.5049],[-97.7954,30.5027],[-97.7978,30.4983],[-97.8015,30.4961],[-97.8049,30.4953],[-97.8083,30.4892],[-97.8052,30.4822],[-97.8029,30.4792],[-97.815,30.4749],[-97.8107,30.464],[-97.8203,30.4608],[-97.8262,30.4558],[-97.8267,30.4575],[-97.8465,30.4734],[-97.8458,30.4756],[-97.8622,30.4973],[-97.8561,30.5028],[-97.8558,30.5075],[-97.8598,30.5124],[-97.8672,30.5174],[-97.8714,30.5227],[-97.8678,30.5465],[-97.8822,30.5538],[-97.8834,30.5529],[-97.8876,30.5566],[-97.8887,30.5652],[-97.8914,30.5664],[-97.8929,30.565],[-97.8959,30.5646],[-97.9024,30.5712],[-97.9219,30.5642],[-97.927,30.5675],[-97.9152,30.5805],[-97.9205,30.5868],[-97.9218,30.5908],[-97.917,30.6048],[-97.9348,30.6101],[-97.9519,30.6252],[-97.9569,30.628],[-97.9664,30.6236],[-97.9778,30.622],[-97.9922,30.6093],[-97.9979,30.6127],[-98.0019,30.6213],[-98.0063,30.6275],[-98.0126,30.6173],[-98.0296,30.6145],[-98.0365,30.6116],[-98.0395,30.6183],[-98.0402,30.618],[-98.0499,30.6239],[-97.9629,30.7856],[-97.862,30.8751],[-97.8657,30.8751],[-97.8285,30.9108],[-97.8749,30.9825],[-97.8863,31.0013],[-97.9116,31.035],[-98.1495,31.0321],[-98.4398,31.0296],[-98.4449,31.0386],[-98.4476,31.0414],[-98.4531,31.0444],[-98.4645,31.0476],[-98.4749,31.0528],[-98.4827,31.0597],[-98.4841,31.063],[-98.4842,31.0666],[-98.4835,31.068],[-98.4762,31.0706],[-98.4726,31.0764],[-98.4692,31.0769],[-98.462,31.0761],[-98.4586,31.0772],[-98.4563,31.079],[-98.4563,31.0846],[-98.4579,31.0887],[-98.4615,31.0904],[-98.4686,31.0921],[-98.4701,31.0932],[-98.4706,31.0947],[-98.4697,31.0963],[-98.4618,31.1012],[-98.456,31.1069],[-98.4554,31.1099],[-98.4564,31.1118],[-98.4598,31.112],[-98.4655,31.1078],[-98.4692,31.1067],[-98.4715,31.1074],[-98.4741,31.1097],[-98.4807,31.119],[-98.4829,31.1186],[-98.486,31.115],[-98.4879,31.114],[-98.4902,31.1147],[-98.4938,31.1184],[-98.4989,31.1185],[-98.5008,31.1174],[-98.5054,31.1087],[-98.5123,31.106],[-98.5159,31.0965],[-98.5179,31.0931],[-98.5225,31.0894],[-98.5242,31.0888],[-98.5272,31.0907],[-98.5284,31.0926],[-98.5296,31.095],[-98.5308,31.1026],[-98.5366,31.1099],[-98.5378,31.1132],[-98.5447,31.1194],[-98.5485,31.1245],[-98.548,31.1277],[-98.5469,31.1294],[-98.5412,31.1307],[-98.5323,31.1344],[-98.5277,31.1377],[-98.5271,31.1421],[-98.5294,31.1523],[-98.5281,31.155],[-98.5255,31.1561],[-98.5169,31.1545],[-98.5118,31.1549],[-98.5086,31.1572],[-98.5049,31.1617],[-98.5039,31.1651],[-98.5046,31.1667],[-98.506,31.1673],[-98.5142,31.1648],[-98.5196,31.1649],[-98.5299,31.1735],[-98.543,31.1749],[-98.5445,31.1771],[-98.5444,31.1795],[-98.5355,31.186],[-98.5357,31.1876],[-98.5378,31.1892],[-98.5394,31.1925],[-98.5418,31.1943],[-98.5439,31.1947],[-98.5529,31.1921],[-98.5569,31.1921],[-98.5596,31.193],[-98.5688,31.1984],[-98.5696,31.2045],[-98.5675,31.2118],[-98.5636,31.2208],[-98.5627,31.2305],[-98.2668,31.4105],[-98.3694,31.5533],[-98.4191,31.6235],[-98.4754,31.7],[-98.6751,31.7],[-98.6798,31.6994],[-98.76,31.6879],[-98.7803,31.6104],[-98.9452,31.511],[-98.993,31.4848],[-98.9932,31.4834],[-98.9978,31.4811],[-99.0,31.4807],[-99.0,30.9216],[-98.9646,30.9215],[-98.9633,30.769],[-98.9645,30.614],[-98.9641,30.4986],[-99.0,30.4984]]]}},
{"type":"Feature","properties":{"name":"South Central Texas\r\n"},"geometry":{"type":"Polygon","coordinates":[[[-99.0,29.6235],[-99.0,29.2],[-97.0652,29.2],[-97.1059,29.2441],[-97.1055,29.2447],[-97.2401,29.3845],[-97.2038,29.5023],[-97.2049,29.5799],[-97.1433,29.6281],[-97.1305,29.6433],[-97.3178,29.7846],[-97.3158,29.7865],[-97.4551,29.9035],[-97.5692,30.0002],[-97.5701,30.0003],[-97.6533,30.0714],[-97.7087,30.0233],[-97.7984,30.088],[-97.8002,30.0866],[-97.8128,30.083],[-97.8153,30.0796],[-97.8154,30.0743],[-97.8168,30.0711],[-97.8224,30.0701],[-97.8307,30.0711],[-97.8368,30.0701],[-97.8407,30.0673],[-97.844,30.0632],[-97.8601,30.0525],[-97.874,30.0483],[-97.8844,30.0428],[-97.8885,30.0392],[-97.8937,30.0366],[-97.9168,30.028],[-97.922,30.0288],[-97.9281,30.0311],[-97.9333,30.0337],[-97.9438,30.0411],[-97.9528,30.0449],[-97.9654,30.0439],[-97.9763,30.0447],[-97.9829,30.0461],[-97.9943,30.0512],[-98.0074,30.0515],[-98.0324,30.0482],[-98.0364,30.048],[-98.0422,30.0492],[-98.0462,30.051],[-98.0541,30.0593],[-98.0589,30.0613],[-98.0679,30.0629],[-98.0728,30.065],[-98.0758,30.0671],[-98.0778,30.0715],[-98.0804,30.0747],[-98.0863,30.0775],[-98.0928,30.0785],[-98.1031,30.0824],[-98.1142,30.0828],[-98.1325,30.087],[-98.1362,30.0896],[-98.137,30.0951],[-98.139,30.1006],[-98.1444,30.104],[-98.1458,30.1078],[-98.1498,30.1116],[-98.1545,30.1119],[-98.1601,30.1101],[-98.1692,30.1055],[-98.1817,30.1064],[-98.1995,30.0993],[-98.2038,30.1005],[-98.2098,30.1034],[-98.2209,30.1105],[-98.2237,30.1161],[-98.2265,30.1197],[-98.2321,30.1252],[-98.2347,30.1267],[-98.2384,30.1279],[-98.2466,30.1275],[-98.2507,30.128],[-98.2547,30.1304],[-98.2578,30.1332],[-98.2601,30.134],[-98.2976,30.0379],[-98.414,29.9376],[-98.4671,29.9996],[-98.542,30.0846],[-98.5879,30.1389],[-98.7772,30.1379],[-98.9202,30.1383],[-98.9209,30.0314],[-98.9201,29.8865],[-98.9177,29.7814],[-98.779,29.7201],[-98.9272,29.5622],[-98.9301,29.5635],[-98.933,29.5634],[-98.9361,29.562],[-98.9401,29.559],[-98.9443,29.5579],[-98.9495,29.5583],[-98.9572,29.5601],[-98.9616,29.5601],[-98.9658,29.5581],[-98.9693,29.553],[-98.9724,29.5517],[-98.9759,29.5525],[-98.9786,29.5545],[-98.9846,29.5629],[-98.9859,29.5676],[-98.9854,29.5705],[-98.9801,29.5742],[-98.9789,29.5777],[-98.9803,29.5796],[-98.9857,29.5818],[-98.987,29.5852],[-98.9852,29.5904],[-98.9807,29.5954],[-98.9781,29.5999],[-98.9761,29.6066],[-98.9757,29.6118],[-98.9807,29.6207],[-98.9838,29.6234],[-99.0,29.6235]]]}},
{"type":"Feature","properties":{"name":"Lavaca\r\n"},"geometry":{"type":"Polygon","coordinates":[[[-97.0652,29.2],[-96.2523,29.2],[-96.2501,29.2032],[-96.2546,29.211],[-96.2651,29.2123],[-96.2751,29.2202],[-96.2824,29.2233],[-96.2933,29.226],[-96.3024,29.2365],[-96.3847,29.3883],[-96.6381,29.2471],[-96.6572,29.2643],[-96.5605,29.3354],[-96.6755,29.4542],[-96.793,29.5773],[-96.8327,29.5769],[-96.8347,29.5798],[-96.8382,29.5825],[-96.8391,29.5851],[-96.8386,29.5865],[-96.8364,29.5882],[-96.8357,29.5929],[-96.8334,29.5959],[-96.837,29.5987],[-96.8379,29.6036],[-96.8403,29.6052],[-96.8414,29.6077],[-96.8443,29.6091],[-96.8424,29.6127],[-96.843,29.6162],[-96.8462,29.6166],[-96.8486,29.6181],[-96.8488,29.6189],[-96.8473,29.6201],[-96.8478,29.6209],[-96.8581,29.6237],[-96.8592,29.6247],[-96.8591,29.6267],[-96.863,29.6282],[-96.8629,29.6297],[-96.8654,29.6301],[-96.8661,29.6307],[-96.8649,29.6328],[-97.1433,29.6281],[-97.2049,29.5799],[-97.2038,29.5023],[-97.2401,29.3845],[-97.1055,29.2447],[-97.1059,29.2441],[-97.0652,29.2]]]}}
]
}
