{
 "type": "FeatureCollection",
 "generated": "2026-10-06T16:59:06.743Z",
 "placed": 61,
 "total": 116,
 "features": [
  {
   "type": "Feature",
   "geometry": null,
   "properties": {
    "title": "OHT Helming 402-Unit Austin Rental Community",
    "link": "https://www.connectcre.com/stories/oht-helming-402-unit-austin-rental-community/",
    "outlet": "Connect CRE",
    "group": "realestate",
    "color": "#e07a99",
    "published": "2026-10-06T16:17:57.000Z",
    "summary": "OHT Partners broke ground on The Barton, a 402-unit multifamily community on more than 60 acres in Southwest Austin. Located at 8956 W. State Highway 71, The Barton will feature a mix of three-story garden-style buildings and two-story townhomes with more than 40 acres designated as green space. Design features include large floor plans, private yards and ... The post OHT Helming 402-Unit Austin R",
    "place": null,
    "placeKind": null
   }
  },
  {
   "type": "Feature",
   "geometry": null,
   "properties": {
    "title": "Financial expert seeks District 1 Council seat",
    "link": "https://theaustinbulldog.org/financial-expert-seeks-district-1-council-seat/",
    "outlet": "The Austin Bulldog",
    "group": "government",
    "color": "#e8b35e",
    "published": "2026-10-06T15:23:35.000Z",
    "summary": "Michael David Nahas, 53, is a former chair of the City’s Economic Prosperity Commission, which advises the City Council on matters related to construction and job creation. He said he was appointed to that commission by Council Member Jose “Chito” Vela. These days he’s focusing on the City’s prosperity and how its financial activities impact […]",
    "place": null,
    "placeKind": null
   }
  },
  {
   "type": "Feature",
   "geometry": null,
   "properties": {
    "title": "Temperatures, rain totals, severe storms: Explore Austin's 2026 weather data",
    "link": "https://www.kxan.com/weather/austin-2026-weather-data/",
    "outlet": "KXAN",
    "group": "news",
    "color": "#a394e0",
    "published": "2026-10-06T15:11:36.000Z",
    "summary": "KXAN has created charts and graphics to help you keep track of whatever weather 2026 brings.",
    "place": null,
    "placeKind": null
   }
  },
  {
   "type": "Feature",
   "geometry": {
    "type": "Point",
    "coordinates": [
     -97.7394,
     30.285
    ]
   },
   "properties": {
    "title": "Affidavit: 988 call led to arrest of veteran accused of threat to UT Austin, church",
    "link": "https://www.kxan.com/news/crime/affidavit-988-call-led-to-arrest-of-veteran-accused-of-threat-to-ut-austin-church/",
    "outlet": "KXAN",
    "group": "news",
    "color": "#a394e0",
    "published": "2026-10-06T14:16:42.000Z",
    "summary": "A friend's call to a suicide prevention hotline led to the arrest of a 35-year-old veteran on Oct. 2.",
    "place": "UT Austin",
    "placeKind": "campus"
   }
  },
  {
   "type": "Feature",
   "geometry": {
    "type": "Point",
    "coordinates": [
     -97.72,
     30.38
    ]
   },
   "properties": {
    "title": "Police investigate homicide in north Austin",
    "link": "https://www.kxan.com/news/crime/police-investigate-homicide-in-northwest-austin/",
    "outlet": "KXAN",
    "group": "news",
    "color": "#a394e0",
    "published": "2026-10-06T14:02:48.000Z",
    "summary": "The scene is in the 1000 block of Norwood Park Blvd., according to the department.",
    "place": "North Austin",
    "placeKind": "district"
   }
  },
  {
   "type": "Feature",
   "geometry": {
    "type": "Point",
    "coordinates": [
     -97.78,
     30.33
    ]
   },
   "properties": {
    "title": "Here’s your 2026 ballot for Austin’s November election",
    "link": "https://austincurrent.org/2026/10/06/austin-2026-election-ballot-lookup-travis-county/",
    "outlet": "Austin Current",
    "group": "news",
    "color": "#b9a8f0",
    "published": "2026-10-06T11:00:00.000Z",
    "summary": "The 2026 election is Nov. 3. Early voting starts Oct. 19. This tool helps Austin and Travis County residents know what is on their ballot. The post Here’s your 2026 ballot for Austin’s November election appeared first on Austin Current .",
    "place": "Travis County",
    "placeKind": "county"
   }
  },
  {
   "type": "Feature",
   "geometry": null,
   "properties": {
    "title": "New Braunfels allocates $95.63K for right-of-way acquisition services",
    "link": "https://communityimpact.com/new-braunfels/government/new-braunfels-allocates-95-63k-for-right-of-way-acquisition-services/",
    "outlet": "Community Impact",
    "group": "government",
    "color": "#f0c27a",
    "published": "2026-10-06T11:00:00.000Z",
    "summary": "",
    "place": null,
    "placeKind": null
   }
  },
  {
   "type": "Feature",
   "geometry": null,
   "properties": {
    "title": "Cool start to the day, warm afternoon sunshine",
    "link": "https://www.kxan.com/weather/forecast/cool-start-to-the-day-warm-sunshine-by-the-afternoon/",
    "outlet": "KXAN",
    "group": "news",
    "color": "#a394e0",
    "published": "2026-10-06T10:44:39.000Z",
    "summary": "A cool start to Tuesday... in fact, the coolest it's been in over 4 months! - Meteorologist Hannah Gard",
    "place": null,
    "placeKind": null
   }
  },
  {
   "type": "Feature",
   "geometry": {
    "type": "Point",
    "coordinates": [
     -97.746,
     30.245
    ]
   },
   "properties": {
    "title": "Austin taxpayers will pay the price if Texas education department takes over school district",
    "link": "https://austincurrent.org/2026/10/06/aisd-school-austin-takeover-tea/",
    "outlet": "Austin Current",
    "group": "news",
    "color": "#b9a8f0",
    "published": "2026-10-06T10:30:00.000Z",
    "summary": "Cash-strapped Austin ISD faces big changes under a potential state takeover. It could also face increased costs at a time when reserves are running dry. The post Austin taxpayers will pay the price if Texas education department takes over school district appeared first on Austin Current .",
    "place": "Austin ISD",
    "placeKind": "landmark"
   }
  },
  {
   "type": "Feature",
   "geometry": {
    "type": "Point",
    "coordinates": [
     -97.79,
     30.4
    ]
   },
   "properties": {
    "title": "Austin report finds emergency response to 2025 home explosion was hindered by communication issues",
    "link": "https://www.kxan.com/news/local/austin/austin-home-explosion-report/",
    "outlet": "KXAN",
    "group": "news",
    "color": "#a394e0",
    "published": "2026-10-06T02:47:18.000Z",
    "summary": "A city report says last year's deadly northwest Austin home explosion exposed communication challenges among emergency responders and recommends stronger coordination.",
    "place": "Northwest Austin",
    "placeKind": "district"
   }
  },
  {
   "type": "Feature",
   "geometry": null,
   "properties": {
    "title": "City of Austin Council Message Board • Re: No Wrong Door Work Session Briefing",
    "link": "https://austincouncilforum.org/viewtopic.php?p=4980#p4980",
    "outlet": "Council Message Board",
    "group": "government",
    "color": "#f0c27a",
    "published": "2026-10-06T01:31:16.000Z",
    "summary": "Colleagues, Thank you for your post highlighting key questions and concerns. I read the letter and agree with the vast majority of the recommendations, especially regarding attorney-client relationships and respecting due process rights for those that may participate in the No Wrong Door program. However, the involvement of our police officers in any mental health diversion program is necessary an",
    "place": null,
    "placeKind": null
   }
  },
  {
   "type": "Feature",
   "geometry": {
    "type": "Point",
    "coordinates": [
     -97.746,
     30.245
    ]
   },
   "properties": {
    "title": "Austin ISD among four districts selected for state spending review",
    "link": "https://www.kxan.com/news/local/austin/austin-isd-spending-investigation/",
    "outlet": "KXAN",
    "group": "news",
    "color": "#a394e0",
    "published": "2026-10-06T01:28:21.000Z",
    "summary": "Austin ISD was selected for a state spending review ordered by Gov. Greg Abbott and announced by Texas Comptroller Don Huffines, a move that is drawing criticism from his Democratic challenger in the 2026 comptroller race.",
    "place": "Austin ISD",
    "placeKind": "landmark"
   }
  },
  {
   "type": "Feature",
   "geometry": {
    "type": "Point",
    "coordinates": [
     -97.769,
     30.267
    ]
   },
   "properties": {
    "title": "Austin Parks and Recreation Committed to Zilker Park Stewardship and Post-Event Lawn Remediation",
    "link": "https://www.austintexas.gov/parks/news/austin-parks-and-recreation-committed-zilker-park-stewardship-and-post-event-lawn",
    "outlet": "City of Austin",
    "group": "government",
    "color": "#f0c27a",
    "published": "2026-10-06T00:00:00.000Z",
    "summary": "<p><span data-ogsc data-olk-copy-source=\"MessageBody\">Zilker Park is the crown jewel of Austin. Austin Parks and Recreation is fully committed to protecting the park and the Great Lawn’s long-term health, including ensuring its restoration to prime condition following the Austin City Limits Music Festival. As always, C3 Presents is responsible for restoring the park to its previous condition, or b",
    "place": "Zilker Park",
    "placeKind": "park"
   }
  },
  {
   "type": "Feature",
   "geometry": {
    "type": "Point",
    "coordinates": [
     -97.78,
     30.33
    ]
   },
   "properties": {
    "title": "Texas counties work through DPS voter registration backlog on deadline day",
    "link": "https://www.kxan.com/news/texas-politics/texas-counties-work-through-dps-voter-registration-backlog-on-deadline-day/",
    "outlet": "KXAN",
    "group": "news",
    "color": "#a394e0",
    "published": "2026-10-05T23:36:51.000Z",
    "summary": "Travis County election officials are working overtime to process a significant backlog of voter registration records before the October 19 early voting deadline.",
    "place": "Travis County",
    "placeKind": "county"
   }
  },
  {
   "type": "Feature",
   "geometry": {
    "type": "Point",
    "coordinates": [
     -97.736,
     30.268
    ]
   },
   "properties": {
    "title": "What wins Red River? Sarkisian talks rivalry, Texas’ consistency ahead of Oklahoma",
    "link": "https://www.kxan.com/sports-general/horns-report/what-wins-red-river-sarkisian-talks-rivalry-texas-consistency-ahead-of-oklahoma/",
    "outlet": "KXAN",
    "group": "news",
    "color": "#a394e0",
    "published": "2026-10-05T23:15:48.000Z",
    "summary": "Steve Sarkisian broke down what it takes to win the Red River Rivalry, where No. 1 Texas still needs to improve and the eight-game SEC grind awaiting the Longhorns after their bye week.",
    "place": "Red River",
    "placeKind": "street"
   }
  },
  {
   "type": "Feature",
   "geometry": {
    "type": "Point",
    "coordinates": [
     -97.736,
     30.268
    ]
   },
   "properties": {
    "title": "State Fair of Texas unveils food, watch parties for Red River Rivalry",
    "link": "https://www.kxan.com/news/texas/state-fair-of-texas-unveils-food-watch-parties-for-red-river-rivalry/",
    "outlet": "KXAN",
    "group": "news",
    "color": "#a394e0",
    "published": "2026-10-05T21:15:41.000Z",
    "summary": "The State Fair of Texas is preparing for the Red River Rivalry with themed food, watch parties and game-day events as Texas and Oklahoma meet at the Cotton Bowl.",
    "place": "Red River",
    "placeKind": "street"
   }
  },
  {
   "type": "Feature",
   "geometry": {
    "type": "Point",
    "coordinates": [
     -97.6789,
     30.5083
    ]
   },
   "properties": {
    "title": "Downtown Round Rock nominated for federal tax reinvestment zone",
    "link": "https://communityimpact.com/round-rock/development/downtown-round-rock-nominated-for-federal-tax-reinvestment-zone/",
    "outlet": "Community Impact",
    "group": "planning",
    "color": "#5fc4b6",
    "published": "2026-10-05T20:46:05.000Z",
    "summary": "",
    "place": "Round Rock",
    "placeKind": "city"
   }
  },
  {
   "type": "Feature",
   "geometry": {
    "type": "Point",
    "coordinates": [
     -97.8203,
     30.5052
    ]
   },
   "properties": {
    "title": "Sporting goods, an indoor playground and a new grocery store: 14 Cedar Park-area local business updates in October",
    "link": "https://communityimpact.com/cedar-park/business/sporting-goods-an-indoor-playground-and-a-new-grocery-store-14-cedar-park-area-local-business-updates-in-october/",
    "outlet": "Community Impact",
    "group": "realestate",
    "color": "#f08aa8",
    "published": "2026-10-05T20:40:37.000Z",
    "summary": "",
    "place": "Cedar Park",
    "placeKind": "city"
   }
  },
  {
   "type": "Feature",
   "geometry": {
    "type": "Point",
    "coordinates": [
     -97.77,
     30.22
    ]
   },
   "properties": {
    "title": "Get off our (Great) lawn",
    "link": "https://www.austinpolitics.net/get-off-our-great-lawn/",
    "outlet": "Austin Politics",
    "group": "government",
    "color": "#e8b35e",
    "published": "2026-10-05T20:37:07.000Z",
    "summary": "Park politics in South Austin.",
    "place": "South Austin",
    "placeKind": "district"
   }
  },
  {
   "type": "Feature",
   "geometry": null,
   "properties": {
    "title": "Gringo's Mexican Kitchen coming to Northline",
    "link": "https://communityimpact.com/leander-liberty-hill/business/gringo-s-mexican-kitchen-coming-to-northline/",
    "outlet": "Community Impact",
    "group": "realestate",
    "color": "#f08aa8",
    "published": "2026-10-05T20:30:02.000Z",
    "summary": "",
    "place": null,
    "placeKind": null
   }
  },
  {
   "type": "Feature",
   "geometry": {
    "type": "Point",
    "coordinates": [
     -97.8203,
     30.5052
    ]
   },
   "properties": {
    "title": "Blackbird Massage + Recovery moves into new space with additional services in Cedar Park",
    "link": "https://communityimpact.com/cedar-park/business/blackbird-massage-recovery-moves-into-new-space-with-additional-services-in-cedar-park/",
    "outlet": "Community Impact",
    "group": "realestate",
    "color": "#f08aa8",
    "published": "2026-10-05T20:28:04.000Z",
    "summary": "",
    "place": "Cedar Park",
    "placeKind": "city"
   }
  },
  {
   "type": "Feature",
   "geometry": null,
   "properties": {
    "title": "Five fall business updates for Liberty Hill",
    "link": "https://communityimpact.com/leander-liberty-hill/business/five-fall-business-updates-for-liberty-hill/",
    "outlet": "Community Impact",
    "group": "realestate",
    "color": "#f08aa8",
    "published": "2026-10-05T20:23:00.000Z",
    "summary": "",
    "place": null,
    "placeKind": null
   }
  },
  {
   "type": "Feature",
   "geometry": null,
   "properties": {
    "title": "Ken Paxton investigates UnitedHealth over alleged coverage denials",
    "link": "https://www.kxan.com/news/texas/ken-paxton-investigates-unitedhealth-over-alleged-coverage-denials/",
    "outlet": "KXAN",
    "group": "news",
    "color": "#a394e0",
    "published": "2026-10-05T19:46:43.000Z",
    "summary": "Texas Attorney General Ken Paxton is investigating UnitedHealth Group over allegations it improperly denied medically necessary care and engaged in deceptive insurance practices.",
    "place": null,
    "placeKind": null
   }
  },
  {
   "type": "Feature",
   "geometry": null,
   "properties": {
    "title": "Hill House Home to open clothing store at Domain Northside",
    "link": "https://communityimpact.com/northwest-austin/business/hill-house-home-to-open-clothing-store-at-domain-northside/",
    "outlet": "Community Impact",
    "group": "realestate",
    "color": "#f08aa8",
    "published": "2026-10-05T19:25:00.000Z",
    "summary": "",
    "place": null,
    "placeKind": null
   }
  },
  {
   "type": "Feature",
   "geometry": {
    "type": "Point",
    "coordinates": [
     -97.9467,
     30.3083
    ]
   },
   "properties": {
    "title": "First Financial Bank to open near Bee Cave",
    "link": "https://communityimpact.com/lake-travis-westlake/business/first-financial-bank-to-open-near-bee-cave/",
    "outlet": "Community Impact",
    "group": "realestate",
    "color": "#f08aa8",
    "published": "2026-10-05T19:00:00.000Z",
    "summary": "",
    "place": "Bee Cave",
    "placeKind": "city"
   }
  },
  {
   "type": "Feature",
   "geometry": null,
   "properties": {
    "title": "Our favorite photos from Weekend 1 at ACL Fest",
    "link": "https://www.kut.org/austin/2026-10-05/acl-fest-photos-best-muddy-austin-city-limits-tx-texas-music-festival",
    "outlet": "KUT",
    "group": "news",
    "color": "#b9a8f0",
    "published": "2026-10-05T18:53:54.000Z",
    "summary": "The first weekend of ACL Fest started with a downpour. That didn't stop tens of thousands of festivalgoers from reaching their favorite performers.",
    "place": null,
    "placeKind": null
   }
  },
  {
   "type": "Feature",
   "geometry": null,
   "properties": {
    "title": "Leif Johnson Ford opens West Austin dealership after 6 decades in Central Austin",
    "link": "https://communityimpact.com/lake-travis-westlake/business/leif-johnson-ford-opens-west-austin-dealership-after-6-decades-in-central-austin/",
    "outlet": "Community Impact",
    "group": "realestate",
    "color": "#f08aa8",
    "published": "2026-10-05T18:30:00.000Z",
    "summary": "",
    "place": null,
    "placeKind": null
   }
  },
  {
   "type": "Feature",
   "geometry": {
    "type": "Point",
    "coordinates": [
     -97.72841,
     30.23967
    ]
   },
   "properties": {
    "title": "Riverside Picks Up 11-Story Austin Office Building",
    "link": "https://www.connectcre.com/stories/riverside-picks-up-11-story-austin-office-building/",
    "outlet": "Connect CRE",
    "group": "realestate",
    "color": "#e07a99",
    "published": "2026-10-05T18:15:50.000Z",
    "summary": "Private equity investor Riverside has acquired Lavaca Plaza, an 11-story building with 122,042 square feet of office space in Austin, Texas, for an unspecified price. Unico Properties sold the asset. Commercial Search reports Unico paid $61.4 million for the property in 2015. In the marketing material, JLL suggested the property might be a candidate for ... The post Riverside Picks Up 11-Story Aus",
    "place": "Riverside",
    "placeKind": "neighborhood"
   }
  },
  {
   "type": "Feature",
   "geometry": null,
   "properties": {
    "title": "ACL festivalgoers with disabilities navigate muddy terrain during Weekend 1",
    "link": "https://www.kut.org/austin/2026-10-05/acl-fest-mud-ada-austin-city-limits-music-festival-disability-accessibility",
    "outlet": "KUT",
    "group": "news",
    "color": "#b9a8f0",
    "published": "2026-10-05T17:51:36.000Z",
    "summary": "The first weekend of the Austin City Limits Music Festival was a wet and muddy few days. Here's how the people using wheelchairs, canes and crutches made it work.",
    "place": null,
    "placeKind": null
   }
  },
  {
   "type": "Feature",
   "geometry": null,
   "properties": {
    "title": "WilCo commissioners cut Somerset Hills Road District bond by $17M",
    "link": "https://communityimpact.com/georgetown/government/wilco-commissioners-cut-somerset-hills-road-district-bond-by-17m/",
    "outlet": "Community Impact",
    "group": "government",
    "color": "#f0c27a",
    "published": "2026-10-05T17:00:00.000Z",
    "summary": "",
    "place": null,
    "placeKind": null
   }
  },
  {
   "type": "Feature",
   "geometry": null,
   "properties": {
    "title": "COTA sets sights on water park, resort",
    "link": "https://communityimpact.com/bastrop-cedar-creek/business/cota-sets-sights-on-water-park-resort/",
    "outlet": "Community Impact",
    "group": "realestate",
    "color": "#f08aa8",
    "published": "2026-10-05T17:00:00.000Z",
    "summary": "New financing could support the venue’s next phase of development",
    "place": null,
    "placeKind": null
   }
  },
  {
   "type": "Feature",
   "geometry": {
    "type": "Point",
    "coordinates": [
     -97.8203,
     30.5052
    ]
   },
   "properties": {
    "title": "5 Austin neighbors named among best small cities to live in America",
    "link": "https://austin.culturemap.com/news/real-estate/best-small-cities-america-2026/",
    "outlet": "CultureMap",
    "group": "realestate",
    "color": "#e07a99",
    "published": "2026-10-05T16:03:03.000Z",
    "summary": "Several suburbs that make up the Austin metro are among the best small cities to live in, according to a new WalletHub study. And two perennial favorites lead the way. In total, five Austin neighbors — with Cedar Park and Leander at the top of the pack — have been rated among the best small cities in America for 2026. WalletHub's annual survey compared more than 1,300 U.S. cities with populations ",
    "place": "Cedar Park",
    "placeKind": "city"
   }
  },
  {
   "type": "Feature",
   "geometry": null,
   "properties": {
    "title": "Advanced Pain Care opens New Braunfels location",
    "link": "https://communityimpact.com/new-braunfels/business/advanced-pain-care-opens-new-braunfels-location/",
    "outlet": "Community Impact",
    "group": "realestate",
    "color": "#f08aa8",
    "published": "2026-10-05T15:00:00.000Z",
    "summary": "",
    "place": null,
    "placeKind": null
   }
  },
  {
   "type": "Feature",
   "geometry": {
    "type": "Point",
    "coordinates": [
     -97.8403,
     30.0852
    ]
   },
   "properties": {
    "title": "Roxie's serves up Southern staples with nostalgic style in Buda",
    "link": "https://communityimpact.com/san-marcos-buda-kyle/business/roxie-s-serves-up-southern-staples-with-nostalgic-style-in-buda/",
    "outlet": "Community Impact",
    "group": "realestate",
    "color": "#f08aa8",
    "published": "2026-10-05T11:00:00.000Z",
    "summary": "",
    "place": "Buda",
    "placeKind": "city"
   }
  },
  {
   "type": "Feature",
   "geometry": {
    "type": "Point",
    "coordinates": [
     -97.78,
     30.33
    ]
   },
   "properties": {
    "title": "Austin and other local governments raised taxes this year. Will your bill go up?",
    "link": "https://austincurrent.org/2026/10/05/austin-travis-county-property-taxes-affordability/",
    "outlet": "Austin Current",
    "group": "news",
    "color": "#b9a8f0",
    "published": "2026-10-05T10:55:00.000Z",
    "summary": "Falling home values could mean lower property tax bills for some homeowners despite the Austin City Council and Travis County Commissioners raising rates. The post Austin and other local governments raised taxes this year. Will your bill go up? appeared first on Austin Current .",
    "place": "Travis County",
    "placeKind": "county"
   }
  },
  {
   "type": "Feature",
   "geometry": {
    "type": "Point",
    "coordinates": [
     -97.746,
     30.245
    ]
   },
   "properties": {
    "title": "Burnet, Webb families say Austin ISD failed them. Now they’re asked to close their schools.",
    "link": "https://austincurrent.org/2026/10/05/austin-district-burnet-webb-petition-school-closure/",
    "outlet": "Austin Current",
    "group": "news",
    "color": "#b9a8f0",
    "published": "2026-10-05T10:30:00.000Z",
    "summary": "Parents cite years of turnover and instability before an Oct. 15 deadline that could shape state action. The post Burnet, Webb families say Austin ISD failed them. Now they’re asked to close their schools. appeared first on Austin Current .",
    "place": "Austin ISD",
    "placeKind": "landmark"
   }
  },
  {
   "type": "Feature",
   "geometry": null,
   "properties": {
    "title": "Tribune’s sample ballot tool now includes local elections for 16 million Texas voters",
    "link": "https://www.texastribune.org/2026/10/05/texas-tribune-ballot-tool-2026-election-local/",
    "outlet": "Texas Tribune",
    "group": "government",
    "color": "#d9a95a",
    "published": "2026-10-05T10:00:00.000Z",
    "summary": "The updated 2026 election ballot tool is a major expansion and part of The Texas Tribune's mission to help Texans shape the future. The post Tribune’s sample ballot tool now includes local elections for 16 million Texas voters appeared first on The Texas Tribune .",
    "place": null,
    "placeKind": null
   }
  },
  {
   "type": "Feature",
   "geometry": null,
   "properties": {
    "title": "Austin Mobility News: Construction Partnership Program launches CTXGO app",
    "link": "https://www.austintexas.gov/transportation-public-works/news/austin-mobility-news-construction-partnership-program-launches",
    "outlet": "City of Austin",
    "group": "government",
    "color": "#f0c27a",
    "published": "2026-10-05T00:00:00.000Z",
    "summary": "<p>In this week's edition:</p><ul><li style=\"text-size-adjust:100%;\"><a class=\"ck-page_link\" href=\"https://mailchi.mp/austintexas/austin-mobility-news-10-05-26#mctoc1\">Construction Partnership Program launches CTXGO app to give Central Texans real-time travel and construction information</a></li><li style=\"text-size-adjust:100%;\"><a href=\"https://mailchi.mp/austintexas/austin-mobility-news-10-05-2",
    "place": null,
    "placeKind": null
   }
  },
  {
   "type": "Feature",
   "geometry": {
    "type": "Point",
    "coordinates": [
     -97.6772,
     30.6333
    ]
   },
   "properties": {
    "title": "Trees, rolling terrain give Woodland Park neighborhood a private feel in Georgetown area",
    "link": "https://communityimpact.com/georgetown/transportation/trees-rolling-terrain-give-woodland-park-neighborhood-a-private-feel-in-georgetown-area/",
    "outlet": "Community Impact",
    "group": "realestate",
    "color": "#f08aa8",
    "published": "2026-10-04T11:00:00.000Z",
    "summary": "",
    "place": "Georgetown",
    "placeKind": "city"
   }
  },
  {
   "type": "Feature",
   "geometry": {
    "type": "Point",
    "coordinates": [
     -97.769,
     30.267
    ]
   },
   "properties": {
    "title": "Photos: ACL Fest delays Saturday opening after heavy rain, muddy conditions",
    "link": "https://www.kut.org/austin/2026-10-02/acl-fest-austin-tx-music-festival-rainy-photos",
    "outlet": "KUT",
    "group": "news",
    "color": "#b9a8f0",
    "published": "2026-10-02T21:43:34.000Z",
    "summary": "Once attendees entered Zilker Park on Friday, they found festival grounds covered in mud and puddles.",
    "place": "Zilker Park",
    "placeKind": "park"
   }
  },
  {
   "type": "Feature",
   "geometry": {
    "type": "Point",
    "coordinates": [
     -97.78,
     30.33
    ]
   },
   "properties": {
    "title": "Travis County processes 35,000 delayed voter registrations",
    "link": "https://communityimpact.com/central-austin/government/travis-county-processes-35-000-delayed-voter-registrations/",
    "outlet": "Community Impact",
    "group": "government",
    "color": "#f0c27a",
    "published": "2026-10-02T21:11:08.000Z",
    "summary": "State officials say affected voters can still cast a ballot in the Nov. 3 election.",
    "place": "Travis County",
    "placeKind": "county"
   }
  },
  {
   "type": "Feature",
   "geometry": {
    "type": "Point",
    "coordinates": [
     -97.8772,
     29.9891
    ]
   },
   "properties": {
    "title": "Kyle council member Claudia Zapata issues resignation",
    "link": "https://communityimpact.com/san-marcos-buda-kyle/government/kyle-council-member-claudia-zapata-issues-resignation/",
    "outlet": "Community Impact",
    "group": "government",
    "color": "#f0c27a",
    "published": "2026-10-02T21:00:00.000Z",
    "summary": "",
    "place": "Kyle",
    "placeKind": "city"
   }
  },
  {
   "type": "Feature",
   "geometry": {
    "type": "Point",
    "coordinates": [
     -97.6789,
     30.5083
    ]
   },
   "properties": {
    "title": "Round Rock to open new fire station this month",
    "link": "https://communityimpact.com/round-rock/government/round-rock-to-open-new-fire-station-this-month/",
    "outlet": "Community Impact",
    "group": "government",
    "color": "#f0c27a",
    "published": "2026-10-02T20:00:00.000Z",
    "summary": "",
    "place": "Round Rock",
    "placeKind": "city"
   }
  },
  {
   "type": "Feature",
   "geometry": null,
   "properties": {
    "title": "Hutto City Council takes another step toward city-run fire department",
    "link": "https://communityimpact.com/pflugerville-hutto/government/hutto-city-council-takes-another-step-toward-city-run-fire-department/",
    "outlet": "Community Impact",
    "group": "government",
    "color": "#f0c27a",
    "published": "2026-10-02T19:40:00.000Z",
    "summary": "",
    "place": null,
    "placeKind": null
   }
  },
  {
   "type": "Feature",
   "geometry": {
    "type": "Point",
    "coordinates": [
     -97.9797,
     30.363
    ]
   },
   "properties": {
    "title": "Lakeway City Park improvements take shape",
    "link": "https://communityimpact.com/lake-travis-westlake/government/lakeway-city-park-improvements-take-shape/",
    "outlet": "Community Impact",
    "group": "government",
    "color": "#f0c27a",
    "published": "2026-10-02T19:30:00.000Z",
    "summary": "",
    "place": "Lakeway",
    "placeKind": "city"
   }
  },
  {
   "type": "Feature",
   "geometry": {
    "type": "Point",
    "coordinates": [
     -97.91,
     30.4
    ]
   },
   "properties": {
    "title": "Check out the Lake Travis-Westlake area FY 2026-27 city budget updates",
    "link": "https://communityimpact.com/lake-travis-westlake/government/check-out-the-lake-travis-westlake-area-fy-2026-27-city-budget-updates/",
    "outlet": "Community Impact",
    "group": "government",
    "color": "#f0c27a",
    "published": "2026-10-02T18:46:00.000Z",
    "summary": "",
    "place": "Lake Travis",
    "placeKind": "lake"
   }
  },
  {
   "type": "Feature",
   "geometry": null,
   "properties": {
    "title": "New Braunfels approves $82.95K contract for right-of-way acquisition",
    "link": "https://communityimpact.com/new-braunfels/government/new-braunfels-approves-82-95k-contract-for-right-of-way-acquisition/",
    "outlet": "Community Impact",
    "group": "government",
    "color": "#f0c27a",
    "published": "2026-10-02T17:00:00.000Z",
    "summary": "",
    "place": null,
    "placeKind": null
   }
  },
  {
   "type": "Feature",
   "geometry": null,
   "properties": {
    "title": "Why cops show up to non-police calls",
    "link": "https://www.austinpolitics.net/why-cops-show-up-to-non-police-calls/",
    "outlet": "Austin Politics",
    "group": "government",
    "color": "#e8b35e",
    "published": "2026-10-02T13:46:12.000Z",
    "summary": "Because there are more of them!",
    "place": null,
    "placeKind": null
   }
  },
  {
   "type": "Feature",
   "geometry": {
    "type": "Point",
    "coordinates": [
     -97.6772,
     30.6333
    ]
   },
   "properties": {
    "title": "Georgetown utility rate increases take effect",
    "link": "https://communityimpact.com/georgetown/government/georgetown-utility-rate-increases-take-effect/",
    "outlet": "Community Impact",
    "group": "government",
    "color": "#f0c27a",
    "published": "2026-10-02T11:00:00.000Z",
    "summary": "",
    "place": "Georgetown",
    "placeKind": "city"
   }
  },
  {
   "type": "Feature",
   "geometry": null,
   "properties": {
    "title": "Austin man has surgery 11 days after being shot by ICE agent",
    "link": "https://www.texastribune.org/2026/10/01/texas-wilber-rafael-garces-perez-ice-shooting-surgery/",
    "outlet": "Texas Tribune",
    "group": "government",
    "color": "#d9a95a",
    "published": "2026-10-02T01:45:01.000Z",
    "summary": "The surgery on the Venezuelan national, who has been in custody since his Sept. 20 run-in with an immigration officer, removed the bullet lodged in his back. The post Austin man has surgery 11 days after being shot by ICE agent appeared first on The Texas Tribune .",
    "place": null,
    "placeKind": null
   }
  },
  {
   "type": "Feature",
   "geometry": null,
   "properties": {
    "title": "APD Detectives Search for Two Suspects in Connection to Auto Theft",
    "link": "https://www.austintexas.gov/police/news/apd-detectives-search-two-suspects-connection-auto-theft-0",
    "outlet": "City of Austin",
    "group": "government",
    "color": "#f0c27a",
    "published": "2026-10-02T00:00:00.000Z",
    "summary": "<p><strong>Case: </strong><span>26-2690495</span><br><span>&nbsp;</span><br><strong>Date:</strong><span> Saturday, September 26, 2026</span><br><span>&nbsp;</span><br><strong>Time: </strong><span>3:29 a.m.</span><br><span>&nbsp;</span><br><strong>Location:&nbsp;</strong><span>10100 block of Metropolitan Drive</span><br>&nbsp;</p><div data-entity-type=\"media\" data-entity-uuid=\"95e36f60-9d23-4e99-a4",
    "place": null,
    "placeKind": null
   }
  },
  {
   "type": "Feature",
   "geometry": null,
   "properties": {
    "title": "Austin Municipal Court Streamlines Docket Schedule",
    "link": "https://www.austintexas.gov/communications/news/austin-municipal-court-streamlines-docket-schedule",
    "outlet": "City of Austin",
    "group": "government",
    "color": "#f0c27a",
    "published": "2026-10-02T00:00:00.000Z",
    "summary": "<p><span>Austin Municipal Court (AMC) is updating its docket schedule to improve overall efficiency. Beginning October 5, 2026, all Attorney Appearance Dockets and Jury Trials will be held on Tuesdays.</span><br><br><span>Following a comprehensive review of current docket needs, AMC determined that reducing and consolidating underutilized docket times will maximize use of Court resources, improve ",
    "place": null,
    "placeKind": null
   }
  },
  {
   "type": "Feature",
   "geometry": null,
   "properties": {
    "title": "APD South Metro Tactical Unit Announces Multiple Arrests in Operation “Protect Our Parks”",
    "link": "https://www.austintexas.gov/police/news/apd-south-metro-tactical-unit-announces-multiple-arrests-operation-protect-our-parks",
    "outlet": "City of Austin",
    "group": "government",
    "color": "#f0c27a",
    "published": "2026-10-02T00:00:00.000Z",
    "summary": "<p><strong>Case:</strong>&nbsp; &nbsp; &nbsp; &nbsp; &nbsp; &nbsp; &nbsp; &nbsp;26-5005977<br>&nbsp;<br><strong>Date:</strong>&nbsp; &nbsp; &nbsp; &nbsp; &nbsp; &nbsp; &nbsp; &nbsp;Thursday, September 24, 2026<br>&nbsp;<br><strong>Time:&nbsp;&nbsp;&nbsp;&nbsp;&nbsp;&nbsp;&nbsp;&nbsp;&nbsp;&nbsp;&nbsp;&nbsp;&nbsp;&nbsp;&nbsp; </strong>4 p.m.<br>&nbsp;<br><strong>Location:</strong>&nbsp; &nbsp; &nbs",
    "place": null,
    "placeKind": null
   }
  },
  {
   "type": "Feature",
   "geometry": {
    "type": "Point",
    "coordinates": [
     -97.78,
     30.33
    ]
   },
   "properties": {
    "title": "Former prosecutor seeks District 1 Council seat",
    "link": "https://theaustinbulldog.org/former-prosecutor-seeks-district-1-council-seat/",
    "outlet": "The Austin Bulldog",
    "group": "government",
    "color": "#e8b35e",
    "published": "2026-10-01T21:26:46.000Z",
    "summary": "Amber Karessa Goodwin, 46, wants to win the District 1 council seat that will be vacated by Natasha Harper-Madison, whose term ends in January. Goodwin was serious enough about it to resign her job as an assistant district attorney of Travis County so that she can campaign full-time. She started with the DA’s office as […]",
    "place": "Travis County",
    "placeKind": "county"
   }
  },
  {
   "type": "Feature",
   "geometry": {
    "type": "Point",
    "coordinates": [
     -97.62,
     30.439
    ]
   },
   "properties": {
    "title": "Pflugerville seeks small businesses for downtown commercial space",
    "link": "https://communityimpact.com/pflugerville-hutto/development/pflugerville-seeks-small-businesses-for-downtown-commercial-space/",
    "outlet": "Community Impact",
    "group": "planning",
    "color": "#5fc4b6",
    "published": "2026-10-01T20:43:19.000Z",
    "summary": "",
    "place": "Pflugerville",
    "placeKind": "city"
   }
  },
  {
   "type": "Feature",
   "geometry": {
    "type": "Point",
    "coordinates": [
     -97.76776,
     30.25608
    ]
   },
   "properties": {
    "title": "City of Austin suddenly takes over management of Zilker Botanical Garden",
    "link": "https://austincurrent.org/2026/10/01/austin-tx-zilker-botanical-garden-conservancy-cease-operations/",
    "outlet": "Austin Current",
    "group": "news",
    "color": "#b9a8f0",
    "published": "2026-10-01T20:23:52.000Z",
    "summary": "A statement released Thursday from the city's Parks and Recreation Department said the conservancy voted last month to not renew its contract with the city. The post City of Austin suddenly takes over management of Zilker Botanical Garden appeared first on Austin Current .",
    "place": "Zilker",
    "placeKind": "neighborhood"
   }
  },
  {
   "type": "Feature",
   "geometry": null,
   "properties": {
    "title": "City of Austin Council Message Board • No Wrong Door Work Session Briefing",
    "link": "https://austincouncilforum.org/viewtopic.php?p=4979#p4979",
    "outlet": "Council Message Board",
    "group": "government",
    "color": "#f0c27a",
    "published": "2026-10-01T20:22:08.000Z",
    "summary": "Colleagues, At our work session next Tuesday, we will be receiving a briefing on the No Wrong Door initiative. We are glad to see that staff from various departments as well as program partners from Integral Care and Central Health will be presenting and available for questions. After receiving the August 3rd memo on the No Wrong Door Initiative, our offices have started to meet with City Departme",
    "place": null,
    "placeKind": null
   }
  },
  {
   "type": "Feature",
   "geometry": {
    "type": "Point",
    "coordinates": [
     -97.6772,
     30.6333
    ]
   },
   "properties": {
    "title": "The Junction plans for November opening in Georgetown",
    "link": "https://communityimpact.com/georgetown/development/the-junction-plans-for-november-opening-in-georgetown/",
    "outlet": "Community Impact",
    "group": "planning",
    "color": "#5fc4b6",
    "published": "2026-10-01T11:00:00.000Z",
    "summary": "",
    "place": "Georgetown",
    "placeKind": "city"
   }
  },
  {
   "type": "Feature",
   "geometry": {
    "type": "Point",
    "coordinates": [
     -97.747,
     30.265
    ]
   },
   "properties": {
    "title": "Meet the candidates running to represent some of Austin’s east and southeast neighborhoods",
    "link": "https://austincurrent.org/2026/10/01/meet-the-candidates-running-to-represent-some-of-austins-east-and-southeast-neighborhoods/",
    "outlet": "Austin Current",
    "group": "news",
    "color": "#b9a8f0",
    "published": "2026-10-01T10:30:00.000Z",
    "summary": "Four of the five candidates running to represent District 3 at City Hall attended a forum hosted by Austin Current, Austin PBS and KUT. Here’s what they had to say. The post Meet the candidates running to represent some of Austin’s east and southeast neighborhoods appeared first on Austin Current .",
    "place": "City Hall",
    "placeKind": "landmark"
   }
  },
  {
   "type": "Feature",
   "geometry": {
    "type": "Point",
    "coordinates": [
     -97.747,
     30.265
    ]
   },
   "properties": {
    "title": "Meet the candidates running to represent east and northeast Austin neighborhoods",
    "link": "https://austincurrent.org/2026/10/01/austin-texas-election-city-council-district-one/",
    "outlet": "Austin Current",
    "group": "news",
    "color": "#b9a8f0",
    "published": "2026-10-01T10:30:00.000Z",
    "summary": "Five of the six candidates running to represent District 1 at City Hall attended a forum hosted by Austin Current, Austin PBS and KUT. Here’s what they had to say. The post Meet the candidates running to represent east and northeast Austin neighborhoods appeared first on Austin Current .",
    "place": "City Hall",
    "placeKind": "landmark"
   }
  },
  {
   "type": "Feature",
   "geometry": {
    "type": "Point",
    "coordinates": [
     -97.771,
     30.264
    ]
   },
   "properties": {
    "title": "This KUTX host has gone to every ACL Fest. Here's how it's changed",
    "link": "https://www.kut.org/life-arts/2026-10-01/austin-tx-kutx-jay-trachtenberg-acl-25th-anniversary",
    "outlet": "KUT",
    "group": "news",
    "color": "#b9a8f0",
    "published": "2026-10-01T10:01:00.000Z",
    "summary": "In the early days when Zilker got dry and dusty, Jay Trachtenberg says, you could sneak off to Barton Springs and still hear the music from the pool.",
    "place": "Barton Springs",
    "placeKind": "park"
   }
  },
  {
   "type": "Feature",
   "geometry": null,
   "properties": {
    "title": "Listen to 23 of our favorite panels from the 2026 Texas Tribune Festival",
    "link": "https://www.texastribune.org/2026/10/01/tribfest-podcasts-2026/",
    "outlet": "Texas Tribune",
    "group": "government",
    "color": "#d9a95a",
    "published": "2026-10-01T10:00:00.000Z",
    "summary": "This year’s festival featured conversations about the 2026 elections, AI, immigration, water and much more. Catch up now in podcast form. The post Listen to 23 of our favorite panels from the 2026 Texas Tribune Festival appeared first on The Texas Tribune .",
    "place": null,
    "placeKind": null
   }
  },
  {
   "type": "Feature",
   "geometry": {
    "type": "Point",
    "coordinates": [
     -97.78,
     30.33
    ]
   },
   "properties": {
    "title": "Austin-Travis County Emergency Operations Center Activates For Heavy Rainfall",
    "link": "https://www.austintexas.gov/emergency-management/news/austin-travis-county-emergency-operations-center-activates-anticipated",
    "outlet": "City of Austin",
    "group": "government",
    "color": "#f0c27a",
    "published": "2026-10-01T00:00:00.000Z",
    "summary": "<p paraid=\"1501368714\" paraeid=\"{25f53de1-6c20-4852-a588-1dd3b9633506}{80}\"><span data-contrast=\"none\" xml:lang=\"EN-US\" lang=\"EN-US\">The joint Austin and Travis County Emergency Operations Center (EOC) initiated a </span><span data-contrast=\"auto\" xml:lang=\"EN-US\" lang=\"EN-US\">Level 3 Limited Activation</span><span data-contrast=\"none\" xml:lang=\"EN-US\" lang=\"EN-US\"> today at 7 a.m., Thursday, Oct.",
    "place": "Travis County",
    "placeKind": "county"
   }
  },
  {
   "type": "Feature",
   "geometry": {
    "type": "Point",
    "coordinates": [
     -97.738,
     30.268
    ]
   },
   "properties": {
    "title": "APD Detectives Search for a Suspect in Connection to Multiple Indecent Assault Cases",
    "link": "https://www.austintexas.gov/police/news/apd-detectives-search-suspect-connection-multiple-indecent-assault-cases",
    "outlet": "City of Austin",
    "group": "government",
    "color": "#f0c27a",
    "published": "2026-10-01T00:00:00.000Z",
    "summary": "<p><span><strong>Case:</strong>&nbsp;26-2581208</span><br><br><span><strong>Date:</strong>&nbsp;Tuesday, September 15, 2026</span><br><br><span><strong>Time:</strong>&nbsp;5:40 p.m. &nbsp;</span><br><br><span><strong>Location:</strong>&nbsp;5425 N. IH 35 Svrd NB (Dollar Tree) &nbsp;</span><br><span>&nbsp;</span><br><span>The Austin Police (APD) Sex Crimes Unit detectives are requesting the public’",
    "place": "Austin Police",
    "placeKind": "landmark"
   }
  },
  {
   "type": "Feature",
   "geometry": {
    "type": "Point",
    "coordinates": [
     -97.7403,
     30.2747
    ]
   },
   "properties": {
    "title": "Suspect tied to credible threat of Texas Capitol attack arrested",
    "link": "https://www.texastribune.org/2026/09/30/texas-capitol-attack-credible-threat-suspect-arrest/",
    "outlet": "Texas Tribune",
    "group": "government",
    "color": "#d9a95a",
    "published": "2026-09-30T22:54:19.000Z",
    "summary": "The Department of Public Safety arrested a 40-year-old Converse resident after receiving credible information about a “violent attack” on the state Capitol, the agency said. The post Suspect tied to credible threat of Texas Capitol attack arrested appeared first on The Texas Tribune .",
    "place": "Texas Capitol",
    "placeKind": "landmark"
   }
  },
  {
   "type": "Feature",
   "geometry": null,
   "properties": {
    "title": "How not to answer a 911 call",
    "link": "https://www.austinpolitics.net/how-not-to-answer-a-911-call/",
    "outlet": "Austin Politics",
    "group": "government",
    "color": "#e8b35e",
    "published": "2026-09-30T22:28:28.000Z",
    "summary": "A deaf man was mistakenly deemed drunk.",
    "place": null,
    "placeKind": null
   }
  },
  {
   "type": "Feature",
   "geometry": {
    "type": "Point",
    "coordinates": [
     -97.7403,
     30.2747
    ]
   },
   "properties": {
    "title": "Suspect arrested in ‘credible’ plot to attack Texas Capitol on Thursday, DPS says",
    "link": "https://www.kut.org/austin/2026-09-30/austin-tx-capitol-attack-threat-dps-arrests-texas",
    "outlet": "KUT",
    "group": "news",
    "color": "#b9a8f0",
    "published": "2026-09-30T21:37:07.000Z",
    "summary": "The U.S. Attorney's Office said the suspect allegedly told another individual that he planned to go to the Texas Capitol and “shoot it up,” specifically expressing anger toward the American Israel Public Affairs Committee.",
    "place": "Texas Capitol",
    "placeKind": "landmark"
   }
  },
  {
   "type": "Feature",
   "geometry": {
    "type": "Point",
    "coordinates": [
     -97.76776,
     30.25608
    ]
   },
   "properties": {
    "title": "City of Austin suddenly takes over management of Zilker Botanical Garden",
    "link": "https://www.kut.org/austin/2026-09-30/austin-tx-zilker-botanical-garden-conservancy-cease-operations",
    "outlet": "KUT",
    "group": "news",
    "color": "#b9a8f0",
    "published": "2026-09-30T20:08:46.000Z",
    "summary": "The city is taking over for the nonprofit Zilker Botanical Garden Conservancy that has run the facility since 2015, providing educational programming, plant shows and sales, and other community activities. The group also operated the gift shop and admissions.",
    "place": "Zilker",
    "placeKind": "neighborhood"
   }
  },
  {
   "type": "Feature",
   "geometry": {
    "type": "Point",
    "coordinates": [
     -97.76776,
     30.25608
    ]
   },
   "properties": {
    "title": "Zilker Botanical Garden to temporarily close in October",
    "link": "https://communityimpact.com/central-austin/development/zilker-botanical-garden-to-temporarily-close-in-october/",
    "outlet": "Community Impact",
    "group": "planning",
    "color": "#5fc4b6",
    "published": "2026-09-30T20:00:00.000Z",
    "summary": "",
    "place": "Zilker",
    "placeKind": "neighborhood"
   }
  },
  {
   "type": "Feature",
   "geometry": null,
   "properties": {
    "title": "Austin metro ranks No. 6 on national housing and affordability report",
    "link": "https://austin.culturemap.com/news/real-estate/austin-housing-affordability-report-card/",
    "outlet": "CultureMap",
    "group": "realestate",
    "color": "#e07a99",
    "published": "2026-09-30T18:03:02.000Z",
    "summary": "A new national real estate report card has rated Austin top of the class for housing demand and affordability. Realtor.com's first-ever Metro Affordability & Homebuilding Report Card compared the 100 largest metropolitan areas in the U.S. based on two scores: an \"Affordability Components\" score that examined the current affordability of housing for residents, and a \"Homebuilding Components\" score ",
    "place": null,
    "placeKind": null
   }
  },
  {
   "type": "Feature",
   "geometry": null,
   "properties": {
    "title": "Developers break ground on The Neue in downtown New Braunfels",
    "link": "https://communityimpact.com/new-braunfels/development/developers-break-ground-on-the-neue-in-downtown-new-braunfels/",
    "outlet": "Community Impact",
    "group": "planning",
    "color": "#5fc4b6",
    "published": "2026-09-30T16:38:37.000Z",
    "summary": "",
    "place": null,
    "placeKind": null
   }
  },
  {
   "type": "Feature",
   "geometry": null,
   "properties": {
    "title": "Dalfen Puts 800K-SF Austin Logistics Park Up for Sale",
    "link": "https://www.connectcre.com/stories/dalfen-puts-800k-sf-austin-logistics-park-up-for-sale/",
    "outlet": "Connect CRE",
    "group": "realestate",
    "color": "#e07a99",
    "published": "2026-09-30T16:12:42.000Z",
    "summary": "Furniture maker Four Hands recently expanded its space requirements at the Airport Logistics Center in Austin to include just over 800,000 square feet across two buildings. The Austin Business Journal reports that the project’s owner, Dalfen Industrial, has put the warehouse facility up for sale now that it’s 100% occupied. The property at 6106 Ross ... The post Dalfen Puts 800K-SF Austin Logistic",
    "place": null,
    "placeKind": null
   }
  },
  {
   "type": "Feature",
   "geometry": {
    "type": "Point",
    "coordinates": [
     -97.78,
     30.33
    ]
   },
   "properties": {
    "title": "Travis County’s $2.3B budget funds mental healthcare, natural disasters and another rail study",
    "link": "https://austincurrent.org/2026/09/30/travis-county-budget-mental-healthcare-natural-disasters-rail/",
    "outlet": "Austin Current",
    "group": "news",
    "color": "#b9a8f0",
    "published": "2026-09-30T15:21:00.000Z",
    "summary": "Travis County’s revenue comes mostly from property taxes, and it makes up about a fifth of an Austinite's property tax bill. The post Travis County’s $2.3B budget funds mental healthcare, natural disasters and another rail study appeared first on Austin Current .",
    "place": "Travis County",
    "placeKind": "county"
   }
  },
  {
   "type": "Feature",
   "geometry": null,
   "properties": {
    "title": "Hotel opening soon in New Braunfels along the Guadalupe River",
    "link": "https://communityimpact.com/new-braunfels/development/hotel-opening-soon-in-new-braunfels-along-the-guadalupe-river/",
    "outlet": "Community Impact",
    "group": "planning",
    "color": "#5fc4b6",
    "published": "2026-09-30T11:00:00.000Z",
    "summary": "",
    "place": null,
    "placeKind": null
   }
  },
  {
   "type": "Feature",
   "geometry": {
    "type": "Point",
    "coordinates": [
     -97.77,
     30.29
    ]
   },
   "properties": {
    "title": "1,000 apartments cleared for MoPac site in Southwest Austin despite Circle C residents' traffic, safety concerns",
    "link": "https://communityimpact.com/southwest-austin-dripping-springs/development/1-000-apartments-cleared-for-mopac-site-in-southwest-austin-despite-circle-c-residents-traffic-safety-concerns/",
    "outlet": "Community Impact",
    "group": "planning",
    "color": "#5fc4b6",
    "published": "2026-09-30T11:00:00.000Z",
    "summary": "",
    "place": "MoPac",
    "placeKind": "road"
   }
  },
  {
   "type": "Feature",
   "geometry": {
    "type": "Point",
    "coordinates": [
     -97.738,
     30.268
    ]
   },
   "properties": {
    "title": "APD Detectives Search for a Suspect in Connection to Auto Theft",
    "link": "https://www.austintexas.gov/police/news/apd-detectives-search-suspect-connection-auto-theft-1",
    "outlet": "City of Austin",
    "group": "government",
    "color": "#f0c27a",
    "published": "2026-09-30T00:00:00.000Z",
    "summary": "<p><strong>Case:</strong><span> 26-2580435</span><br><strong>&nbsp;</strong><br><strong>Date: </strong><span>Tuesday, September 15, 2026</span><br><span>&nbsp;</span><br><strong>Time:</strong><span> 1:21 a.m.</span><br><span>&nbsp;</span><br><strong>Location:</strong><span>&nbsp; 5211 E. 7th Street</span><br><span>&nbsp;</span><br><span>The Austin Police (APD) Auto Theft Unit is requesting assista",
    "place": "Austin Police",
    "placeKind": "landmark"
   }
  },
  {
   "type": "Feature",
   "geometry": null,
   "properties": {
    "title": "Fall Festival Season Returns to Austin",
    "link": "https://www.austintexas.gov/emergency-management/news/fall-festival-season-returns-austin",
    "outlet": "City of Austin",
    "group": "government",
    "color": "#f0c27a",
    "published": "2026-09-30T00:00:00.000Z",
    "summary": "<p paraid=\"1637920701\" paraeid=\"{42bbdce3-22ff-4404-844b-cc5a7e5914ec}{92}\"><span data-contrast=\"auto\" xml:lang=\"EN-US\" lang=\"EN-US\">The 25</span><span data-contrast=\"auto\" xml:lang=\"EN-US\" lang=\"EN-US\" data-fontsize=\"11\">th</span><span data-contrast=\"auto\" xml:lang=\"EN-US\" lang=\"EN-US\"> </span><a href=\"https://www.aclfestival.com/\"><span data-contrast=\"none\" xml:lang=\"EN-US\" lang=\"EN-US\" data-ccp",
    "place": null,
    "placeKind": null
   }
  },
  {
   "type": "Feature",
   "geometry": null,
   "properties": {
    "title": "City launches Austin Bond Dashboard to share project status and spending of bond-funded projects",
    "link": "https://www.austintexas.gov/capital-delivery/news/city-launches-austin-bond-dashboard-share-project-status-and-spending-bond",
    "outlet": "City of Austin",
    "group": "government",
    "color": "#f0c27a",
    "published": "2026-09-30T00:00:00.000Z",
    "summary": "<p paraid=\"1766629420\" paraeid=\"{cf758634-42a2-4c41-8d31-a213f96b23c3}{14}\"><span data-contrast=\"auto\" xml:lang=\"EN-US\" lang=\"EN-US\">AUSTIN, Texas — The City of Austin launched the Austin Bond Dashboard to provide a transparent, community-friendly view of the City’s General Obligation bond-funded capital projects.</span></p><p paraid=\"1766629420\" paraeid=\"{cf758634-42a2-4c41-8d31-a213f96b23c3}{14}",
    "place": null,
    "placeKind": null
   }
  },
  {
   "type": "Feature",
   "geometry": null,
   "properties": {
    "title": "New H-E-B and apartments: 5 major Austin-area permits filed this week",
    "link": "https://communityimpact.com/leander-liberty-hill/development/new-h-e-b-and-apartments-5-major-austin-area-permits-filed-this-week/",
    "outlet": "Community Impact",
    "group": "planning",
    "color": "#5fc4b6",
    "published": "2026-09-29T20:04:00.000Z",
    "summary": "",
    "place": null,
    "placeKind": null
   }
  },
  {
   "type": "Feature",
   "geometry": {
    "type": "Point",
    "coordinates": [
     -97.7,
     30.21
    ]
   },
   "properties": {
    "title": "An unusual zoning case in Southeast Austin",
    "link": "https://www.austinpolitics.net/an-unusual-zoning-case-in-southeast-austin/",
    "outlet": "Austin Politics",
    "group": "government",
    "color": "#e8b35e",
    "published": "2026-09-29T19:57:33.000Z",
    "summary": "Including strange allegations of bribery.",
    "place": "Southeast Austin",
    "placeKind": "district"
   }
  },
  {
   "type": "Feature",
   "geometry": {
    "type": "Point",
    "coordinates": [
     -97.78,
     30.33
    ]
   },
   "properties": {
    "title": "Travis County's $2.3B budget funds mental healthcare, natural disasters and another rail study",
    "link": "https://www.kut.org/austin/2026-09-29/travis-county-budget-mental-healthcare-natural-disasters-rail",
    "outlet": "KUT",
    "group": "news",
    "color": "#b9a8f0",
    "published": "2026-09-29T19:25:38.000Z",
    "summary": "Travis County's budget went up 4% this year, but some people will pay a little less in taxes. Someone with a home valued at $372,633 will pay $1,439 in property taxes to the county — about $30 less than last year.",
    "place": "Travis County",
    "placeKind": "county"
   }
  },
  {
   "type": "Feature",
   "geometry": null,
   "properties": {
    "title": "Austin man shot by ICE agent charged with assault, resisting arrest",
    "link": "https://www.texastribune.org/2026/09/29/ice-texas-shooting-wilber-rafael-garces-perez-criminal-complaint/",
    "outlet": "Texas Tribune",
    "group": "government",
    "color": "#d9a95a",
    "published": "2026-09-29T16:28:57.000Z",
    "summary": "In a federal criminal complaint, DHS says Wilber Rafael Garces Perez knew he was fleeing federal agents and his car’s sideview mirror struck an officer. A judge ordered him to remain in detention. The post Austin man shot by ICE agent charged with assault, resisting arrest appeared first on The Texas Tribune .",
    "place": null,
    "placeKind": null
   }
  },
  {
   "type": "Feature",
   "geometry": null,
   "properties": {
    "title": "Art Spark Texas celebrates six artists breaking barriers",
    "link": "https://www.kut.org/life-arts/2026-09-29/austin-tx-art-spark-artists-of-the-year-celebrates-artists-with-disabilities",
    "outlet": "KUT",
    "group": "news",
    "color": "#b9a8f0",
    "published": "2026-09-29T12:44:59.000Z",
    "summary": "Sunday's ceremony honored artists with disabilities and veterans working to create a more inclusive arts community.",
    "place": null,
    "placeKind": null
   }
  },
  {
   "type": "Feature",
   "geometry": {
    "type": "Point",
    "coordinates": [
     -97.6772,
     30.6333
    ]
   },
   "properties": {
    "title": "gFiber breaks ground in Georgetown, plans 2027 service launch",
    "link": "https://communityimpact.com/georgetown/development/gfiber-breaks-ground-in-georgetown-expects-2027-service-launch/",
    "outlet": "Community Impact",
    "group": "planning",
    "color": "#5fc4b6",
    "published": "2026-09-29T11:00:00.000Z",
    "summary": "",
    "place": "Georgetown",
    "placeKind": "city"
   }
  },
  {
   "type": "Feature",
   "geometry": {
    "type": "Point",
    "coordinates": [
     -97.72062,
     30.25546
    ]
   },
   "properties": {
    "title": "Austin's grayDUCK gallery closes after 16 years — on founder's own terms",
    "link": "https://www.kut.org/life-arts/2026-09-29/austin-tx-grayduck-gallery-closing-wake-party",
    "outlet": "KUT",
    "group": "news",
    "color": "#b9a8f0",
    "published": "2026-09-29T10:07:00.000Z",
    "summary": "After more than 120 exhibitions, Jill Schroeder said it was time to step away from the constant commitment needed to keep the space running to its potential. She hosted a wake for the gallery Saturday.",
    "place": "Grayduck Gallery",
    "placeKind": "gallery"
   }
  },
  {
   "type": "Feature",
   "geometry": null,
   "properties": {
    "title": "Austin woman fights for husband's release from ICE custody while preparing to give birth",
    "link": "https://www.kut.org/austin/2026-09-29/ice-detention-arrest-austin-mother-family",
    "outlet": "KUT",
    "group": "news",
    "color": "#b9a8f0",
    "published": "2026-09-29T10:00:00.000Z",
    "summary": "Families across Austin have been quietly suffering the impacts of increased ICE activity in recent months. This is one family's story.",
    "place": null,
    "placeKind": null
   }
  },
  {
   "type": "Feature",
   "geometry": null,
   "properties": {
    "title": "‘Rock and a hard place’: Burnet parents weigh petition to close schools amid takeover threat",
    "link": "https://austincurrent.org/2026/09/28/austin-district-takeover-petition-webb-burnet/",
    "outlet": "Austin Current",
    "group": "news",
    "color": "#b9a8f0",
    "published": "2026-09-29T03:56:22.000Z",
    "summary": "Burnet and Webb families face an Oct. 15 petition deadline while the district appeals both schools’ ratings. The post ‘Rock and a hard place’: Burnet parents weigh petition to close schools amid takeover threat appeared first on Austin Current .",
    "place": null,
    "placeKind": null
   }
  },
  {
   "type": "Feature",
   "geometry": {
    "type": "Point",
    "coordinates": [
     -97.8203,
     30.5052
    ]
   },
   "properties": {
    "title": "Cedar Park's RE|CREATE gives library new life",
    "link": "https://communityimpact.com/cedar-park/development/cedar-park-s-re-create-give-library-new-life/",
    "outlet": "Community Impact",
    "group": "planning",
    "color": "#5fc4b6",
    "published": "2026-09-28T22:37:00.000Z",
    "summary": "",
    "place": "Cedar Park",
    "placeKind": "city"
   }
  },
  {
   "type": "Feature",
   "geometry": {
    "type": "Point",
    "coordinates": [
     -97.718,
     30.265
    ]
   },
   "properties": {
    "title": "Austin native wants to serve District 1",
    "link": "https://theaustinbulldog.org/austin-native-wants-to-serve-district-1/",
    "outlet": "The Austin Bulldog",
    "group": "government",
    "color": "#e8b35e",
    "published": "2026-09-28T21:45:35.000Z",
    "summary": "Steven Andrew Brown’s roots go deep in East Austin’s District 1. He was born and raised in Austin. His great-grandmother, grandfather (who served in WW II), and grandmother are all buried in the Evergreen Cemetery at 3300 E. 12th St. He bought a plot to be buried there too. The City of Austin established the […]",
    "place": "East Austin",
    "placeKind": "district"
   }
  },
  {
   "type": "Feature",
   "geometry": {
    "type": "Point",
    "coordinates": [
     -97.6789,
     30.5083
    ]
   },
   "properties": {
    "title": "Round Rock OKs alcohol sales in The District",
    "link": "https://communityimpact.com/round-rock/development/round-rock-oks-alcohol-sale-allowance-for-the-district/",
    "outlet": "Community Impact",
    "group": "planning",
    "color": "#5fc4b6",
    "published": "2026-09-28T21:42:00.000Z",
    "summary": "",
    "place": "Round Rock",
    "placeKind": "city"
   }
  },
  {
   "type": "Feature",
   "geometry": null,
   "properties": {
    "title": "An ICE boost for Misael Ramos?",
    "link": "https://www.austinpolitics.net/an-ice-boost-for-misael-ramos/",
    "outlet": "Austin Politics",
    "group": "government",
    "color": "#e8b35e",
    "published": "2026-09-28T20:54:58.000Z",
    "summary": "Getting arrested can be good politics.",
    "place": null,
    "placeKind": null
   }
  },
  {
   "type": "Feature",
   "geometry": null,
   "properties": {
    "title": "4 parks coming soon to Mayfair in New Braunfels",
    "link": "https://communityimpact.com/new-braunfels/development/4-parks-coming-soon-to-mayfair-in-new-braunfels/",
    "outlet": "Community Impact",
    "group": "planning",
    "color": "#5fc4b6",
    "published": "2026-09-28T20:00:00.000Z",
    "summary": "",
    "place": null,
    "placeKind": null
   }
  },
  {
   "type": "Feature",
   "geometry": {
    "type": "Point",
    "coordinates": [
     -97.746,
     30.245
    ]
   },
   "properties": {
    "title": "Webb parents have weeks left to request school closure, avoid takeover — but many questions remain",
    "link": "https://austincurrent.org/2026/09/28/webb-middle-school-austin-tx-closure-petition-parent-meeting-aisd-takeover/",
    "outlet": "Austin Current",
    "group": "news",
    "color": "#b9a8f0",
    "published": "2026-09-28T19:04:52.000Z",
    "summary": "During a meeting on Thursday with families from Webb Middle School, Austin ISD Superintendent Matias Segura explained that parents have a slim window of time to get the state to hear their voices regarding the future of their school. But some parents still have questions on why closing their school is on the table once […] The post Webb parents have weeks left to request school closure, avoid take",
    "place": "Austin ISD",
    "placeKind": "landmark"
   }
  },
  {
   "type": "Feature",
   "geometry": null,
   "properties": {
    "title": "Chip and Joanna Gaines sell $2.7M Waco castle from Fixer Upper",
    "link": "https://austin.culturemap.com/news/real-estate/chip-joanna-gaines-sell-castle/",
    "outlet": "CultureMap",
    "group": "realestate",
    "color": "#e07a99",
    "published": "2026-09-28T16:03:05.000Z",
    "summary": "Texas' king and queen of home renovations, Chip and Joanna Gaines , are done lording over their 136-year-old castle in Waco. The stars of TV’s Fixer Upper have found a buyer for Cottonland Castle, Mansion Global reported . The sale was pending at the time of the report. The Gaineses listed the 6,176-square-foot castle in Waco's historic and affluent Castle Heights neighborhood at nearly $2.7 milli",
    "place": null,
    "placeKind": null
   }
  },
  {
   "type": "Feature",
   "geometry": null,
   "properties": {
    "title": "Texas Icon Katie Van Dyk: Bridging business, creativity and complexity in real estate law",
    "link": "https://rejournals.com/texas-icon-katie-van-dyk-bridging-business-creativity-and-complexity-in-real-estate-law/?utm_source=rss&#038;utm_medium=rss&#038;utm_campaign=texas-icon-katie-van-dyk-bridging-business-creativity-and-complexity-in-real-estate-law",
    "outlet": "REjournals",
    "group": "realestate",
    "color": "#d06a8a",
    "published": "2026-09-28T09:43:00.000Z",
    "summary": "She might be advising a small bakery on a lease one moment and helping secure a gigawatt-sized data center the next. That range is not... Learn More",
    "place": null,
    "placeKind": null
   }
  },
  {
   "type": "Feature",
   "geometry": null,
   "properties": {
    "title": "Anderson competing for District 1 Council seat",
    "link": "https://theaustinbulldog.org/anderson-competing-for-district-1-council-seat/",
    "outlet": "The Austin Bulldog",
    "group": "government",
    "color": "#e8b35e",
    "published": "2026-09-27T22:02:53.000Z",
    "summary": "Alexandria Marie Anderson, 39, is one of six candidates running for the City Council position held by Natasha Harper-Madison, who is term-limited and did not petition to get on the ballot again. This is the only district represented by an African-American. In 1971, Berl Handcox was the first African American was elected to the City […]",
    "place": null,
    "placeKind": null
   }
  },
  {
   "type": "Feature",
   "geometry": null,
   "properties": {
    "title": "Watch: Joaquin Castro, Sigrid Gonzalez and Rochelle Garza discuss Texas’ ICE detention centers",
    "link": "https://www.texastribune.org/2026/09/26/texas-ice-detention-centers-joaquin-castro-tribfest-2026/",
    "outlet": "Texas Tribune",
    "group": "government",
    "color": "#d9a95a",
    "published": "2026-09-26T19:05:00.000Z",
    "summary": "People who have been inside Texas’ ICE detention centers describe what’s happening, who's being held and what it means for communities, families and the rule of law at 2:15 p.m. Saturday. The post Watch: Joaquin Castro, Sigrid Gonzalez and Rochelle Garza discuss Texas’ ICE detention centers appeared first on The Texas Tribune .",
    "place": null,
    "placeKind": null
   }
  },
  {
   "type": "Feature",
   "geometry": null,
   "properties": {
    "title": "Karl Rove says John Cornyn, not Paxton, could beat Talarico",
    "link": "https://www.texastribune.org/2026/09/26/karl-rove-republicans-tribfest-2026/",
    "outlet": "Texas Tribune",
    "group": "government",
    "color": "#d9a95a",
    "published": "2026-09-26T16:08:07.000Z",
    "summary": "Karl Rove speaks at the 2026 Texas Tribune Festival, focusing on the comments made by Bo French and the U.S. Senate race. The post Karl Rove says John Cornyn, not Paxton, could beat Talarico appeared first on The Texas Tribune .",
    "place": null,
    "placeKind": null
   }
  },
  {
   "type": "Feature",
   "geometry": {
    "type": "Point",
    "coordinates": [
     -97.746,
     30.245
    ]
   },
   "properties": {
    "title": "Austin council gives final OK to Rosedale School rezoning",
    "link": "https://communityimpact.com/central-austin/development/austin-council-gives-final-ok-to-rosedale-school-rezoning/",
    "outlet": "Community Impact",
    "group": "planning",
    "color": "#5fc4b6",
    "published": "2026-09-25T20:00:00.000Z",
    "summary": "Now, the case hinges on Austin ISD winning its lawsuit against Rosedale homeowners.",
    "place": "Austin ISD",
    "placeKind": "landmark"
   }
  },
  {
   "type": "Feature",
   "geometry": {
    "type": "Point",
    "coordinates": [
     -97.6789,
     30.5083
    ]
   },
   "properties": {
    "title": "This is the best time to buy a home in Austin in 2026, experts say",
    "link": "https://austin.culturemap.com/news/real-estate/best-time-to-buy-fall-2026/",
    "outlet": "CultureMap",
    "group": "realestate",
    "color": "#e07a99",
    "published": "2026-09-25T19:42:05.000Z",
    "summary": "Austin residents who are finally ready to become homeowners are just 10 days away from the best window to buy their first home, a new housing report has revealed. According to the report, the week of September 27 to October 3 is the best time to buy a home in the Austin-Round Rock-San Marcos metro. The analysts at Austin-based real estate listings website Realtor.com say this period offers home bu",
    "place": "Round Rock",
    "placeKind": "city"
   }
  },
  {
   "type": "Feature",
   "geometry": null,
   "properties": {
    "title": "Texas’ maternal health report delay is political and puts pregnant women at risk, lawmakers say",
    "link": "https://www.texastribune.org/2026/09/25/texas-maternal-mortality-committee-report-election-delay/",
    "outlet": "Texas Tribune",
    "group": "government",
    "color": "#d9a95a",
    "published": "2026-09-25T19:29:29.000Z",
    "summary": "The highly anticipated report, which includes deaths that occurred after Texas banned abortions, has recommendations on how to reduce pregnancy risks. The post Texas’ maternal health report delay is political and puts pregnant women at risk, lawmakers say appeared first on The Texas Tribune .",
    "place": null,
    "placeKind": null
   }
  },
  {
   "type": "Feature",
   "geometry": {
    "type": "Point",
    "coordinates": [
     -97.6772,
     30.6333
    ]
   },
   "properties": {
    "title": "Georgetown gives green light for Woodside developer to build additional age-restricted housing",
    "link": "https://communityimpact.com/georgetown/development/georgetown-gives-green-light-for-woodside-developer-to-build-additional-age-restricted-housing/",
    "outlet": "Community Impact",
    "group": "planning",
    "color": "#5fc4b6",
    "published": "2026-09-25T18:15:00.000Z",
    "summary": "",
    "place": "Georgetown",
    "placeKind": "city"
   }
  },
  {
   "type": "Feature",
   "geometry": {
    "type": "Point",
    "coordinates": [
     -97.74582,
     30.31602
    ]
   },
   "properties": {
    "title": "Austin Developer Greenlit to Build Apartment Units at Former School Site",
    "link": "https://www.connectcre.com/stories/austin-developer-greenlit-to-build-apartment-units-at-former-school-site/",
    "outlet": "Connect CRE",
    "group": "realestate",
    "color": "#e07a99",
    "published": "2026-09-25T17:09:19.000Z",
    "summary": "OHT Partners was recently greenlit by the Austin City Council for a zoning change to build a 435-unit apartment complex on the site of a former Austin school. The site under consideration is where the shuttered Rosedale Elementary is located. The Austin Business Journal reports that currently, the property is owned by the school district. The ... The post Austin Developer Greenlit to Build Apartme",
    "place": "Rosedale",
    "placeKind": "neighborhood"
   }
  },
  {
   "type": "Feature",
   "geometry": {
    "type": "Point",
    "coordinates": [
     -97.746,
     30.245
    ]
   },
   "properties": {
    "title": "Austin parents should have say in future of failing schools, state takeover, superintendent says",
    "link": "https://www.texastribune.org/2026/09/24/austin-isd-takeover-burnet-webb-petition-mayor/",
    "outlet": "Texas Tribune",
    "group": "government",
    "color": "#d9a95a",
    "published": "2026-09-24T21:31:10.000Z",
    "summary": "Austin ISD Superintendent Matias Segura shared his support of a parent petition to close schools allowed in the state’s intervention policy. The post Austin parents should have say in future of failing schools, state takeover, superintendent says appeared first on The Texas Tribune .",
    "place": "Austin ISD",
    "placeKind": "landmark"
   }
  },
  {
   "type": "Feature",
   "geometry": {
    "type": "Point",
    "coordinates": [
     -97.72,
     30.38
    ]
   },
   "properties": {
    "title": "Palm Springs-style Austin home with calming garden lists for $1.7M",
    "link": "https://austin.culturemap.com/news/real-estate/palm-springs-inspired-house-sale/",
    "outlet": "CultureMap",
    "group": "realestate",
    "color": "#e07a99",
    "published": "2026-09-24T21:12:45.000Z",
    "summary": "When Josh Ganderson and Stacey Swinehart redesigned their home in North Austin’s Crestview neighborhood, they set out to create a calming atmosphere. “I wanted the entire property to feel like a getaway,” Ganderson told CultureMap. “The goal was to create a space where relaxing isn’t something you plan for — it’s just built into your daily routine.” After living there since 2015, Ganderson and Swi",
    "place": "North Austin",
    "placeKind": "district"
   }
  },
  {
   "type": "Feature",
   "geometry": {
    "type": "Point",
    "coordinates": [
     -97.8203,
     30.5052
    ]
   },
   "properties": {
    "title": "Firefly scales up spacecraft production with new Cedar Park cleanroom",
    "link": "https://communityimpact.com/cedar-park/development/firefly-scales-up-spacecraft-production-with-new-cedar-park-cleanroom/",
    "outlet": "Community Impact",
    "group": "planning",
    "color": "#5fc4b6",
    "published": "2026-09-24T21:05:14.000Z",
    "summary": "",
    "place": "Cedar Park",
    "placeKind": "city"
   }
  },
  {
   "type": "Feature",
   "geometry": null,
   "properties": {
    "title": "Another problem with Prop I",
    "link": "https://www.austinpolitics.net/another-problem-with-prop-i/",
    "outlet": "Austin Politics",
    "group": "government",
    "color": "#e8b35e",
    "published": "2026-09-24T20:09:32.000Z",
    "summary": "What does a \"complete\" audit mean?",
    "place": null,
    "placeKind": null
   }
  },
  {
   "type": "Feature",
   "geometry": {
    "type": "Point",
    "coordinates": [
     -97.742,
     30.26
    ]
   },
   "properties": {
    "title": "Austin light-rail agency scraps $47 million office plan, expands next door instead",
    "link": "https://www.kut.org/transportation/2026-09-24/austin-tx-light-rail-atp-downtown-office-expansion",
    "outlet": "KUT",
    "group": "planning",
    "color": "#7ad4c8",
    "published": "2026-09-24T19:51:08.000Z",
    "summary": "After Mayor Kirk Watson criticized the Austin Transit Partnership's plan to move into a high-rise overlooking Lady Bird Lake, the agency's board voted unanimously to approve a less expensive lease.",
    "place": "Lady Bird Lake",
    "placeKind": "lake"
   }
  },
  {
   "type": "Feature",
   "geometry": null,
   "properties": {
    "title": "Ryan Alter seeks a second term",
    "link": "https://theaustinbulldog.org/ryan-alter-seeks-a-second-term/",
    "outlet": "The Austin Bulldog",
    "group": "government",
    "color": "#e8b35e",
    "published": "2026-09-24T16:24:21.000Z",
    "summary": "Ryan Alter, 37, won the District 5 council seat by defeating Stephanie Bazan 59.6 percent to 40.4 percent in a runoff election in November 2022. As reported by the Bulldog, Alter began fundraising for reelection at the end of 2023, three years before his term would expire. After holding fundraising events at the Headliners Club, […]",
    "place": null,
    "placeKind": null
   }
  },
  {
   "type": "Feature",
   "geometry": {
    "type": "Point",
    "coordinates": [
     -97.7431,
     30.269
    ]
   },
   "properties": {
    "title": "KBS Sells 26-Story Austin Office Tower",
    "link": "https://www.connectcre.com/stories/kbs-acquires-26-story-austin-office-tower/",
    "outlet": "Connect CRE",
    "group": "realestate",
    "color": "#e07a99",
    "published": "2026-09-24T15:53:04.000Z",
    "summary": "KBS completed the sale of 515 Congress, a 26-story, 267,956-square-foot Class A office tower at the corner of Congress Avenue and Sixth Street in downtown Austin, Texas. A joint venture of Palmatum Ventures, AQUILA and Glendon Capital Management acquired the property. JLL represented KBS in the transaction. 515 Congress was owned by KBS Real Estate Investment Trust III. Located in ... The post KBS",
    "place": "Congress Avenue",
    "placeKind": "street"
   }
  },
  {
   "type": "Feature",
   "geometry": null,
   "properties": {
    "title": "City of Austin Council Message Board • Circle C Tract 110 (9/24 items 83 & 92)",
    "link": "https://austincouncilforum.org/viewtopic.php?p=4978#p4978",
    "outlet": "Council Message Board",
    "group": "government",
    "color": "#f0c27a",
    "published": "2026-09-24T15:10:01.000Z",
    "summary": "On behalf of CM Ellis: Colleagues, I want to share information on two items related to District 8’s Circle C Tract 110 on today’s Council agenda: a zoning case (item #92) and a related fourth amendment to the Development Agreement (item #83). Due to the complex history and legal agreements related to Circle C, this case presented unique challenges to navigate, and I’ve upheld a commitment to heari",
    "place": null,
    "placeKind": null
   }
  },
  {
   "type": "Feature",
   "geometry": null,
   "properties": {
    "title": "Yardi Matrix study: Self-storage rents still falling",
    "link": "https://rejournals.com/yardi-matrix-study-self-storage-rents-still-falling/?utm_source=rss&#038;utm_medium=rss&#038;utm_campaign=yardi-matrix-study-self-storage-rents-still-falling",
    "outlet": "REjournals",
    "group": "realestate",
    "color": "#d06a8a",
    "published": "2026-09-24T09:04:00.000Z",
    "summary": "The U.S. self-storage market continues to struggle with weak rent growth, with advertised rates falling deeper into negative territory in August, according to the latest... Learn More",
    "place": null,
    "placeKind": null
   }
  },
  {
   "type": "Feature",
   "geometry": null,
   "properties": {
    "title": "My thoughts on Steve Adler's book",
    "link": "https://www.austinpolitics.net/my-thoughts-on-steve-adlers-book/",
    "outlet": "Austin Politics",
    "group": "government",
    "color": "#e8b35e",
    "published": "2026-09-24T01:08:20.000Z",
    "summary": "The parts I liked, the parts I didn't.",
    "place": null,
    "placeKind": null
   }
  },
  {
   "type": "Feature",
   "geometry": null,
   "properties": {
    "title": "Venezuelan man shot by ICE officer needs surgery to remove the bullet, U.S. Rep. Greg Casar says",
    "link": "https://www.texastribune.org/2026/09/23/texas-austin-shooting-ice-officer-no-body-cam-reports/",
    "outlet": "Texas Tribune",
    "group": "government",
    "color": "#d9a95a",
    "published": "2026-09-23T17:35:49.000Z",
    "summary": "The man was shot by a recent ICE recruit who was not wearing a body camera, according to news reports. The post Venezuelan man shot by ICE officer needs surgery to remove the bullet, U.S. Rep. Greg Casar says appeared first on The Texas Tribune .",
    "place": null,
    "placeKind": null
   }
  },
  {
   "type": "Feature",
   "geometry": null,
   "properties": {
    "title": "Who's against the audit referendum?",
    "link": "https://www.austinpolitics.net/whos-against-the-audit-referendum/",
    "outlet": "Austin Politics",
    "group": "government",
    "color": "#e8b35e",
    "published": "2026-09-22T21:26:41.000Z",
    "summary": "Prop I opponents should be wary of appearing complacent.",
    "place": null,
    "placeKind": null
   }
  },
  {
   "type": "Feature",
   "geometry": null,
   "properties": {
    "title": "Austin declared one of the top 10 buyer's markets in U.S. right now",
    "link": "https://austin.culturemap.com/news/real-estate/top-buyers-markets-in-us/",
    "outlet": "CultureMap",
    "group": "realestate",
    "color": "#e07a99",
    "published": "2026-09-22T20:02:56.000Z",
    "summary": "The tide has turned for the Austin housing market, and buyers now have more power than ever to negotiate on their forever home, a new real estate report has confirmed. Austin has now become one of the top 10 strongest buyer's markets in the nation with sellers outnumbering buyers by about 115 percent, Redfin's newest market trends report found. Nationally, sellers outnumbered buyers by 58 percent ",
    "place": null,
    "placeKind": null
   }
  }
 ]
}
